{"type": "FeatureCollection", "features": [{"type": "Feature", "properties": {"norad_id": 36828, "name": "BEIDOU-2 IGSO-1 (C06)", "group": "beidou", "lat": 2.4970954680324122, "lon": 165.9184304035113, "alt_km": 35974.178825279836, "timestamp": "2026-02-07T18:48:55.709778+00:00", "meta": {"OBJECT_NAME": "BEIDOU-2 IGSO-1 (C06)", "OBJECT_ID": "2010-036A", "EPOCH": "2026-02-07T06:55:30.580896", "MEAN_MOTION": 1.0025942, "ECCENTRICITY": 0.0053079, "INCLINATION": 54.2947, "RA_OF_ASC_NODE": 164.1368, "ARG_OF_PERICENTER": 217.5577, "MEAN_ANOMALY": 326.271, "EPHEMERIS_TYPE": 0, "CLASSIFICATION_TYPE": "U", "NORAD_CAT_ID": 36828, "ELEMENT_SET_NO": 999, "REV_AT_EPOCH": 5679, "BSTAR": 0, "MEAN_MOTION_DOT": -1.11e-06, "MEAN_MOTION_DDOT": 0}, "tle": {"line1": "1 36828U 10036A   26038.28854839 -.00000111  00000+0  00000+0 0  9995", "line2": "2 36828  54.2947 164.1368 0053079 217.5577 326.2710  1.00259420 56798"}}, "geometry": {"type": "Point", "coordinates": [165.9184304035113, 2.4970954680324122]}}, {"type": "Feature", "properties": {"norad_id": 37210, "name": "BEIDOU-2 G4 (C04)", "group": "beidou", "lat": 1.6656253258961387, "lon": -139.9895022102571, "alt_km": 35762.11064842537, "timestamp": "2026-02-07T18:48:55.709801+00:00", "meta": {"OBJECT_NAME": "BEIDOU-2 G4 (C04)", "OBJECT_ID": "2010-057A", "EPOCH": "2026-02-07T12:33:51.856704", "MEAN_MOTION": 1.00273357, "ECCENTRICITY": 0.00099097, "INCLINATION": 3.325, "RA_OF_ASC_NODE": 69.7044, "ARG_OF_PERICENTER": 206.1574, "MEAN_ANOMALY": 210.15, "EPHEMERIS_TYPE": 0, "CLASSIFICATION_TYPE": "U", "NORAD_CAT_ID": 37210, "ELEMENT_SET_NO": 999, "REV_AT_EPOCH": 5599, "BSTAR": 0, "MEAN_MOTION_DOT": -1.1e-06, "MEAN_MOTION_DDOT": 0}, "tle": {"line1": "1 37210U 10057A   26038.52351686 -.00000110  00000+0  00000+0 0  9992", "line2": "2 37210   3.3250  69.7044 0009909 206.1574 210.1500  1.00273357 55995"}}, "geometry": {"type": "Point", "coordinates": [-139.9895022102571, 1.6656253258961387]}}, {"type": "Feature", "properties": {"norad_id": 37256, "name": "BEIDOU-2 IGSO-2 (C07)", "group": "beidou", "lat": -45.67631808972275, "lon": 161.8582880751437, "alt_km": 35641.31602449953, "timestamp": "2026-02-07T18:48:55.709816+00:00", "meta": {"OBJECT_NAME": "BEIDOU-2 IGSO-2 (C07)", "OBJECT_ID": "2010-068A", "EPOCH": "2026-02-07T13:47:06.133056", "MEAN_MOTION": 1.00267664, "ECCENTRICITY": 0.00471782, "INCLINATION": 47.776, "RA_OF_ASC_NODE": 273.4386, "ARG_OF_PERICENTER": 214.3452, "MEAN_ANOMALY": 324.7781, "EPHEMERIS_TYPE": 0, "CLASSIFICATION_TYPE": "U", "NORAD_CAT_ID": 37256, "ELEMENT_SET_NO": 999, "REV_AT_EPOCH": 5549, "BSTAR": 0, "MEAN_MOTION_DOT": -1.76e-06, "MEAN_MOTION_DDOT": 0}, "tle": {"line1": "1 37256U 10068A   26038.57437654 -.00000176  00000+0  00000+0 0  9991", "line2": "2 37256  47.7760 273.4386 0047178 214.3452 324.7781  1.00267664 55494"}}, "geometry": {"type": "Point", "coordinates": [161.8582880751437, -45.67631808972275]}}, {"type": "Feature", "properties": {"norad_id": 37384, "name": "BEIDOU-2 IGSO-3 (C08)", "group": "beidou", "lat": 47.40175531015134, "lon": -174.01424654270124, "alt_km": 35724.257686048964, "timestamp": "2026-02-07T18:48:55.709829+00:00", "meta": {"OBJECT_NAME": "BEIDOU-2 IGSO-3 (C08)", "OBJECT_ID": "2011-013A", "EPOCH": "2026-02-05T09:24:06.684192", "MEAN_MOTION": 1.00263613, "ECCENTRICITY": 0.00352701, "INCLINATION": 61.9807, "RA_OF_ASC_NODE": 41.4377, "ARG_OF_PERICENTER": 190.0881, "MEAN_ANOMALY": 150.2641, "EPHEMERIS_TYPE": 0, "CLASSIFICATION_TYPE": "U", "NORAD_CAT_ID": 37384, "ELEMENT_SET_NO": 999, "REV_AT_EPOCH": 5433, "BSTAR": 0, "MEAN_MOTION_DOT": -1.58e-06, "MEAN_MOTION_DDOT": 0}, "tle": {"line1": "1 37384U 11013A   26036.39174403 -.00000158  00000+0  00000+0 0  9992", "line2": "2 37384  61.9807  41.4377 0035270 190.0881 150.2641  1.00263613 54334"}}, "geometry": {"type": "Point", "coordinates": [-174.01424654270124, 47.40175531015134]}}, {"type": "Feature", "properties": {"norad_id": 37763, "name": "BEIDOU-2 IGSO-4 (C09)", "group": "beidou", "lat": -8.268043122815605, "lon": 160.90534980428185, "alt_km": 36095.815159521146, "timestamp": "2026-02-07T18:48:55.709843+00:00", "meta": {"OBJECT_NAME": "BEIDOU-2 IGSO-4 (C09)", "OBJECT_ID": "2011-038A", "EPOCH": "2026-02-02T02:59:57.748416", "MEAN_MOTION": 1.00271568, "ECCENTRICITY": 0.01524713, "INCLINATION": 54.5902, "RA_OF_ASC_NODE": 166.889, "ARG_OF_PERICENTER": 230.5776, "MEAN_ANOMALY": 234.8329, "EPHEMERIS_TYPE": 0, "CLASSIFICATION_TYPE": "U", "NORAD_CAT_ID": 37763, "ELEMENT_SET_NO": 999, "REV_AT_EPOCH": 5329, "BSTAR": 0, "MEAN_MOTION_DOT": -9.1e-07, "MEAN_MOTION_DDOT": 0}, "tle": {"line1": "1 37763U 11038A   26033.12497394 -.00000091  00000+0  00000+0 0  9991", "line2": "2 37763  54.5902 166.8890 0152471 230.5776 234.8329  1.00271568 53291"}}, "geometry": {"type": "Point", "coordinates": [160.90534980428185, -8.268043122815605]}}, {"type": "Feature", "properties": {"norad_id": 37948, "name": "BEIDOU-2 IGSO-5 (C10)", "group": "beidou", "lat": -41.13485629000438, "lon": 145.30651710937462, "alt_km": 35360.18702386516, "timestamp": "2026-02-07T18:48:55.709875+00:00", "meta": {"OBJECT_NAME": "BEIDOU-2 IGSO-5 (C10)", "OBJECT_ID": "2011-073A", "EPOCH": "2026-02-05T17:43:06.631680", "MEAN_MOTION": 1.00278956, "ECCENTRICITY": 0.0108493, "INCLINATION": 47.9149, "RA_OF_ASC_NODE": 273.1728, "ARG_OF_PERICENTER": 221.583, "MEAN_ANOMALY": 1.9526, "EPHEMERIS_TYPE": 0, "CLASSIFICATION_TYPE": "U", "NORAD_CAT_ID": 37948, "ELEMENT_SET_NO": 999, "REV_AT_EPOCH": 5181, "BSTAR": 0, "MEAN_MOTION_DOT": -1.54e-06, "MEAN_MOTION_DDOT": 0}, "tle": {"line1": "1 37948U 11073A   26036.73827120 -.00000154  00000+0  00000+0 0  9999", "line2": "2 37948  47.9149 273.1728 0108493 221.5830   1.9526  1.00278956 51819"}}, "geometry": {"type": "Point", "coordinates": [145.30651710937462, -41.13485629000438]}}, {"type": "Feature", "properties": {"norad_id": 38091, "name": "BEIDOU-2 G5 (C05)", "group": "beidou", "lat": 2.433688761750886, "lon": 118.84315786365792, "alt_km": 35842.04994331714, "timestamp": "2026-02-07T18:48:55.709893+00:00", "meta": {"OBJECT_NAME": "BEIDOU-2 G5 (C05)", "OBJECT_ID": "2012-008A", "EPOCH": "2026-02-07T13:33:07.474176", "MEAN_MOTION": 1.00274391, "ECCENTRICITY": 0.0014081, "INCLINATION": 3.2503, "RA_OF_ASC_NODE": 70.4676, "ARG_OF_PERICENTER": 245.312, "MEAN_ANOMALY": 83.8685, "EPHEMERIS_TYPE": 0, "CLASSIFICATION_TYPE": "U", "NORAD_CAT_ID": 38091, "ELEMENT_SET_NO": 999, "REV_AT_EPOCH": 5106, "BSTAR": 0, "MEAN_MOTION_DOT": 6e-07, "MEAN_MOTION_DDOT": 0}, "tle": {"line1": "1 38091U 12008A   26038.56466984  .00000060  00000+0  00000+0 0  9993", "line2": "2 38091   3.2503  70.4676 0014081 245.3120  83.8685  1.00274391 51064"}}, "geometry": {"type": "Point", "coordinates": [118.84315786365792, 2.433688761750886]}}, {"type": "Feature", "properties": {"norad_id": 38250, "name": "BEIDOU-2 M3 (C11)", "group": "beidou", "lat": 1.166693716769974, "lon": -49.96482227138973, "alt_km": 21520.124388186556, "timestamp": "2026-02-07T18:48:55.709906+00:00", "meta": {"OBJECT_NAME": "BEIDOU-2 M3 (C11)", "OBJECT_ID": "2012-018A", "EPOCH": "2026-02-07T05:52:41.085408", "MEAN_MOTION": 1.86229889, "ECCENTRICITY": 0.0022238, "INCLINATION": 55.8694, "RA_OF_ASC_NODE": 309.2564, "ARG_OF_PERICENTER": 278.863, "MEAN_ANOMALY": 80.9289, "EPHEMERIS_TYPE": 0, "CLASSIFICATION_TYPE": "U", "NORAD_CAT_ID": 38250, "ELEMENT_SET_NO": 999, "REV_AT_EPOCH": 9352, "BSTAR": 0, "MEAN_MOTION_DOT": -8.9e-07, "MEAN_MOTION_DDOT": 0}, "tle": {"line1": "1 38250U 12018A   26038.24491997 -.00000089  00000+0  00000+0 0  9990", "line2": "2 38250  55.8694 309.2564 0022238 278.8630  80.9289  1.86229889 93525"}}, "geometry": {"type": "Point", "coordinates": [-49.96482227138973, 1.166693716769974]}}, {"type": "Feature", "properties": {"norad_id": 38251, "name": "BEIDOU-2 M4 (C12)", "group": "beidou", "lat": 37.146177448677044, "lon": -20.521886813453825, "alt_km": 21543.580937431456, "timestamp": "2026-02-07T18:48:55.709918+00:00", "meta": {"OBJECT_NAME": "BEIDOU-2 M4 (C12)", "OBJECT_ID": "2012-018B", "EPOCH": "2026-02-07T04:14:56.383008", "MEAN_MOTION": 1.86229516, "ECCENTRICITY": 0.00135927, "INCLINATION": 55.7701, "RA_OF_ASC_NODE": 308.4832, "ARG_OF_PERICENTER": 285.1179, "MEAN_ANOMALY": 74.7761, "EPHEMERIS_TYPE": 0, "CLASSIFICATION_TYPE": "U", "NORAD_CAT_ID": 38251, "ELEMENT_SET_NO": 999, "REV_AT_EPOCH": 9352, "BSTAR": 0, "MEAN_MOTION_DOT": -8.8e-07, "MEAN_MOTION_DDOT": 0}, "tle": {"line1": "1 38251U 12018B   26038.17704147 -.00000088  00000+0  00000+0 0  9996", "line2": "2 38251  55.7701 308.4832 0013592 285.1179  74.7761  1.86229516 93528"}}, "geometry": {"type": "Point", "coordinates": [-20.521886813453825, 37.146177448677044]}}, {"type": "Feature", "properties": {"norad_id": 38775, "name": "BEIDOU-2 M6 (C14)", "group": "beidou", "lat": -46.70938714641731, "lon": -67.99875649234662, "alt_km": 21539.474336802225, "timestamp": "2026-02-07T18:48:55.709930+00:00", "meta": {"OBJECT_NAME": "BEIDOU-2 M6 (C14)", "OBJECT_ID": "2012-050B", "EPOCH": "2026-02-07T10:11:10.879008", "MEAN_MOTION": 1.86231003, "ECCENTRICITY": 0.00131952, "INCLINATION": 56.4288, "RA_OF_ASC_NODE": 67.1852, "ARG_OF_PERICENTER": 340.5036, "MEAN_ANOMALY": 19.5, "EPHEMERIS_TYPE": 0, "CLASSIFICATION_TYPE": "U", "NORAD_CAT_ID": 38775, "ELEMENT_SET_NO": 999, "REV_AT_EPOCH": 9089, "BSTAR": 0, "MEAN_MOTION_DOT": -5.2e-07, "MEAN_MOTION_DDOT": 0}, "tle": {"line1": "1 38775U 12050B   26038.42443147 -.00000052  00000+0  00000+0 0  9992", "line2": "2 38775  56.4288  67.1852 0013195 340.5036  19.5000  1.86231003 90899"}}, "geometry": {"type": "Point", "coordinates": [-67.99875649234662, -46.70938714641731]}}, {"type": "Feature", "properties": {"norad_id": 38953, "name": "BEIDOU-2 G6 (C02)", "group": "beidou", "lat": 3.837810284655275, "lon": 144.16399372732064, "alt_km": 35812.15682636836, "timestamp": "2026-02-07T18:48:55.709941+00:00", "meta": {"OBJECT_NAME": "BEIDOU-2 G6 (C02)", "OBJECT_ID": "2012-059A", "EPOCH": "2026-02-07T13:40:14.291904", "MEAN_MOTION": 1.00274194, "ECCENTRICITY": 0.00096879, "INCLINATION": 4.0933, "RA_OF_ASC_NODE": 74.9341, "ARG_OF_PERICENTER": 297.6138, "MEAN_ANOMALY": 54.1725, "EPHEMERIS_TYPE": 0, "CLASSIFICATION_TYPE": "U", "NORAD_CAT_ID": 38953, "ELEMENT_SET_NO": 999, "REV_AT_EPOCH": 4860, "BSTAR": 0, "MEAN_MOTION_DOT": -1.73e-06, "MEAN_MOTION_DDOT": 0}, "tle": {"line1": "1 38953U 12059A   26038.56960986 -.00000173  00000+0  00000+0 0  9993", "line2": "2 38953   4.0933  74.9341 0009687 297.6138  54.1725  1.00274194 48603"}}, "geometry": {"type": "Point", "coordinates": [144.16399372732064, 3.837810284655275]}}, {"type": "Feature", "properties": {"norad_id": 40549, "name": "BEIDOU-3S IGSO-1S (C31)", "group": "beidou", "lat": -28.960048243821543, "lon": 145.31224416635567, "alt_km": 35652.459550970605, "timestamp": "2026-02-07T18:48:55.709955+00:00", "meta": {"OBJECT_NAME": "BEIDOU-3S IGSO-1S (C31)", "OBJECT_ID": "2015-019A", "EPOCH": "2026-01-27T13:54:45.681696", "MEAN_MOTION": 1.0028218, "ECCENTRICITY": 0.00359462, "INCLINATION": 49.4603, "RA_OF_ASC_NODE": 297.1615, "ARG_OF_PERICENTER": 192.2184, "MEAN_ANOMALY": 302.2696, "EPHEMERIS_TYPE": 0, "CLASSIFICATION_TYPE": "U", "NORAD_CAT_ID": 40549, "ELEMENT_SET_NO": 999, "REV_AT_EPOCH": 3966, "BSTAR": 0, "MEAN_MOTION_DOT": -1.8e-06, "MEAN_MOTION_DDOT": 0}, "tle": {"line1": "1 40549U 15019A   26027.57969539 -.00000180  00000+0  00000+0 0  9996", "line2": "2 40549  49.4603 297.1615 0035946 192.2184 302.2696  1.00282180 39669"}}, "geometry": {"type": "Point", "coordinates": [145.31224416635567, -28.960048243821543]}}, {"type": "Feature", "properties": {"norad_id": 40748, "name": "BEIDOU-3S M2S (C58)", "group": "beidou", "lat": -54.99727787538655, "lon": -143.92591938556922, "alt_km": 21506.164768789582, "timestamp": "2026-02-07T18:48:55.709971+00:00", "meta": {"OBJECT_NAME": "BEIDOU-3S M2S (C58)", "OBJECT_ID": "2015-037A", "EPOCH": "2026-02-06T20:16:07.870656", "MEAN_MOTION": 1.86231856, "ECCENTRICITY": 0.00100206, "INCLINATION": 54.9864, "RA_OF_ASC_NODE": 306.5353, "ARG_OF_PERICENTER": 277.1375, "MEAN_ANOMALY": 82.7951, "EPHEMERIS_TYPE": 0, "CLASSIFICATION_TYPE": "U", "NORAD_CAT_ID": 40748, "ELEMENT_SET_NO": 999, "REV_AT_EPOCH": 7169, "BSTAR": 0, "MEAN_MOTION_DOT": -8.6e-07, "MEAN_MOTION_DDOT": 0}, "tle": {"line1": "1 40748U 15037A   26037.84453554 -.00000086  00000+0  00000+0 0  9998", "line2": "2 40748  54.9864 306.5353 0010020 277.1375  82.7951  1.86231856 71696"}}, "geometry": {"type": "Point", "coordinates": [-143.92591938556922, -54.99727787538655]}}, {"type": "Feature", "properties": {"norad_id": 40749, "name": "BEIDOU-3S M1S (C57)", "group": "beidou", "lat": 44.989054651233644, "lon": 82.06631896635017, "alt_km": 21522.635988602426, "timestamp": "2026-02-07T18:48:55.709982+00:00", "meta": {"OBJECT_NAME": "BEIDOU-3S M1S (C57)", "OBJECT_ID": "2015-037B", "EPOCH": "2026-02-05T23:51:22.995360", "MEAN_MOTION": 1.86254111, "ECCENTRICITY": 0.0004304, "INCLINATION": 54.9834, "RA_OF_ASC_NODE": 306.5538, "ARG_OF_PERICENTER": 19.2986, "MEAN_ANOMALY": 340.7648, "EPHEMERIS_TYPE": 0, "CLASSIFICATION_TYPE": "U", "NORAD_CAT_ID": 40749, "ELEMENT_SET_NO": 999, "REV_AT_EPOCH": 7168, "BSTAR": 0, "MEAN_MOTION_DOT": -8.5e-07, "MEAN_MOTION_DDOT": 0}, "tle": {"line1": "1 40749U 15037B   26036.99401615 -.00000085  00000+0  00000+0 0  9994", "line2": "2 40749  54.9834 306.5538 0004304  19.2986 340.7648  1.86254111 71688"}}, "geometry": {"type": "Point", "coordinates": [82.06631896635017, 44.989054651233644]}}, {"type": "Feature", "properties": {"norad_id": 40938, "name": "BEIDOU-3S IGSO-2S (C56)", "group": "beidou", "lat": -46.86370528948129, "lon": 146.5702184349863, "alt_km": 35692.611369765444, "timestamp": "2026-02-07T18:48:55.709994+00:00", "meta": {"OBJECT_NAME": "BEIDOU-3S IGSO-2S (C56)", "OBJECT_ID": "2015-053A", "EPOCH": "2026-01-27T16:14:57.122592", "MEAN_MOTION": 1.00254296, "ECCENTRICITY": 0.0061515, "INCLINATION": 49.4373, "RA_OF_ASC_NODE": 260.4556, "ARG_OF_PERICENTER": 187.1638, "MEAN_ANOMALY": 17.4903, "EPHEMERIS_TYPE": 0, "CLASSIFICATION_TYPE": "U", "NORAD_CAT_ID": 40938, "ELEMENT_SET_NO": 999, "REV_AT_EPOCH": 3794, "BSTAR": 0, "MEAN_MOTION_DOT": -7.9e-07, "MEAN_MOTION_DDOT": 0}, "tle": {"line1": "1 40938U 15053A   26027.67705003 -.00000079  00000+0  00000+0 0  9998", "line2": "2 40938  49.4373 260.4556 0061515 187.1638  17.4903  1.00254296 37942"}}, "geometry": {"type": "Point", "coordinates": [146.5702184349863, -46.86370528948129]}}, {"type": "Feature", "properties": {"norad_id": 41434, "name": "BEIDOU-2 IGSO-6 (C13)", "group": "beidou", "lat": 51.39121973311114, "lon": 173.04103786493965, "alt_km": 35893.87234513659, "timestamp": "2026-02-07T18:48:55.710008+00:00", "meta": {"OBJECT_NAME": "BEIDOU-2 IGSO-6 (C13)", "OBJECT_ID": "2016-021A", "EPOCH": "2026-02-05T12:16:07.942656", "MEAN_MOTION": 1.00283506, "ECCENTRICITY": 0.00605674, "INCLINATION": 60.0456, "RA_OF_ASC_NODE": 39.3449, "ARG_OF_PERICENTER": 232.7911, "MEAN_ANOMALY": 142.8375, "EPHEMERIS_TYPE": 0, "CLASSIFICATION_TYPE": "U", "NORAD_CAT_ID": 41434, "ELEMENT_SET_NO": 999, "REV_AT_EPOCH": 3616, "BSTAR": 0, "MEAN_MOTION_DOT": -1.41e-06, "MEAN_MOTION_DDOT": 0}, "tle": {"line1": "1 41434U 16021A   26036.51120304 -.00000141  00000+0  00000+0 0  9994", "line2": "2 41434  60.0456  39.3449 0060567 232.7911 142.8375  1.00283506 36161"}}, "geometry": {"type": "Point", "coordinates": [173.04103786493965, 51.39121973311114]}}, {"type": "Feature", "properties": {"norad_id": 41586, "name": "BEIDOU-2 G7 (C03)", "group": "beidou", "lat": 1.868141771303348, "lon": 170.74476066811874, "alt_km": 35791.93850531873, "timestamp": "2026-02-07T18:48:55.710020+00:00", "meta": {"OBJECT_NAME": "BEIDOU-2 G7 (C03)", "OBJECT_ID": "2016-037A", "EPOCH": "2026-02-07T13:47:51.061920", "MEAN_MOTION": 1.00269325, "ECCENTRICITY": 0.00062814, "INCLINATION": 1.8959, "RA_OF_ASC_NODE": 68.3323, "ARG_OF_PERICENTER": 0.4925, "MEAN_ANOMALY": 26.3426, "EPHEMERIS_TYPE": 0, "CLASSIFICATION_TYPE": "U", "NORAD_CAT_ID": 41586, "ELEMENT_SET_NO": 999, "REV_AT_EPOCH": 559, "BSTAR": 0, "MEAN_MOTION_DOT": -3.49e-06, "MEAN_MOTION_DDOT": 0}, "tle": {"line1": "1 41586U 16037A   26038.57489655 -.00000349  00000+0  00000+0 0  9994", "line2": "2 41586   1.8959  68.3323 0006281   0.4925  26.3426  1.00269325  5590"}}, "geometry": {"type": "Point", "coordinates": [170.74476066811874, 1.868141771303348]}}, {"type": "Feature", "properties": {"norad_id": 43001, "name": "BEIDOU-3 M1 (C19)", "group": "beidou", "lat": 31.17167620244242, "lon": 90.8991878786248, "alt_km": 21525.570132267985, "timestamp": "2026-02-07T18:48:55.710031+00:00", "meta": {"OBJECT_NAME": "BEIDOU-3 M1 (C19)", "OBJECT_ID": "2017-069A", "EPOCH": "2026-02-05T13:53:48.619680", "MEAN_MOTION": 1.86231175, "ECCENTRICITY": 0.0011656, "INCLINATION": 56.5755, "RA_OF_ASC_NODE": 67.4198, "ARG_OF_PERICENTER": 306.0537, "MEAN_ANOMALY": 53.8974, "EPHEMERIS_TYPE": 0, "CLASSIFICATION_TYPE": "U", "NORAD_CAT_ID": 43001, "ELEMENT_SET_NO": 999, "REV_AT_EPOCH": 5615, "BSTAR": 0, "MEAN_MOTION_DOT": -4.6e-07, "MEAN_MOTION_DDOT": 0}, "tle": {"line1": "1 43001U 17069A   26036.57903495 -.00000046  00000+0  00000+0 0  9999", "line2": "2 43001  56.5755  67.4198 0011656 306.0537  53.8974  1.86231175 56158"}}, "geometry": {"type": "Point", "coordinates": [90.8991878786248, 31.17167620244242]}}, {"type": "Feature", "properties": {"norad_id": 43002, "name": "BEIDOU-3 M2 (C20)", "group": "beidou", "lat": 55.16927354675864, "lon": 139.0122597127615, "alt_km": 21531.402862840478, "timestamp": "2026-02-07T18:48:55.710042+00:00", "meta": {"OBJECT_NAME": "BEIDOU-3 M2 (C20)", "OBJECT_ID": "2017-069B", "EPOCH": "2026-02-06T14:11:36.239424", "MEAN_MOTION": 1.86230695, "ECCENTRICITY": 0.0008839, "INCLINATION": 56.5754, "RA_OF_ASC_NODE": 67.4225, "ARG_OF_PERICENTER": 326.5124, "MEAN_ANOMALY": 33.4877, "EPHEMERIS_TYPE": 0, "CLASSIFICATION_TYPE": "U", "NORAD_CAT_ID": 43002, "ELEMENT_SET_NO": 999, "REV_AT_EPOCH": 5616, "BSTAR": 0, "MEAN_MOTION_DOT": -5.1e-07, "MEAN_MOTION_DDOT": 0}, "tle": {"line1": "1 43002U 17069B   26037.59139166 -.00000051  00000+0  00000+0 0  9995", "line2": "2 43002  56.5754  67.4225 0008839 326.5124  33.4877  1.86230695 56160"}}, "geometry": {"type": "Point", "coordinates": [139.0122597127615, 55.16927354675864]}}, {"type": "Feature", "properties": {"norad_id": 43107, "name": "BEIDOU-3 M7 (C27)", "group": "beidou", "lat": -50.860619950767955, "lon": -171.7719050778674, "alt_km": 21544.885517426825, "timestamp": "2026-02-07T18:48:55.710054+00:00", "meta": {"OBJECT_NAME": "BEIDOU-3 M7 (C27)", "OBJECT_ID": "2018-003A", "EPOCH": "2026-02-05T19:07:20.961696", "MEAN_MOTION": 1.86232249, "ECCENTRICITY": 0.0004093, "INCLINATION": 54.4452, "RA_OF_ASC_NODE": 306.8985, "ARG_OF_PERICENTER": 67.5877, "MEAN_ANOMALY": 292.5022, "EPHEMERIS_TYPE": 0, "CLASSIFICATION_TYPE": "U", "NORAD_CAT_ID": 43107, "ELEMENT_SET_NO": 999, "REV_AT_EPOCH": 5490, "BSTAR": 0, "MEAN_MOTION_DOT": -8.5e-07, "MEAN_MOTION_DDOT": 0}, "tle": {"line1": "1 43107U 18003A   26036.79677039 -.00000085  00000+0  00000+0 0  9994", "line2": "2 43107  54.4452 306.8985 0004093  67.5877 292.5022  1.86232249 54903"}}, "geometry": {"type": "Point", "coordinates": [-171.7719050778674, -50.860619950767955]}}, {"type": "Feature", "properties": {"norad_id": 43108, "name": "BEIDOU-3 M8 (C28)", "group": "beidou", "lat": -50.310776550517645, "lon": -112.62343796534842, "alt_km": 21523.380120880374, "timestamp": "2026-02-07T18:48:55.710065+00:00", "meta": {"OBJECT_NAME": "BEIDOU-3 M8 (C28)", "OBJECT_ID": "2018-003B", "EPOCH": "2026-02-06T06:41:51.399168", "MEAN_MOTION": 1.86230742, "ECCENTRICITY": 0.00036798, "INCLINATION": 54.4375, "RA_OF_ASC_NODE": 306.8642, "ARG_OF_PERICENTER": 288.786, "MEAN_ANOMALY": 71.2204, "EPHEMERIS_TYPE": 0, "CLASSIFICATION_TYPE": "U", "NORAD_CAT_ID": 43108, "ELEMENT_SET_NO": 999, "REV_AT_EPOCH": 5492, "BSTAR": 0, "MEAN_MOTION_DOT": -8.6e-07, "MEAN_MOTION_DDOT": 0}, "tle": {"line1": "1 43108U 18003B   26037.27906712 -.00000086  00000+0  00000+0 0  9993", "line2": "2 43108  54.4375 306.8642 0003679 288.7860  71.2204  1.86230742 54928"}}, "geometry": {"type": "Point", "coordinates": [-112.62343796534842, -50.310776550517645]}}, {"type": "Feature", "properties": {"norad_id": 43207, "name": "BEIDOU-3 M4 (C22)", "group": "beidou", "lat": -6.224179382826309, "lon": 63.28820578457657, "alt_km": 21512.782387734722, "timestamp": "2026-02-07T18:48:55.710076+00:00", "meta": {"OBJECT_NAME": "BEIDOU-3 M4 (C22)", "OBJECT_ID": "2018-018A", "EPOCH": "2026-02-05T02:38:53.447712", "MEAN_MOTION": 1.86231118, "ECCENTRICITY": 0.0005884, "INCLINATION": 56.5339, "RA_OF_ASC_NODE": 67.5037, "ARG_OF_PERICENTER": 350.0981, "MEAN_ANOMALY": 9.9512, "EPHEMERIS_TYPE": 0, "CLASSIFICATION_TYPE": "U", "NORAD_CAT_ID": 43207, "ELEMENT_SET_NO": 999, "REV_AT_EPOCH": 5428, "BSTAR": 0, "MEAN_MOTION_DOT": -4.3e-07, "MEAN_MOTION_DDOT": 0}, "tle": {"line1": "1 43207U 18018A   26036.11034083 -.00000043  00000+0  00000+0 0  9997", "line2": "2 43207  56.5339  67.5037 0005884 350.0981   9.9512  1.86231118 54284"}}, "geometry": {"type": "Point", "coordinates": [63.28820578457657, -6.224179382826309]}}, {"type": "Feature", "properties": {"norad_id": 43208, "name": "BEIDOU-3 M3 (C21)", "group": "beidou", "lat": -41.15694998504342, "lon": 32.11248212814249, "alt_km": 21507.80610142995, "timestamp": "2026-02-07T18:48:55.710087+00:00", "meta": {"OBJECT_NAME": "BEIDOU-3 M3 (C21)", "OBJECT_ID": "2018-018B", "EPOCH": "2026-02-07T07:47:26.355840", "MEAN_MOTION": 1.86231316, "ECCENTRICITY": 0.00090926, "INCLINATION": 56.5354, "RA_OF_ASC_NODE": 67.4344, "ARG_OF_PERICENTER": 316.0347, "MEAN_ANOMALY": 43.9475, "EPHEMERIS_TYPE": 0, "CLASSIFICATION_TYPE": "U", "NORAD_CAT_ID": 43208, "ELEMENT_SET_NO": 999, "REV_AT_EPOCH": 5432, "BSTAR": 0, "MEAN_MOTION_DOT": -5.2e-07, "MEAN_MOTION_DDOT": 0}, "tle": {"line1": "1 43208U 18018B   26038.32461060 -.00000052  00000+0  00000+0 0  9992", "line2": "2 43208  56.5354  67.4344 0009092 316.0347  43.9475  1.86231316 54326"}}, "geometry": {"type": "Point", "coordinates": [32.11248212814249, -41.15694998504342]}}, {"type": "Feature", "properties": {"norad_id": 43245, "name": "BEIDOU-3 M9 (C29)", "group": "beidou", "lat": 14.030052353697235, "lon": 114.14971847867868, "alt_km": 21529.504673832977, "timestamp": "2026-02-07T18:48:55.710098+00:00", "meta": {"OBJECT_NAME": "BEIDOU-3 M9 (C29)", "OBJECT_ID": "2018-029A", "EPOCH": "2026-02-06T11:13:16.115232", "MEAN_MOTION": 1.86228187, "ECCENTRICITY": 9.928e-05, "INCLINATION": 54.3121, "RA_OF_ASC_NODE": 304.5218, "ARG_OF_PERICENTER": 343.2616, "MEAN_ANOMALY": 16.7837, "EPHEMERIS_TYPE": 0, "CLASSIFICATION_TYPE": "U", "NORAD_CAT_ID": 43245, "ELEMENT_SET_NO": 999, "REV_AT_EPOCH": 5346, "BSTAR": 0, "MEAN_MOTION_DOT": -8.3e-07, "MEAN_MOTION_DDOT": 0}, "tle": {"line1": "1 43245U 18029A   26037.46754763 -.00000083  00000+0  00000+0 0  9998", "line2": "2 43245  54.3121 304.5218 0000992 343.2616  16.7837  1.86228187 53467"}}, "geometry": {"type": "Point", "coordinates": [114.14971847867868, 14.030052353697235]}}, {"type": "Feature", "properties": {"norad_id": 43246, "name": "BEIDOU-3 M10 (C30)", "group": "beidou", "lat": -21.035911566499188, "lon": 140.54299973442235, "alt_km": 21544.779232607467, "timestamp": "2026-02-07T18:48:55.710109+00:00", "meta": {"OBJECT_NAME": "BEIDOU-3 M10 (C30)", "OBJECT_ID": "2018-029B", "EPOCH": "2026-02-05T20:46:27.291360", "MEAN_MOTION": 1.86228883, "ECCENTRICITY": 0.00049555, "INCLINATION": 54.3105, "RA_OF_ASC_NODE": 304.5703, "ARG_OF_PERICENTER": 16.9634, "MEAN_ANOMALY": 343.1024, "EPHEMERIS_TYPE": 0, "CLASSIFICATION_TYPE": "U", "NORAD_CAT_ID": 43246, "ELEMENT_SET_NO": 999, "REV_AT_EPOCH": 5343, "BSTAR": 0, "MEAN_MOTION_DOT": -8.2e-07, "MEAN_MOTION_DDOT": 0}, "tle": {"line1": "1 43246U 18029B   26036.86559365 -.00000082  00000+0  00000+0 0  9992", "line2": "2 43246  54.3105 304.5703 0004955  16.9634 343.1024  1.86228883 53431"}}, "geometry": {"type": "Point", "coordinates": [140.54299973442235, -21.035911566499188]}}, {"type": "Feature", "properties": {"norad_id": 43539, "name": "BEIDOU-2 IGSO-7 (C16)", "group": "beidou", "lat": 6.70088244844886, "lon": 168.8635375317973, "alt_km": 36055.497393745725, "timestamp": "2026-02-07T18:48:55.710121+00:00", "meta": {"OBJECT_NAME": "BEIDOU-2 IGSO-7 (C16)", "OBJECT_ID": "2018-057A", "EPOCH": "2026-02-05T17:27:37.790208", "MEAN_MOTION": 1.00291248, "ECCENTRICITY": 0.0098323, "INCLINATION": 55.1886, "RA_OF_ASC_NODE": 164.2083, "ARG_OF_PERICENTER": 236.2358, "MEAN_ANOMALY": 108.5151, "EPHEMERIS_TYPE": 0, "CLASSIFICATION_TYPE": "U", "NORAD_CAT_ID": 43539, "ELEMENT_SET_NO": 999, "REV_AT_EPOCH": 2780, "BSTAR": 0, "MEAN_MOTION_DOT": -1.27e-06, "MEAN_MOTION_DDOT": 0}, "tle": {"line1": "1 43539U 18057A   26036.72752072 -.00000127  00000+0  00000+0 0  9993", "line2": "2 43539  55.1886 164.2083 0098323 236.2358 108.5151  1.00291248 27802"}}, "geometry": {"type": "Point", "coordinates": [168.8635375317973, 6.70088244844886]}}, {"type": "Feature", "properties": {"norad_id": 43581, "name": "BEIDOU-3 M5 (C23)", "group": "beidou", "lat": 42.09677191656903, "lon": -132.43922964183002, "alt_km": 21521.922414776203, "timestamp": "2026-02-07T18:48:55.710133+00:00", "meta": {"OBJECT_NAME": "BEIDOU-3 M5 (C23)", "OBJECT_ID": "2018-062A", "EPOCH": "2026-02-06T02:09:19.435392", "MEAN_MOTION": 1.86228473, "ECCENTRICITY": 0.00016928, "INCLINATION": 54.09, "RA_OF_ASC_NODE": 186.7599, "ARG_OF_PERICENTER": 341.4898, "MEAN_ANOMALY": 18.4579, "EPHEMERIS_TYPE": 0, "CLASSIFICATION_TYPE": "U", "NORAD_CAT_ID": 43581, "ELEMENT_SET_NO": 999, "REV_AT_EPOCH": 5119, "BSTAR": 0, "MEAN_MOTION_DOT": 4.8e-07, "MEAN_MOTION_DDOT": 0}, "tle": {"line1": "1 43581U 18062A   26037.08980828  .00000048  00000+0  00000+0 0  9999", "line2": "2 43581  54.0900 186.7599 0001692 341.4898  18.4579  1.86228473 51192"}}, "geometry": {"type": "Point", "coordinates": [-132.43922964183002, 42.09677191656903]}}, {"type": "Feature", "properties": {"norad_id": 43582, "name": "BEIDOU-3 M6 (C24)", "group": "beidou", "lat": 25.403077255178232, "lon": -13.432915723789865, "alt_km": 21528.388791243873, "timestamp": "2026-02-07T18:48:55.710144+00:00", "meta": {"OBJECT_NAME": "BEIDOU-3 M6 (C24)", "OBJECT_ID": "2018-062B", "EPOCH": "2026-02-07T00:38:12.019200", "MEAN_MOTION": 1.8622937, "ECCENTRICITY": 0.000718, "INCLINATION": 54.0895, "RA_OF_ASC_NODE": 186.7171, "ARG_OF_PERICENTER": 48.55, "MEAN_ANOMALY": 311.4695, "EPHEMERIS_TYPE": 0, "CLASSIFICATION_TYPE": "U", "NORAD_CAT_ID": 43582, "ELEMENT_SET_NO": 999, "REV_AT_EPOCH": 5121, "BSTAR": 0, "MEAN_MOTION_DOT": 5.6e-07, "MEAN_MOTION_DDOT": 0}, "tle": {"line1": "1 43582U 18062B   26038.02652800  .00000056  00000+0  00000+0 0  9990", "line2": "2 43582  54.0895 186.7171 0007180  48.5500 311.4695  1.86229370 51210"}}, "geometry": {"type": "Point", "coordinates": [-13.432915723789865, 25.403077255178232]}}, {"type": "Feature", "properties": {"norad_id": 43602, "name": "BEIDOU-3 M12 (C26)", "group": "beidou", "lat": -7.526633417929724, "lon": 10.891243049120177, "alt_km": 21550.657960461063, "timestamp": "2026-02-07T18:48:55.710155+00:00", "meta": {"OBJECT_NAME": "BEIDOU-3 M12 (C26)", "OBJECT_ID": "2018-067A", "EPOCH": "2026-02-06T10:16:16.182912", "MEAN_MOTION": 1.8622774, "ECCENTRICITY": 0.00089495, "INCLINATION": 54.1842, "RA_OF_ASC_NODE": 185.4734, "ARG_OF_PERICENTER": 41.6799, "MEAN_ANOMALY": 318.3434, "EPHEMERIS_TYPE": 0, "CLASSIFICATION_TYPE": "U", "NORAD_CAT_ID": 43602, "ELEMENT_SET_NO": 999, "REV_AT_EPOCH": 5068, "BSTAR": 0, "MEAN_MOTION_DOT": 5.1e-07, "MEAN_MOTION_DDOT": 0}, "tle": {"line1": "1 43602U 18067A   26037.42796508  .00000051  00000+0  00000+0 0  9990", "line2": "2 43602  54.1842 185.4734 0008949  41.6799 318.3434  1.86227740 50681"}}, "geometry": {"type": "Point", "coordinates": [10.891243049120177, -7.526633417929724]}}, {"type": "Feature", "properties": {"norad_id": 43603, "name": "BEIDOU-3 M11 (C25)", "group": "beidou", "lat": 53.22420721584568, "lon": -69.55002369686632, "alt_km": 21515.113849274403, "timestamp": "2026-02-07T18:48:55.710166+00:00", "meta": {"OBJECT_NAME": "BEIDOU-3 M11 (C25)", "OBJECT_ID": "2018-067B", "EPOCH": "2026-02-06T13:30:11.663136", "MEAN_MOTION": 1.86227174, "ECCENTRICITY": 0.00053499, "INCLINATION": 54.1815, "RA_OF_ASC_NODE": 185.4326, "ARG_OF_PERICENTER": 37.2993, "MEAN_ANOMALY": 322.6937, "EPHEMERIS_TYPE": 0, "CLASSIFICATION_TYPE": "U", "NORAD_CAT_ID": 43603, "ELEMENT_SET_NO": 999, "REV_AT_EPOCH": 5071, "BSTAR": 0, "MEAN_MOTION_DOT": 5.2e-07, "MEAN_MOTION_DDOT": 0}, "tle": {"line1": "1 43603U 18067B   26037.56263499  .00000052  00000+0  00000+0 0  9995", "line2": "2 43603  54.1815 185.4326 0005349  37.2993 322.6937  1.86227174 50718"}}, "geometry": {"type": "Point", "coordinates": [-69.55002369686632, 53.22420721584568]}}, {"type": "Feature", "properties": {"norad_id": 43622, "name": "BEIDOU-3 M13 (C32)", "group": "beidou", "lat": 40.952998599748284, "lon": -148.1269667749935, "alt_km": 21546.24150665006, "timestamp": "2026-02-07T18:48:55.710178+00:00", "meta": {"OBJECT_NAME": "BEIDOU-3 M13 (C32)", "OBJECT_ID": "2018-072A", "EPOCH": "2026-02-05T23:33:52.487136", "MEAN_MOTION": 1.8623084, "ECCENTRICITY": 0.00083076, "INCLINATION": 56.5079, "RA_OF_ASC_NODE": 66.9898, "ARG_OF_PERICENTER": 303.2284, "MEAN_ANOMALY": 56.7491, "EPHEMERIS_TYPE": 0, "CLASSIFICATION_TYPE": "U", "NORAD_CAT_ID": 43622, "ELEMENT_SET_NO": 999, "REV_AT_EPOCH": 5021, "BSTAR": 0, "MEAN_MOTION_DOT": -4.9e-07, "MEAN_MOTION_DDOT": 0}, "tle": {"line1": "1 43622U 18072A   26036.98185749 -.00000049  00000+0  00000+0 0  9995", "line2": "2 43622  56.5079  66.9898 0008307 303.2284  56.7491  1.86230840 50219"}}, "geometry": {"type": "Point", "coordinates": [-148.1269667749935, 40.952998599748284]}}, {"type": "Feature", "properties": {"norad_id": 43623, "name": "BEIDOU-3 M14 (C33)", "group": "beidou", "lat": -31.178064389354113, "lon": -89.45460694747706, "alt_km": 21536.412514679683, "timestamp": "2026-02-07T18:48:55.710189+00:00", "meta": {"OBJECT_NAME": "BEIDOU-3 M14 (C33)", "OBJECT_ID": "2018-072B", "EPOCH": "2026-02-06T09:13:21.228672", "MEAN_MOTION": 1.86230868, "ECCENTRICITY": 0.00055514, "INCLINATION": 56.5102, "RA_OF_ASC_NODE": 66.9706, "ARG_OF_PERICENTER": 324.8484, "MEAN_ANOMALY": 35.171, "EPHEMERIS_TYPE": 0, "CLASSIFICATION_TYPE": "U", "NORAD_CAT_ID": 43623, "ELEMENT_SET_NO": 999, "REV_AT_EPOCH": 5021, "BSTAR": 0, "MEAN_MOTION_DOT": -5e-07, "MEAN_MOTION_DDOT": 0}, "tle": {"line1": "1 43623U 18072B   26037.38427348 -.00000050  00000+0  00000+0 0  9997", "line2": "2 43623  56.5102  66.9706 0005551 324.8484  35.1710  1.86230868 50219"}}, "geometry": {"type": "Point", "coordinates": [-89.45460694747706, -31.178064389354113]}}, {"type": "Feature", "properties": {"norad_id": 43647, "name": "BEIDOU-3 M16 (C35)", "group": "beidou", "lat": 48.18900132511966, "lon": 70.84838752443653, "alt_km": 21520.69526410821, "timestamp": "2026-02-07T18:48:55.710200+00:00", "meta": {"OBJECT_NAME": "BEIDOU-3 M16 (C35)", "OBJECT_ID": "2018-078A", "EPOCH": "2026-02-06T00:06:26.367840", "MEAN_MOTION": 1.86232359, "ECCENTRICITY": 0.000823, "INCLINATION": 54.2087, "RA_OF_ASC_NODE": 304.5871, "ARG_OF_PERICENTER": 26.8758, "MEAN_ANOMALY": 333.2158, "EPHEMERIS_TYPE": 0, "CLASSIFICATION_TYPE": "U", "NORAD_CAT_ID": 43647, "ELEMENT_SET_NO": 999, "REV_AT_EPOCH": 4971, "BSTAR": 0, "MEAN_MOTION_DOT": -8.3e-07, "MEAN_MOTION_DDOT": 0}, "tle": {"line1": "1 43647U 18078A   26037.00447185 -.00000083  00000+0  00000+0 0  9995", "line2": "2 43647  54.2087 304.5871 0008230  26.8758 333.2158  1.86232359 49714"}}, "geometry": {"type": "Point", "coordinates": [70.84838752443653, 48.18900132511966]}}, {"type": "Feature", "properties": {"norad_id": 43648, "name": "BEIDOU-3 M15 (C34)", "group": "beidou", "lat": 21.169011943674743, "lon": -39.255790603279266, "alt_km": 21512.015598080736, "timestamp": "2026-02-07T18:48:55.710212+00:00", "meta": {"OBJECT_NAME": "BEIDOU-3 M15 (C34)", "OBJECT_ID": "2018-078B", "EPOCH": "2026-02-07T04:59:00.413088", "MEAN_MOTION": 1.86232004, "ECCENTRICITY": 0.00048039, "INCLINATION": 54.2035, "RA_OF_ASC_NODE": 304.5456, "ARG_OF_PERICENTER": 30.4014, "MEAN_ANOMALY": 329.6741, "EPHEMERIS_TYPE": 0, "CLASSIFICATION_TYPE": "U", "NORAD_CAT_ID": 43648, "ELEMENT_SET_NO": 999, "REV_AT_EPOCH": 4975, "BSTAR": 0, "MEAN_MOTION_DOT": -8.4e-07, "MEAN_MOTION_DDOT": 0}, "tle": {"line1": "1 43648U 18078B   26038.20764367 -.00000084  00000+0  00000+0 0  9994", "line2": "2 43648  54.2035 304.5456 0004803  30.4014 329.6741  1.86232004 49753"}}, "geometry": {"type": "Point", "coordinates": [-39.255790603279266, 21.169011943674743]}}, {"type": "Feature", "properties": {"norad_id": 43683, "name": "BEIDOU-3 G1 (C59)", "group": "beidou", "lat": 2.734581090449449, "lon": -159.77518948985804, "alt_km": 35783.53731131422, "timestamp": "2026-02-07T18:48:55.710224+00:00", "meta": {"OBJECT_NAME": "BEIDOU-3 G1 (C59)", "OBJECT_ID": "2018-085A", "EPOCH": "2026-02-07T13:56:12.759936", "MEAN_MOTION": 1.00270977, "ECCENTRICITY": 0.00012386, "INCLINATION": 2.7494, "RA_OF_ASC_NODE": 101.1775, "ARG_OF_PERICENTER": 36.7841, "MEAN_ANOMALY": 348.8345, "EPHEMERIS_TYPE": 0, "CLASSIFICATION_TYPE": "U", "NORAD_CAT_ID": 43683, "ELEMENT_SET_NO": 999, "REV_AT_EPOCH": 2676, "BSTAR": 0, "MEAN_MOTION_DOT": -2.74e-06, "MEAN_MOTION_DDOT": 0}, "tle": {"line1": "1 43683U 18085A   26038.58070324 -.00000274  00000+0  00000+0 0  9996", "line2": "2 43683   2.7494 101.1775 0001238  36.7841 348.8345  1.00270977 26766"}}, "geometry": {"type": "Point", "coordinates": [-159.77518948985804, 2.734581090449449]}}, {"type": "Feature", "properties": {"norad_id": 43706, "name": "BEIDOU-3 M17 (C36)", "group": "beidou", "lat": -53.06927266991074, "lon": 112.83097408870522, "alt_km": 21517.736013656948, "timestamp": "2026-02-07T18:48:55.710236+00:00", "meta": {"OBJECT_NAME": "BEIDOU-3 M17 (C36)", "OBJECT_ID": "2018-093A", "EPOCH": "2026-02-06T08:08:38.207040", "MEAN_MOTION": 1.86228435, "ECCENTRICITY": 0.0006318, "INCLINATION": 54.1735, "RA_OF_ASC_NODE": 186.7342, "ARG_OF_PERICENTER": 302.1593, "MEAN_ANOMALY": 88.8749, "EPHEMERIS_TYPE": 0, "CLASSIFICATION_TYPE": "U", "NORAD_CAT_ID": 43706, "ELEMENT_SET_NO": 999, "REV_AT_EPOCH": 4910, "BSTAR": 0, "MEAN_MOTION_DOT": 5.1e-07, "MEAN_MOTION_DDOT": 0}, "tle": {"line1": "1 43706U 18093A   26037.33933110  .00000051  00000+0  00000+0 0  9996", "line2": "2 43706  54.1735 186.7342 0006318 302.1593  88.8749  1.86228435 49106"}}, "geometry": {"type": "Point", "coordinates": [112.83097408870522, -53.06927266991074]}}, {"type": "Feature", "properties": {"norad_id": 43707, "name": "BEIDOU-3 M18 (C37)", "group": "beidou", "lat": 9.836360687464543, "lon": -166.13974413555678, "alt_km": 21512.04209121851, "timestamp": "2026-02-07T18:48:55.710247+00:00", "meta": {"OBJECT_NAME": "BEIDOU-3 M18 (C37)", "OBJECT_ID": "2018-093B", "EPOCH": "2026-02-07T05:29:36.210912", "MEAN_MOTION": 1.86226332, "ECCENTRICITY": 0.00059719, "INCLINATION": 54.1743, "RA_OF_ASC_NODE": 186.6958, "ARG_OF_PERICENTER": 350.0571, "MEAN_ANOMALY": 9.8897, "EPHEMERIS_TYPE": 0, "CLASSIFICATION_TYPE": "U", "NORAD_CAT_ID": 43707, "ELEMENT_SET_NO": 999, "REV_AT_EPOCH": 4911, "BSTAR": 0, "MEAN_MOTION_DOT": 5.7e-07, "MEAN_MOTION_DDOT": 0}, "tle": {"line1": "1 43707U 18093B   26038.22889133  .00000057  00000+0  00000+0 0  9997", "line2": "2 43707  54.1743 186.6958 0005971 350.0571   9.8897  1.86226332 49112"}}, "geometry": {"type": "Point", "coordinates": [-166.13974413555678, 9.836360687464543]}}, {"type": "Feature", "properties": {"norad_id": 44231, "name": "BEIDOU-2 G8 (C01)", "group": "beidou", "lat": 1.4063043044619508, "lon": -155.43645806012304, "alt_km": 35815.10215941719, "timestamp": "2026-02-07T18:48:55.710259+00:00", "meta": {"OBJECT_NAME": "BEIDOU-2 G8 (C01)", "OBJECT_ID": "2019-027A", "EPOCH": "2026-02-07T13:57:35.127648", "MEAN_MOTION": 1.00268993, "ECCENTRICITY": 0.00093382, "INCLINATION": 1.8055, "RA_OF_ASC_NODE": 74.8032, "ARG_OF_PERICENTER": 265.9319, "MEAN_ANOMALY": 150.8282, "EPHEMERIS_TYPE": 0, "CLASSIFICATION_TYPE": "U", "NORAD_CAT_ID": 44231, "ELEMENT_SET_NO": 999, "REV_AT_EPOCH": 2478, "BSTAR": 0, "MEAN_MOTION_DOT": -2.44e-06, "MEAN_MOTION_DDOT": 0}, "tle": {"line1": "1 44231U 19027A   26038.58165657 -.00000244  00000+0  00000+0 0  9994", "line2": "2 44231   1.8055  74.8032 0009338 265.9319 150.8282  1.00268993 24782"}}, "geometry": {"type": "Point", "coordinates": [-155.43645806012304, 1.4063043044619508]}}, {"type": "Feature", "properties": {"norad_id": 44337, "name": "BEIDOU-3 IGSO-2 (C39)", "group": "beidou", "lat": 14.215656883040273, "lon": 170.11010717832824, "alt_km": 35949.90425600311, "timestamp": "2026-02-07T18:48:55.710271+00:00", "meta": {"OBJECT_NAME": "BEIDOU-3 IGSO-2 (C39)", "OBJECT_ID": "2019-035A", "EPOCH": "2026-02-05T15:29:56.807232", "MEAN_MOTION": 1.00254002, "ECCENTRICITY": 0.0038213, "INCLINATION": 55.234, "RA_OF_ASC_NODE": 160.019, "ARG_OF_PERICENTER": 204.8475, "MEAN_ANOMALY": 120.6945, "EPHEMERIS_TYPE": 0, "CLASSIFICATION_TYPE": "U", "NORAD_CAT_ID": 44337, "ELEMENT_SET_NO": 999, "REV_AT_EPOCH": 2434, "BSTAR": 0, "MEAN_MOTION_DOT": -1.35e-06, "MEAN_MOTION_DDOT": 0}, "tle": {"line1": "1 44337U 19035A   26036.64579638 -.00000135  00000+0  00000+0 0  9992", "line2": "2 44337  55.2340 160.0190 0038213 204.8475 120.6945  1.00254002 24340"}}, "geometry": {"type": "Point", "coordinates": [170.11010717832824, 14.215656883040273]}}, {"type": "Feature", "properties": {"norad_id": 44542, "name": "BEIDOU-3 M24 (C46)", "group": "beidou", "lat": -27.81356939622243, "lon": 164.89152547157929, "alt_km": 21519.135060294142, "timestamp": "2026-02-07T18:48:55.710282+00:00", "meta": {"OBJECT_NAME": "BEIDOU-3 M24 (C46)", "OBJECT_ID": "2019-061A", "EPOCH": "2026-02-07T07:10:50.124000", "MEAN_MOTION": 1.86229025, "ECCENTRICITY": 0.0009085, "INCLINATION": 54.4008, "RA_OF_ASC_NODE": 187.1071, "ARG_OF_PERICENTER": 25.0375, "MEAN_ANOMALY": 334.9655, "EPHEMERIS_TYPE": 0, "CLASSIFICATION_TYPE": "U", "NORAD_CAT_ID": 44542, "ELEMENT_SET_NO": 999, "REV_AT_EPOCH": 4337, "BSTAR": 0, "MEAN_MOTION_DOT": 5.8e-07, "MEAN_MOTION_DDOT": 0}, "tle": {"line1": "1 44542U 19061A   26038.29919125  .00000058  00000+0  00000+0 0  9994", "line2": "2 44542  54.4008 187.1071 0009085  25.0375 334.9655  1.86229025 43378"}}, "geometry": {"type": "Point", "coordinates": [164.89152547157929, -27.81356939622243]}}, {"type": "Feature", "properties": {"norad_id": 44543, "name": "BEIDOU-3 M23 (C45)", "group": "beidou", "lat": -43.277718704600645, "lon": 49.444092534237775, "alt_km": 21546.002783769658, "timestamp": "2026-02-07T18:48:55.710293+00:00", "meta": {"OBJECT_NAME": "BEIDOU-3 M23 (C45)", "OBJECT_ID": "2019-061B", "EPOCH": "2026-02-07T09:57:23.117760", "MEAN_MOTION": 1.86227415, "ECCENTRICITY": 0.0005529, "INCLINATION": 54.3995, "RA_OF_ASC_NODE": 187.0715, "ARG_OF_PERICENTER": 22.2173, "MEAN_ANOMALY": 327.7371, "EPHEMERIS_TYPE": 0, "CLASSIFICATION_TYPE": "U", "NORAD_CAT_ID": 44543, "ELEMENT_SET_NO": 999, "REV_AT_EPOCH": 4337, "BSTAR": 0, "MEAN_MOTION_DOT": 5.8e-07, "MEAN_MOTION_DDOT": 0}, "tle": {"line1": "1 44543U 19061B   26038.41485090  .00000058  00000+0  00000+0 0  9998", "line2": "2 44543  54.3995 187.0715 0005529  22.2173 327.7371  1.86227415 43377"}}, "geometry": {"type": "Point", "coordinates": [49.444092534237775, -43.277718704600645]}}, {"type": "Feature", "properties": {"norad_id": 44793, "name": "BEIDOU-3 M22 (C44)", "group": "beidou", "lat": 50.607189757223665, "lon": 6.352383812307256, "alt_km": 21507.48146661494, "timestamp": "2026-02-07T18:48:55.710305+00:00", "meta": {"OBJECT_NAME": "BEIDOU-3 M22 (C44)", "OBJECT_ID": "2019-078A", "EPOCH": "2026-02-04T10:53:54.690144", "MEAN_MOTION": 1.86231799, "ECCENTRICITY": 0.00069065, "INCLINATION": 54.0568, "RA_OF_ASC_NODE": 304.4997, "ARG_OF_PERICENTER": 31.3066, "MEAN_ANOMALY": 328.7847, "EPHEMERIS_TYPE": 0, "CLASSIFICATION_TYPE": "U", "NORAD_CAT_ID": 44793, "ELEMENT_SET_NO": 999, "REV_AT_EPOCH": 4217, "BSTAR": 0, "MEAN_MOTION_DOT": -7.6e-07, "MEAN_MOTION_DDOT": 0}, "tle": {"line1": "1 44793U 19078A   26035.45410521 -.00000076  00000+0  00000+0 0  9992", "line2": "2 44793  54.0568 304.4997 0006906  31.3066 328.7847  1.86231799 42172"}}, "geometry": {"type": "Point", "coordinates": [6.352383812307256, 50.607189757223665]}}, {"type": "Feature", "properties": {"norad_id": 44794, "name": "BEIDOU-3 M21 (C43)", "group": "beidou", "lat": -16.593530312182637, "lon": -68.12954760735352, "alt_km": 21520.930545132596, "timestamp": "2026-02-07T18:48:55.710316+00:00", "meta": {"OBJECT_NAME": "BEIDOU-3 M21 (C43)", "OBJECT_ID": "2019-078B", "EPOCH": "2026-02-04T01:20:42.317376", "MEAN_MOTION": 1.86227505, "ECCENTRICITY": 0.0004987, "INCLINATION": 54.0304, "RA_OF_ASC_NODE": 304.4777, "ARG_OF_PERICENTER": 24.7266, "MEAN_ANOMALY": 335.3476, "EPHEMERIS_TYPE": 0, "CLASSIFICATION_TYPE": "U", "NORAD_CAT_ID": 44794, "ELEMENT_SET_NO": 999, "REV_AT_EPOCH": 4217, "BSTAR": 0, "MEAN_MOTION_DOT": -7.4e-07, "MEAN_MOTION_DDOT": 0}, "tle": {"line1": "1 44794U 19078B   26035.05604534 -.00000074  00000+0  00000+0 0  9996", "line2": "2 44794  54.0304 304.4777 0004987  24.7266 335.3476  1.86227505 42174"}}, "geometry": {"type": "Point", "coordinates": [-68.12954760735352, -16.593530312182637]}}, {"type": "Feature", "properties": {"norad_id": 44864, "name": "BEIDOU-3 M19 (C41)", "group": "beidou", "lat": 3.7621708959202107, "lon": -115.4247926313909, "alt_km": 21549.88667669422, "timestamp": "2026-02-07T18:48:55.710328+00:00", "meta": {"OBJECT_NAME": "BEIDOU-3 M19 (C41)", "OBJECT_ID": "2019-090A", "EPOCH": "2026-02-06T10:56:32.179200", "MEAN_MOTION": 1.8623159, "ECCENTRICITY": 0.00199697, "INCLINATION": 56.4425, "RA_OF_ASC_NODE": 67.1116, "ARG_OF_PERICENTER": 288.9215, "MEAN_ANOMALY": 76.3844, "EPHEMERIS_TYPE": 0, "CLASSIFICATION_TYPE": "U", "NORAD_CAT_ID": 44864, "ELEMENT_SET_NO": 999, "REV_AT_EPOCH": 4180, "BSTAR": 0, "MEAN_MOTION_DOT": -5.1e-07, "MEAN_MOTION_DDOT": 0}, "tle": {"line1": "1 44864U 19090A   26037.45592800 -.00000051  00000+0  00000+0 0  9991", "line2": "2 44864  56.4425  67.1116 0019969 288.9215  76.3844  1.86231590 41805"}}, "geometry": {"type": "Point", "coordinates": [-115.4247926313909, 3.7621708959202107]}}, {"type": "Feature", "properties": {"norad_id": 44865, "name": "BEIDOU-3 M20 (C42)", "group": "beidou", "lat": -56.125607661057735, "lon": -31.581896859117926, "alt_km": 21494.46705974843, "timestamp": "2026-02-07T18:48:55.710339+00:00", "meta": {"OBJECT_NAME": "BEIDOU-3 M20 (C42)", "OBJECT_ID": "2019-090B", "EPOCH": "2026-02-07T09:25:48.518688", "MEAN_MOTION": 1.86231572, "ECCENTRICITY": 0.00172885, "INCLINATION": 56.445, "RA_OF_ASC_NODE": 67.115, "ARG_OF_PERICENTER": 300.3566, "MEAN_ANOMALY": 62.768, "EPHEMERIS_TYPE": 0, "CLASSIFICATION_TYPE": "U", "NORAD_CAT_ID": 44865, "ELEMENT_SET_NO": 999, "REV_AT_EPOCH": 4180, "BSTAR": 0, "MEAN_MOTION_DOT": -5.2e-07, "MEAN_MOTION_DDOT": 0}, "tle": {"line1": "1 44865U 19090B   26038.39292267 -.00000052  00000+0  00000+0 0  9991", "line2": "2 44865  56.4450  67.1150 0017288 300.3566  62.7680  1.86231572 41809"}}, "geometry": {"type": "Point", "coordinates": [-31.581896859117926, -56.125607661057735]}}, {"type": "Feature", "properties": {"norad_id": 45344, "name": "BEIDOU-3 G2 (C60)", "group": "beidou", "lat": 2.6050387259969674, "lon": 140.1780565954831, "alt_km": 35796.55308524712, "timestamp": "2026-02-07T18:48:55.710351+00:00", "meta": {"OBJECT_NAME": "BEIDOU-3 G2 (C60)", "OBJECT_ID": "2020-017A", "EPOCH": "2026-02-07T13:39:06.899040", "MEAN_MOTION": 1.00271911, "ECCENTRICITY": 0.00025869, "INCLINATION": 2.6055, "RA_OF_ASC_NODE": 45.1238, "ARG_OF_PERICENTER": 283.2964, "MEAN_ANOMALY": 94.0572, "EPHEMERIS_TYPE": 0, "CLASSIFICATION_TYPE": "U", "NORAD_CAT_ID": 45344, "ELEMENT_SET_NO": 999, "REV_AT_EPOCH": 2196, "BSTAR": 0, "MEAN_MOTION_DOT": -1.36e-06, "MEAN_MOTION_DDOT": 0}, "tle": {"line1": "1 45344U 20017A   26038.56882985 -.00000136  00000+0  00000+0 0  9999", "line2": "2 45344   2.6055  45.1238 0002586 283.2964  94.0572  1.00271911 21965"}}, "geometry": {"type": "Point", "coordinates": [140.1780565954831, 2.6050387259969674]}}, {"type": "Feature", "properties": {"norad_id": 45807, "name": "BEIDOU-3 G3 (C61)", "group": "beidou", "lat": 2.0859389443638134, "lon": 170.643322705146, "alt_km": 35806.6936996959, "timestamp": "2026-02-07T18:48:55.710363+00:00", "meta": {"OBJECT_NAME": "BEIDOU-3 G3 (C61)", "OBJECT_ID": "2020-040A", "EPOCH": "2026-02-07T13:47:51.061920", "MEAN_MOTION": 1.0026628, "ECCENTRICITY": 0.00051483, "INCLINATION": 2.1293, "RA_OF_ASC_NODE": 67.0354, "ARG_OF_PERICENTER": 310.822, "MEAN_ANOMALY": 77.2521, "EPHEMERIS_TYPE": 0, "CLASSIFICATION_TYPE": "U", "NORAD_CAT_ID": 45807, "ELEMENT_SET_NO": 999, "REV_AT_EPOCH": 2077, "BSTAR": 0, "MEAN_MOTION_DOT": -3.49e-06, "MEAN_MOTION_DDOT": 0}, "tle": {"line1": "1 45807U 20040A   26038.57489655 -.00000349  00000+0  00000+0 0  9993", "line2": "2 45807   2.1293  67.0354 0005148 310.8220  77.2521  1.00266280 20777"}}, "geometry": {"type": "Point", "coordinates": [170.643322705146, 2.0859389443638134]}}, {"type": "Feature", "properties": {"norad_id": 56564, "name": "BEIDOU-3 G4 (C62)", "group": "beidou", "lat": -0.6793937392914284, "lon": -140.04976441285473, "alt_km": 35783.539309903004, "timestamp": "2026-02-07T18:48:55.710375+00:00", "meta": {"OBJECT_NAME": "BEIDOU-3 G4 (C62)", "OBJECT_ID": "2023-066A", "EPOCH": "2026-01-26T09:27:28.593216", "MEAN_MOTION": 1.00269231, "ECCENTRICITY": 0.00015168, "INCLINATION": 0.7213, "RA_OF_ASC_NODE": 306.1415, "ARG_OF_PERICENTER": 216.8774, "MEAN_ANOMALY": 264.4347, "EPHEMERIS_TYPE": 0, "CLASSIFICATION_TYPE": "U", "NORAD_CAT_ID": 56564, "ELEMENT_SET_NO": 999, "REV_AT_EPOCH": 997, "BSTAR": 0, "MEAN_MOTION_DOT": -1e-06, "MEAN_MOTION_DDOT": 0}, "tle": {"line1": "1 56564U 23066A   26026.39408094 -.00000100  00000+0  00000+0 0  9996", "line2": "2 56564   0.7213 306.1415 0001516 216.8774 264.4347  1.00269231  9978"}}, "geometry": {"type": "Point", "coordinates": [-140.04976441285473, -0.6793937392914284]}}, {"type": "Feature", "properties": {"norad_id": 58654, "name": "BEIDOU-3 M28 (C50)", "group": "beidou", "lat": -52.03253203401289, "lon": 5.432202642636814, "alt_km": 21521.68293331505, "timestamp": "2026-02-07T18:48:55.710388+00:00", "meta": {"OBJECT_NAME": "BEIDOU-3 M28 (C50)", "OBJECT_ID": "2023-207A", "EPOCH": "2026-02-04T16:05:53.682144", "MEAN_MOTION": 1.86229743, "ECCENTRICITY": 0.00043845, "INCLINATION": 55.6334, "RA_OF_ASC_NODE": 66.7743, "ARG_OF_PERICENTER": 292.5501, "MEAN_ANOMALY": 67.4647, "EPHEMERIS_TYPE": 0, "CLASSIFICATION_TYPE": "U", "NORAD_CAT_ID": 58654, "ELEMENT_SET_NO": 999, "REV_AT_EPOCH": 1437, "BSTAR": 0, "MEAN_MOTION_DOT": -4.3e-07, "MEAN_MOTION_DDOT": 0}, "tle": {"line1": "1 58654U 23207A   26035.67076021 -.00000043  00000+0  00000+0 0  9993", "line2": "2 58654  55.6334  66.7743 0004384 292.5501  67.4647  1.86229743 14373"}}, "geometry": {"type": "Point", "coordinates": [5.432202642636814, -52.03253203401289]}}, {"type": "Feature", "properties": {"norad_id": 58655, "name": "BEIDOU-3 M26 (C48)", "group": "beidou", "lat": 47.35536685128245, "lon": 114.63352537759958, "alt_km": 21534.814683967146, "timestamp": "2026-02-07T18:48:55.710400+00:00", "meta": {"OBJECT_NAME": "BEIDOU-3 M26 (C48)", "OBJECT_ID": "2023-207B", "EPOCH": "2026-02-06T01:53:53.124576", "MEAN_MOTION": 1.86229649, "ECCENTRICITY": 0.0005448, "INCLINATION": 55.6366, "RA_OF_ASC_NODE": 66.7128, "ARG_OF_PERICENTER": 279.3916, "MEAN_ANOMALY": 80.603, "EPHEMERIS_TYPE": 0, "CLASSIFICATION_TYPE": "U", "NORAD_CAT_ID": 58655, "ELEMENT_SET_NO": 999, "REV_AT_EPOCH": 1438, "BSTAR": 0, "MEAN_MOTION_DOT": -5.1e-07, "MEAN_MOTION_DDOT": 0}, "tle": {"line1": "1 58655U 23207B   26037.07908709 -.00000051  00000+0  00000+0 0  9996", "line2": "2 58655  55.6366  66.7128 0005448 279.3916  80.6030  1.86229649 14380"}}, "geometry": {"type": "Point", "coordinates": [114.63352537759958, 47.35536685128245]}}, {"type": "Feature", "properties": {"norad_id": 61186, "name": "BEIDOU-3 M25 (C47)", "group": "beidou", "lat": 0.06896382492541488, "lon": 126.70017091424214, "alt_km": 21537.554494342046, "timestamp": "2026-02-07T18:48:55.710411+00:00", "meta": {"OBJECT_NAME": "BEIDOU-3 M25 (C47)", "OBJECT_ID": "2024-168B", "EPOCH": "2026-02-07T06:34:33.252672", "MEAN_MOTION": 1.86230249, "ECCENTRICITY": 0.0004756, "INCLINATION": 54.5888, "RA_OF_ASC_NODE": 306.7587, "ARG_OF_PERICENTER": 313.5134, "MEAN_ANOMALY": 244.52, "EPHEMERIS_TYPE": 0, "CLASSIFICATION_TYPE": "U", "NORAD_CAT_ID": 61186, "ELEMENT_SET_NO": 999, "REV_AT_EPOCH": 936, "BSTAR": 0, "MEAN_MOTION_DOT": -8.7e-07, "MEAN_MOTION_DDOT": 0}, "tle": {"line1": "1 61186U 24168B   26038.27399598 -.00000087  00000+0  00000+0 0  9998", "line2": "2 61186  54.5888 306.7587 0004756 313.5134 244.5200  1.86230249  9360"}}, "geometry": {"type": "Point", "coordinates": [126.70017091424214, 0.06896382492541488]}}, {"type": "Feature", "properties": {"norad_id": 61187, "name": "BEIDOU-3 M27 (C49)", "group": "beidou", "lat": -35.29273917551698, "lon": -83.47358050140252, "alt_km": 21527.554287512095, "timestamp": "2026-02-07T18:48:55.710422+00:00", "meta": {"OBJECT_NAME": "BEIDOU-3 M27 (C49)", "OBJECT_ID": "2024-168C", "EPOCH": "2026-02-07T13:57:20.151936", "MEAN_MOTION": 1.86230422, "ECCENTRICITY": 0.00029075, "INCLINATION": 54.5839, "RA_OF_ASC_NODE": 306.7315, "ARG_OF_PERICENTER": 7.9885, "MEAN_ANOMALY": 171.1745, "EPHEMERIS_TYPE": 0, "CLASSIFICATION_TYPE": "U", "NORAD_CAT_ID": 61187, "ELEMENT_SET_NO": 999, "REV_AT_EPOCH": 684, "BSTAR": 0, "MEAN_MOTION_DOT": -8.7e-07, "MEAN_MOTION_DDOT": 0}, "tle": {"line1": "1 61187U 24168C   26038.58148324 -.00000087  00000+0  00000+0 0  9992", "line2": "2 61187  54.5839 306.7315 0002907   7.9885 171.1745  1.86230422  6841"}}, "geometry": {"type": "Point", "coordinates": [-83.47358050140252, -35.29273917551698]}}]}