{"type": "FeatureCollection", "features": [{"type": "Feature", "properties": {"norad_id": 50032, "name": "COSMOS 1408 DEB", "group": "cosmos-1408-debris", "lat": 56.50541979412544, "lon": 9.496724936564725, "alt_km": 414.8624207129824, "timestamp": "2026-02-09T15:01:33.407410+00:00", "meta": {"OBJECT_NAME": "COSMOS 1408 DEB", "OBJECT_ID": "1982-092RU", "EPOCH": "2026-02-09T07:00:54.086688", "MEAN_MOTION": 15.46413234, "ECCENTRICITY": 0.00158733, "INCLINATION": 82.565, "RA_OF_ASC_NODE": 358.4575, "ARG_OF_PERICENTER": 8.7832, "MEAN_ANOMALY": 351.3691, "EPHEMERIS_TYPE": 0, "CLASSIFICATION_TYPE": "U", "NORAD_CAT_ID": 50032, "ELEMENT_SET_NO": 999, "REV_AT_EPOCH": 23508, "BSTAR": 0.00014330209, "MEAN_MOTION_DOT": 7.162e-05, "MEAN_MOTION_DDOT": 0}, "tle": {"line1": "1 50032U 82092RU  26040.29229267  .00007162  00000+0  14330-3 0  9991", "line2": "2 50032  82.5650 358.4575 0015873   8.7832 351.3691 15.46413234235086"}}, "geometry": {"type": "Point", "coordinates": [9.496724936564725, 56.50541979412544]}}, {"type": "Feature", "properties": {"norad_id": 50058, "name": "COSMOS 1408 DEB", "group": "cosmos-1408-debris", "lat": -28.202858855434233, "lon": -168.50978452297073, "alt_km": 361.5226981306205, "timestamp": "2026-02-09T15:01:33.407432+00:00", "meta": {"OBJECT_NAME": "COSMOS 1408 DEB", "OBJECT_ID": "1982-092SW", "EPOCH": "2026-02-08T22:49:46.074144", "MEAN_MOTION": 15.68585879, "ECCENTRICITY": 0.00113437, "INCLINATION": 82.6123, "RA_OF_ASC_NODE": 8.2114, "ARG_OF_PERICENTER": 229.7933, "MEAN_ANOMALY": 130.2336, "EPHEMERIS_TYPE": 0, "CLASSIFICATION_TYPE": "U", "NORAD_CAT_ID": 50058, "ELEMENT_SET_NO": 999, "REV_AT_EPOCH": 23715, "BSTAR": 0.00034259257, "MEAN_MOTION_DOT": 0.00039068, "MEAN_MOTION_DDOT": 0}, "tle": {"line1": "1 50058U 82092SW  26039.95122771  .00039068  00000+0  34259-3 0  9994", "line2": "2 50058  82.6123   8.2114 0011343 229.7933 130.2336 15.68585879237153"}}, "geometry": {"type": "Point", "coordinates": [-168.50978452297073, -28.202858855434233]}}, {"type": "Feature", "properties": {"norad_id": 50404, "name": "COSMOS 1408 DEB", "group": "cosmos-1408-debris", "lat": -63.1759406955995, "lon": -10.099624867477154, "alt_km": 522.5664425826781, "timestamp": "2026-02-09T15:01:33.407445+00:00", "meta": {"OBJECT_NAME": "COSMOS 1408 DEB", "OBJECT_ID": "1982-092ADS", "EPOCH": "2026-02-08T08:03:55.637568", "MEAN_MOTION": 15.26560266, "ECCENTRICITY": 0.01404166, "INCLINATION": 82.1993, "RA_OF_ASC_NODE": 155.5176, "ARG_OF_PERICENTER": 357.7948, "MEAN_ANOMALY": 2.2651, "EPHEMERIS_TYPE": 0, "CLASSIFICATION_TYPE": "U", "NORAD_CAT_ID": 50404, "ELEMENT_SET_NO": 999, "REV_AT_EPOCH": 22068, "BSTAR": 0.0033859672, "MEAN_MOTION_DOT": 0.00119767, "MEAN_MOTION_DDOT": 0}, "tle": {"line1": "1 50404U 82092ADS 26039.33606062  .00119767  00000+0  33860-2 0  9992", "line2": "2 50404  82.1993 155.5176 0140416 357.7948   2.2651 15.26560266220689"}}, "geometry": {"type": "Point", "coordinates": [-10.099624867477154, -63.1759406955995]}}, {"type": "Feature", "properties": {"norad_id": 50621, "name": "COSMOS 1408 DEB", "group": "cosmos-1408-debris", "lat": 11.178218096719197, "lon": 14.178827988786132, "alt_km": 383.70911484217686, "timestamp": "2026-02-09T15:01:33.407457+00:00", "meta": {"OBJECT_NAME": "COSMOS 1408 DEB", "OBJECT_ID": "1982-092ALR", "EPOCH": "2026-02-08T09:44:04.048224", "MEAN_MOTION": 15.60312419, "ECCENTRICITY": 0.0022643, "INCLINATION": 82.5707, "RA_OF_ASC_NODE": 13.9787, "ARG_OF_PERICENTER": 302.3901, "MEAN_ANOMALY": 57.5164, "EPHEMERIS_TYPE": 0, "CLASSIFICATION_TYPE": "U", "NORAD_CAT_ID": 50621, "ELEMENT_SET_NO": 999, "REV_AT_EPOCH": 23148, "BSTAR": 0.00043269695, "MEAN_MOTION_DOT": 0.00035928, "MEAN_MOTION_DDOT": 0}, "tle": {"line1": "1 50621U 82092ALR 26039.40560241  .00035928  00000+0  43270-3 0  9992", "line2": "2 50621  82.5707  13.9787 0022643 302.3901  57.5164 15.60312419231483"}}, "geometry": {"type": "Point", "coordinates": [14.178827988786132, 11.178218096719197]}}]}