{"type": "FeatureCollection", "features": [{"type": "Feature", "properties": {"norad_id": 28890, "name": "BEIJING 1", "group": "dmc", "lat": 19.685942326181195, "lon": -173.28488549029802, "alt_km": 685.3650330053633, "timestamp": "2026-02-25T23:37:43.607128+00:00", "meta": {"OBJECT_NAME": "BEIJING 1", "OBJECT_ID": "2005-043A", "EPOCH": "2026-02-25T13:41:32.799264", "MEAN_MOTION": 14.63446853, "ECCENTRICITY": 0.00133818, "INCLINATION": 98.2706, "RA_OF_ASC_NODE": 189.283, "ARG_OF_PERICENTER": 271.5314, "MEAN_ANOMALY": 88.4355, "EPHEMERIS_TYPE": 0, "CLASSIFICATION_TYPE": "U", "NORAD_CAT_ID": 28890, "ELEMENT_SET_NO": 999, "REV_AT_EPOCH": 8432, "BSTAR": 7.296067e-05, "MEAN_MOTION_DOT": 3.29e-06, "MEAN_MOTION_DDOT": 0}, "tle": {"line1": "1 28890U 05043A   26056.57051851  .00000329  00000+0  72961-4 0  9992", "line2": "2 28890  98.2706 189.2830 0013381 271.5314  88.4355 14.63446853 84325"}}, "geometry": {"type": "Point", "coordinates": [-173.28488549029802, 19.685942326181195]}}, {"type": "Feature", "properties": {"norad_id": 33320, "name": "HUANJING 1A (HJ-1A)", "group": "dmc", "lat": 82.1663135082856, "lon": -30.90814320287658, "alt_km": 601.5534573541681, "timestamp": "2026-02-25T23:37:43.607153+00:00", "meta": {"OBJECT_NAME": "HUANJING 1A (HJ-1A)", "OBJECT_ID": "2008-041A", "EPOCH": "2026-02-25T13:31:12.475776", "MEAN_MOTION": 14.83671268, "ECCENTRICITY": 0.00198774, "INCLINATION": 97.6622, "RA_OF_ASC_NODE": 46.7861, "ARG_OF_PERICENTER": 140.9268, "MEAN_ANOMALY": 219.3386, "EPHEMERIS_TYPE": 0, "CLASSIFICATION_TYPE": "U", "NORAD_CAT_ID": 33320, "ELEMENT_SET_NO": 999, "REV_AT_EPOCH": 94185, "BSTAR": 0.00011197684, "MEAN_MOTION_DOT": 8.76e-06, "MEAN_MOTION_DDOT": 0}, "tle": {"line1": "1 33320U 08041A   26056.56333884  .00000876  00000+0  11198-3 0  9996", "line2": "2 33320  97.6622  46.7861 0019877 140.9268 219.3386 14.83671268941854"}}, "geometry": {"type": "Point", "coordinates": [-30.90814320287658, 82.1663135082856]}}, {"type": "Feature", "properties": {"norad_id": 33321, "name": "HUANJING 1B (HJ-1B)", "group": "dmc", "lat": 29.76551077504365, "lon": -124.90722047597794, "alt_km": 597.7998051718723, "timestamp": "2026-02-25T23:37:43.607167+00:00", "meta": {"OBJECT_NAME": "HUANJING 1B (HJ-1B)", "OBJECT_ID": "2008-041B", "EPOCH": "2026-02-25T14:51:27.818208", "MEAN_MOTION": 14.83069057, "ECCENTRICITY": 0.0036039, "INCLINATION": 97.6472, "RA_OF_ASC_NODE": 50.3361, "ARG_OF_PERICENTER": 187.2072, "MEAN_ANOMALY": 172.8629, "EPHEMERIS_TYPE": 0, "CLASSIFICATION_TYPE": "U", "NORAD_CAT_ID": 33321, "ELEMENT_SET_NO": 999, "REV_AT_EPOCH": 94187, "BSTAR": 0.00019355026, "MEAN_MOTION_DOT": 1.541e-05, "MEAN_MOTION_DDOT": 0}, "tle": {"line1": "1 33321U 08041B   26056.61907197  .00001541  00000+0  19355-3 0  9990", "line2": "2 33321  97.6472  50.3361 0036039 187.2072 172.8629 14.83069057941872"}}, "geometry": {"type": "Point", "coordinates": [-124.90722047597794, 29.76551077504365]}}, {"type": "Feature", "properties": {"norad_id": 33446, "name": "YAOGAN-4", "group": "dmc", "lat": 26.5550002537803, "lon": -12.607820375328554, "alt_km": 611.5768423466361, "timestamp": "2026-02-25T23:37:43.607179+00:00", "meta": {"OBJECT_NAME": "YAOGAN-4", "OBJECT_ID": "2008-061A", "EPOCH": "2026-02-25T08:56:01.493664", "MEAN_MOTION": 14.82933602, "ECCENTRICITY": 0.00158444, "INCLINATION": 97.9237, "RA_OF_ASC_NODE": 350.7768, "ARG_OF_PERICENTER": 76.0898, "MEAN_ANOMALY": 284.2076, "EPHEMERIS_TYPE": 0, "CLASSIFICATION_TYPE": "U", "NORAD_CAT_ID": 33446, "ELEMENT_SET_NO": 999, "REV_AT_EPOCH": 92909, "BSTAR": 0.00016079216, "MEAN_MOTION_DOT": 1.253e-05, "MEAN_MOTION_DDOT": 0}, "tle": {"line1": "1 33446U 08061A   26056.37223951  .00001253  00000+0  16079-3 0  9992", "line2": "2 33446  97.9237 350.7768 0015844  76.0898 284.2076 14.82933602929091"}}, "geometry": {"type": "Point", "coordinates": [-12.607820375328554, 26.5550002537803]}}, {"type": "Feature", "properties": {"norad_id": 35681, "name": "DEIMOS-1", "group": "dmc", "lat": -28.28132352021969, "lon": 34.938129477893575, "alt_km": 650.3975426323968, "timestamp": "2026-02-25T23:37:43.607191+00:00", "meta": {"OBJECT_NAME": "DEIMOS-1", "OBJECT_ID": "2009-041A", "EPOCH": "2026-02-25T14:32:48.305760", "MEAN_MOTION": 14.75092247, "ECCENTRICITY": 0.00016293, "INCLINATION": 97.7237, "RA_OF_ASC_NODE": 218.7644, "ARG_OF_PERICENTER": 136.0034, "MEAN_ANOMALY": 224.1305, "EPHEMERIS_TYPE": 0, "CLASSIFICATION_TYPE": "U", "NORAD_CAT_ID": 35681, "ELEMENT_SET_NO": 999, "REV_AT_EPOCH": 89043, "BSTAR": 0.00011538003, "MEAN_MOTION_DOT": 7.3e-06, "MEAN_MOTION_DDOT": 0}, "tle": {"line1": "1 35681U 09041A   26056.60611465  .00000730  00000+0  11538-3 0  9995", "line2": "2 35681  97.7237 218.7644 0001629 136.0034 224.1305 14.75092247890439"}}, "geometry": {"type": "Point", "coordinates": [34.938129477893575, -28.28132352021969]}}, {"type": "Feature", "properties": {"norad_id": 35683, "name": "UK-DMC 2", "group": "dmc", "lat": 52.55960529950952, "lon": -175.59564947105113, "alt_km": 636.996034922995, "timestamp": "2026-02-25T23:37:43.607202+00:00", "meta": {"OBJECT_NAME": "UK-DMC 2", "OBJECT_ID": "2009-041C", "EPOCH": "2026-02-25T15:15:08.042400", "MEAN_MOTION": 14.75820251, "ECCENTRICITY": 0.00010718, "INCLINATION": 97.8629, "RA_OF_ASC_NODE": 194.463, "ARG_OF_PERICENTER": 84.2305, "MEAN_ANOMALY": 275.9027, "EPHEMERIS_TYPE": 0, "CLASSIFICATION_TYPE": "U", "NORAD_CAT_ID": 35683, "ELEMENT_SET_NO": 999, "REV_AT_EPOCH": 89011, "BSTAR": 0.000166884, "MEAN_MOTION_DOT": 1.095e-05, "MEAN_MOTION_DDOT": 0}, "tle": {"line1": "1 35683U 09041C   26056.63550975  .00001095  00000+0  16688-3 0  9994", "line2": "2 35683  97.8629 194.4630 0001071  84.2305 275.9027 14.75820251890112"}}, "geometry": {"type": "Point", "coordinates": [-175.59564947105113, 52.55960529950952]}}, {"type": "Feature", "properties": {"norad_id": 40715, "name": "DMC3-FM1", "group": "dmc", "lat": -50.38702455944396, "lon": 97.05465231891164, "alt_km": 623.4456702710886, "timestamp": "2026-02-25T23:37:43.607213+00:00", "meta": {"OBJECT_NAME": "DMC3-FM1", "OBJECT_ID": "2015-032A", "EPOCH": "2026-02-25T14:30:36.811008", "MEAN_MOTION": 14.85593375, "ECCENTRICITY": 0.00070483, "INCLINATION": 97.663, "RA_OF_ASC_NODE": 286.0511, "ARG_OF_PERICENTER": 65.7623, "MEAN_ANOMALY": 294.4328, "EPHEMERIS_TYPE": 0, "CLASSIFICATION_TYPE": "U", "NORAD_CAT_ID": 40715, "ELEMENT_SET_NO": 999, "REV_AT_EPOCH": 57334, "BSTAR": 0.00015076949, "MEAN_MOTION_DOT": 1.253e-05, "MEAN_MOTION_DDOT": 0}, "tle": {"line1": "1 40715U 15032A   26056.60459272  .00001253  00000+0  15077-3 0  9995", "line2": "2 40715  97.6630 286.0511 0007048  65.7623 294.4328 14.85593375573345"}}, "geometry": {"type": "Point", "coordinates": [97.05465231891164, -50.38702455944396]}}, {"type": "Feature", "properties": {"norad_id": 40716, "name": "DMC3-FM2", "group": "dmc", "lat": 67.24928563190801, "lon": 126.6555541336574, "alt_km": 601.3254421126412, "timestamp": "2026-02-25T23:37:43.607224+00:00", "meta": {"OBJECT_NAME": "DMC3-FM2", "OBJECT_ID": "2015-032B", "EPOCH": "2026-02-25T15:02:49.163424", "MEAN_MOTION": 14.8559358, "ECCENTRICITY": 0.00075572, "INCLINATION": 97.6686, "RA_OF_ASC_NODE": 287.5693, "ARG_OF_PERICENTER": 69.5029, "MEAN_ANOMALY": 290.6997, "EPHEMERIS_TYPE": 0, "CLASSIFICATION_TYPE": "U", "NORAD_CAT_ID": 40716, "ELEMENT_SET_NO": 999, "REV_AT_EPOCH": 57334, "BSTAR": 4.2270685e-05, "MEAN_MOTION_DOT": 3.14e-06, "MEAN_MOTION_DDOT": 0}, "tle": {"line1": "1 40716U 15032B   26056.62695791  .00000314  00000+0  42271-4 0  9990", "line2": "2 40716  97.6686 287.5693 0007557  69.5029 290.6997 14.85593580573349"}}, "geometry": {"type": "Point", "coordinates": [126.6555541336574, 67.24928563190801]}}, {"type": "Feature", "properties": {"norad_id": 40717, "name": "DMC3-FM3", "group": "dmc", "lat": -11.188313578743001, "lon": -68.87699193484636, "alt_km": 615.3985748925816, "timestamp": "2026-02-25T23:37:43.607234+00:00", "meta": {"OBJECT_NAME": "DMC3-FM3", "OBJECT_ID": "2015-032C", "EPOCH": "2026-02-25T13:58:48.565920", "MEAN_MOTION": 14.8555638, "ECCENTRICITY": 0.00068832, "INCLINATION": 97.6737, "RA_OF_ASC_NODE": 289.2073, "ARG_OF_PERICENTER": 70.5079, "MEAN_ANOMALY": 289.688, "EPHEMERIS_TYPE": 0, "CLASSIFICATION_TYPE": "U", "NORAD_CAT_ID": 40717, "ELEMENT_SET_NO": 999, "REV_AT_EPOCH": 57334, "BSTAR": 5.0307487e-05, "MEAN_MOTION_DOT": 3.83e-06, "MEAN_MOTION_DDOT": 0}, "tle": {"line1": "1 40717U 15032C   26056.58250655  .00000383  00000+0  50307-4 0  9997", "line2": "2 40717  97.6737 289.2073 0006883  70.5079 289.6880 14.85556380573342"}}, "geometry": {"type": "Point", "coordinates": [-68.87699193484636, -11.188313578743001]}}]}