{"type": "FeatureCollection", "features": [{"type": "Feature", "properties": {"norad_id": 28187, "name": "EUTELSAT 139 WEST A", "group": "eutelsat", "lat": -3.962560712399297, "lon": -60.9164256150877, "alt_km": 35630.653351500056, "timestamp": "2026-02-23T13:24:12.219923+00:00", "meta": {"OBJECT_NAME": "EUTELSAT 139 WEST A", "OBJECT_ID": "2004-008A", "EPOCH": "2026-02-23T04:31:49.024704", "MEAN_MOTION": 1.00836015, "ECCENTRICITY": 8.328e-05, "INCLINATION": 5.5384, "RA_OF_ASC_NODE": 73.3806, "ARG_OF_PERICENTER": 111.7331, "MEAN_ANOMALY": 339.8671, "EPHEMERIS_TYPE": 0, "CLASSIFICATION_TYPE": "U", "NORAD_CAT_ID": 28187, "ELEMENT_SET_NO": 999, "REV_AT_EPOCH": 8021, "BSTAR": 0, "MEAN_MOTION_DOT": -2.61e-06, "MEAN_MOTION_DDOT": 0}, "tle": {"line1": "1 28187U 04008A   26054.18876186 -.00000261  00000+0  00000+0 0  9998", "line2": "2 28187   5.5384  73.3806 0000832 111.7331 339.8671  1.00836015 80212"}}, "geometry": {"type": "Point", "coordinates": [-60.9164256150877, -3.962560712399297]}}, {"type": "Feature", "properties": {"norad_id": 28924, "name": "EUTELSAT 174A", "group": "eutelsat", "lat": 3.937112760658506, "lon": 168.434506847238, "alt_km": 35811.146232087325, "timestamp": "2026-02-23T13:24:12.219947+00:00", "meta": {"OBJECT_NAME": "EUTELSAT 174A", "OBJECT_ID": "2005-052A", "EPOCH": "2026-02-23T04:56:22.200864", "MEAN_MOTION": 1.00271184, "ECCENTRICITY": 0.00062059, "INCLINATION": 3.9284, "RA_OF_ASC_NODE": 77.948, "ARG_OF_PERICENTER": 255.9101, "MEAN_ANOMALY": 67.2716, "EPHEMERIS_TYPE": 0, "CLASSIFICATION_TYPE": "U", "NORAD_CAT_ID": 28924, "ELEMENT_SET_NO": 999, "REV_AT_EPOCH": 5118, "BSTAR": 0, "MEAN_MOTION_DOT": 1e-07, "MEAN_MOTION_DDOT": 0}, "tle": {"line1": "1 28924U 05052A   26054.20581251  .00000010  00000+0  00000+0 0  9997", "line2": "2 28924   3.9284  77.9480 0006205 255.9101  67.2716  1.00271184 51182"}}, "geometry": {"type": "Point", "coordinates": [168.434506847238, 3.937112760658506]}}, {"type": "Feature", "properties": {"norad_id": 29270, "name": "EUTELSAT 33F", "group": "eutelsat", "lat": -1.1502263654351195, "lon": 27.613260265617818, "alt_km": 35778.06197828164, "timestamp": "2026-02-23T13:24:12.219962+00:00", "meta": {"OBJECT_NAME": "EUTELSAT 33F", "OBJECT_ID": "2006-032A", "EPOCH": "2026-02-23T05:58:53.707008", "MEAN_MOTION": 1.00270834, "ECCENTRICITY": 0.00035232, "INCLINATION": 1.3659, "RA_OF_ASC_NODE": 83.5999, "ARG_OF_PERICENTER": 248.243, "MEAN_ANOMALY": 304.0787, "EPHEMERIS_TYPE": 0, "CLASSIFICATION_TYPE": "U", "NORAD_CAT_ID": 29270, "ELEMENT_SET_NO": 999, "REV_AT_EPOCH": 4616, "BSTAR": 0, "MEAN_MOTION_DOT": 1.57e-06, "MEAN_MOTION_DDOT": 0}, "tle": {"line1": "1 29270U 06032A   26054.24923272  .00000157  00000+0  00000+0 0  9990", "line2": "2 29270   1.3659  83.5999 0003523 248.2430 304.0787  1.00270834 46166"}}, "geometry": {"type": "Point", "coordinates": [27.613260265617818, -1.1502263654351195]}}, {"type": "Feature", "properties": {"norad_id": 33459, "name": "EUTELSAT HOTBIRD 13C", "group": "eutelsat", "lat": -1.8280799966337646, "lon": -55.8442270710671, "alt_km": 35773.65388003622, "timestamp": "2026-02-23T13:24:12.219975+00:00", "meta": {"OBJECT_NAME": "EUTELSAT HOTBIRD 13C", "OBJECT_ID": "2008-065A", "EPOCH": "2026-02-23T05:35:03.490656", "MEAN_MOTION": 1.00271927, "ECCENTRICITY": 0.0003671, "INCLINATION": 2.6562, "RA_OF_ASC_NODE": 80.5652, "ARG_OF_PERICENTER": 259.0773, "MEAN_ANOMALY": 206.9421, "EPHEMERIS_TYPE": 0, "CLASSIFICATION_TYPE": "U", "NORAD_CAT_ID": 33459, "ELEMENT_SET_NO": 999, "REV_AT_EPOCH": 4620, "BSTAR": 0, "MEAN_MOTION_DOT": -2.81e-06, "MEAN_MOTION_DDOT": 0}, "tle": {"line1": "1 33459U 08065A   26054.23267929 -.00000281  00000+0  00000+0 0  9990", "line2": "2 33459   2.6562  80.5652 0003671 259.0773 206.9421  1.00271927 46208"}}, "geometry": {"type": "Point", "coordinates": [-55.8442270710671, -1.8280799966337646]}}, {"type": "Feature", "properties": {"norad_id": 36101, "name": "EUTELSAT 36B", "group": "eutelsat", "lat": -0.12390231682991246, "lon": 45.05480010245732, "alt_km": 35777.24792970306, "timestamp": "2026-02-23T13:24:12.219987+00:00", "meta": {"OBJECT_NAME": "EUTELSAT 36B", "OBJECT_ID": "2009-065A", "EPOCH": "2026-02-23T06:03:53.228160", "MEAN_MOTION": 1.00272639, "ECCENTRICITY": 0.00058607, "INCLINATION": 0.2019, "RA_OF_ASC_NODE": 76.7599, "ARG_OF_PERICENTER": 258.5105, "MEAN_ANOMALY": 319.3183, "EPHEMERIS_TYPE": 0, "CLASSIFICATION_TYPE": "U", "NORAD_CAT_ID": 36101, "ELEMENT_SET_NO": 999, "REV_AT_EPOCH": 5956, "BSTAR": 0, "MEAN_MOTION_DOT": 1.14e-06, "MEAN_MOTION_DDOT": 0}, "tle": {"line1": "1 36101U 09065A   26054.25269940  .00000114  00000+0  00000+0 0  9999", "line2": "2 36101   0.2019  76.7599 0005860 258.5105 319.3183  1.00272639 59566"}}, "geometry": {"type": "Point", "coordinates": [45.05480010245732, -0.12390231682991246]}}, {"type": "Feature", "properties": {"norad_id": 37258, "name": "EUTELSAT KA-SAT 9A", "group": "eutelsat", "lat": -0.015982442520986517, "lon": 3.4833015588719003, "alt_km": 35792.433649055885, "timestamp": "2026-02-23T13:24:12.220000+00:00", "meta": {"OBJECT_NAME": "EUTELSAT KA-SAT 9A", "OBJECT_ID": "2010-069A", "EPOCH": "2026-02-23T02:26:36.560256", "MEAN_MOTION": 1.00274543, "ECCENTRICITY": 0.00022969, "INCLINATION": 0.0538, "RA_OF_ASC_NODE": 1.1161, "ARG_OF_PERICENTER": 139.735, "MEAN_ANOMALY": 57.7753, "EPHEMERIS_TYPE": 0, "CLASSIFICATION_TYPE": "U", "NORAD_CAT_ID": 37258, "ELEMENT_SET_NO": 999, "REV_AT_EPOCH": 4286, "BSTAR": 0, "MEAN_MOTION_DOT": 6.4e-07, "MEAN_MOTION_DDOT": 0}, "tle": {"line1": "1 37258U 10069A   26054.10181204  .00000064  00000+0  00000+0 0  9993", "line2": "2 37258   0.0538   1.1161 0002296 139.7350  57.7753  1.00274543 42860"}}, "geometry": {"type": "Point", "coordinates": [3.4833015588719003, -0.015982442520986517]}}, {"type": "Feature", "properties": {"norad_id": 37816, "name": "EUTELSAT 7 WEST A", "group": "eutelsat", "lat": -0.012889640679767254, "lon": -12.77994578480372, "alt_km": 35788.30755564075, "timestamp": "2026-02-23T13:24:12.220012+00:00", "meta": {"OBJECT_NAME": "EUTELSAT 7 WEST A", "OBJECT_ID": "2011-051A", "EPOCH": "2026-02-23T05:39:38.736000", "MEAN_MOTION": 1.00270577, "ECCENTRICITY": 0.0002116, "INCLINATION": 0.0651, "RA_OF_ASC_NODE": 345.7862, "ARG_OF_PERICENTER": 259.1689, "MEAN_ANOMALY": 345.7638, "EPHEMERIS_TYPE": 0, "CLASSIFICATION_TYPE": "U", "NORAD_CAT_ID": 37816, "ELEMENT_SET_NO": 999, "REV_AT_EPOCH": 5273, "BSTAR": 0, "MEAN_MOTION_DOT": -5.8e-07, "MEAN_MOTION_DDOT": 0}, "tle": {"line1": "1 37816U 11051A   26054.23586500 -.00000058  00000+0  00000+0 0  9991", "line2": "2 37816   0.0651 345.7862 0002116 259.1689 345.7638  1.00270577 52736"}}, "geometry": {"type": "Point", "coordinates": [-12.77994578480372, -0.012889640679767254]}}, {"type": "Feature", "properties": {"norad_id": 37836, "name": "EUTELSAT 16A", "group": "eutelsat", "lat": -0.018467220139689985, "lon": 10.528233235172674, "alt_km": 35766.15061970075, "timestamp": "2026-02-23T13:24:12.220024+00:00", "meta": {"OBJECT_NAME": "EUTELSAT 16A", "OBJECT_ID": "2011-057A", "EPOCH": "2026-02-23T05:54:01.674144", "MEAN_MOTION": 1.00273339, "ECCENTRICITY": 0.00054701, "INCLINATION": 0.0568, "RA_OF_ASC_NODE": 11.0422, "ARG_OF_PERICENTER": 326.7191, "MEAN_ANOMALY": 279.8576, "EPHEMERIS_TYPE": 0, "CLASSIFICATION_TYPE": "U", "NORAD_CAT_ID": 37836, "ELEMENT_SET_NO": 999, "REV_AT_EPOCH": 619, "BSTAR": 0, "MEAN_MOTION_DOT": 1.06e-06, "MEAN_MOTION_DDOT": 0}, "tle": {"line1": "1 37836U 11057A   26054.24585271  .00000106  00000+0  00000+0 0  9997", "line2": "2 37836   0.0568  11.0422 0005470 326.7191 279.8576  1.00273339  6191"}}, "geometry": {"type": "Point", "coordinates": [10.528233235172674, -0.018467220139689985]}}, {"type": "Feature", "properties": {"norad_id": 38992, "name": "EUTELSAT 21B", "group": "eutelsat", "lat": -0.013119337237525062, "lon": 16.111491416793925, "alt_km": 35776.60272417984, "timestamp": "2026-02-23T13:24:12.220036+00:00", "meta": {"OBJECT_NAME": "EUTELSAT 21B", "OBJECT_ID": "2012-062B", "EPOCH": "2026-02-23T05:55:31.530144", "MEAN_MOTION": 1.00273343, "ECCENTRICITY": 0.00028255, "INCLINATION": 0.0703, "RA_OF_ASC_NODE": 11.62, "ARG_OF_PERICENTER": 323.3723, "MEAN_ANOMALY": 288.598, "EPHEMERIS_TYPE": 0, "CLASSIFICATION_TYPE": "U", "NORAD_CAT_ID": 38992, "ELEMENT_SET_NO": 999, "REV_AT_EPOCH": 4868, "BSTAR": 0, "MEAN_MOTION_DOT": 1.32e-06, "MEAN_MOTION_DDOT": 0}, "tle": {"line1": "1 38992U 12062B   26054.24689271  .00000132  00000+0  00000+0 0  9992", "line2": "2 38992   0.0703  11.6200 0002825 323.3723 288.5980  1.00273343 48682"}}, "geometry": {"type": "Point", "coordinates": [16.111491416793925, -0.013119337237525062]}}, {"type": "Feature", "properties": {"norad_id": 39020, "name": "EUTELSAT 70B", "group": "eutelsat", "lat": 0.04323351993753806, "lon": 65.00867660963924, "alt_km": 35790.14745294362, "timestamp": "2026-02-23T13:24:12.220048+00:00", "meta": {"OBJECT_NAME": "EUTELSAT 70B", "OBJECT_ID": "2012-069A", "EPOCH": "2026-02-23T04:32:21.564672", "MEAN_MOTION": 1.00271674, "ECCENTRICITY": 0.00023174, "INCLINATION": 0.0645, "RA_OF_ASC_NODE": 346.9783, "ARG_OF_PERICENTER": 323.4554, "MEAN_ANOMALY": 341.2043, "EPHEMERIS_TYPE": 0, "CLASSIFICATION_TYPE": "U", "NORAD_CAT_ID": 39020, "ELEMENT_SET_NO": 999, "REV_AT_EPOCH": 4836, "BSTAR": 0, "MEAN_MOTION_DOT": -4.1e-07, "MEAN_MOTION_DDOT": 0}, "tle": {"line1": "1 39020U 12069A   26054.18913848 -.00000041  00000+0  00000+0 0  9995", "line2": "2 39020   0.0645 346.9783 0002317 323.4554 341.2043  1.00271674 48366"}}, "geometry": {"type": "Point", "coordinates": [65.00867660963924, 0.04323351993753806]}}, {"type": "Feature", "properties": {"norad_id": 39122, "name": "EUTELSAT 117 WEST A", "group": "eutelsat", "lat": -0.017872549930146156, "lon": -122.33941571876986, "alt_km": 35787.98330330893, "timestamp": "2026-02-23T13:24:12.220060+00:00", "meta": {"OBJECT_NAME": "EUTELSAT 117 WEST A", "OBJECT_ID": "2013-012A", "EPOCH": "2026-02-23T04:50:38.552640", "MEAN_MOTION": 1.00270725, "ECCENTRICITY": 0.00029877, "INCLINATION": 0.048, "RA_OF_ASC_NODE": 296.6498, "ARG_OF_PERICENTER": 38.372, "MEAN_ANOMALY": 133.9109, "EPHEMERIS_TYPE": 0, "CLASSIFICATION_TYPE": "U", "NORAD_CAT_ID": 39122, "ELEMENT_SET_NO": 999, "REV_AT_EPOCH": 4729, "BSTAR": 0, "MEAN_MOTION_DOT": -1e-07, "MEAN_MOTION_DDOT": 0}, "tle": {"line1": "1 39122U 13012A   26054.20183510 -.00000010  00000+0  00000+0 0  9991", "line2": "2 39122   0.0480 296.6498 0002987  38.3720 133.9109  1.00270725 47296"}}, "geometry": {"type": "Point", "coordinates": [-122.33941571876986, -0.017872549930146156]}}, {"type": "Feature", "properties": {"norad_id": 39163, "name": "EUTELSAT 7B", "group": "eutelsat", "lat": 0.01782729148696164, "lon": 1.516951070613257, "alt_km": 35760.84014168456, "timestamp": "2026-02-23T13:24:12.220072+00:00", "meta": {"OBJECT_NAME": "EUTELSAT 7B", "OBJECT_ID": "2013-022A", "EPOCH": "2026-02-23T05:51:24.425280", "MEAN_MOTION": 1.00272077, "ECCENTRICITY": 0.00060962, "INCLINATION": 0.0713, "RA_OF_ASC_NODE": 332.2822, "ARG_OF_PERICENTER": 16.3747, "MEAN_ANOMALY": 259.3134, "EPHEMERIS_TYPE": 0, "CLASSIFICATION_TYPE": "U", "NORAD_CAT_ID": 39163, "ELEMENT_SET_NO": 999, "REV_AT_EPOCH": 4680, "BSTAR": 0, "MEAN_MOTION_DOT": 5e-07, "MEAN_MOTION_DDOT": 0}, "tle": {"line1": "1 39163U 13022A   26054.24403270  .00000050  00000+0  00000+0 0  9992", "line2": "2 39163   0.0713 332.2822 0006096  16.3747 259.3134  1.00272077 46807"}}, "geometry": {"type": "Point", "coordinates": [1.516951070613257, 0.01782729148696164]}}, {"type": "Feature", "properties": {"norad_id": 39612, "name": "EXPRESS-AT1", "group": "eutelsat", "lat": 0.0054061899676225615, "lon": 50.50887720123469, "alt_km": 35788.79876045328, "timestamp": "2026-02-23T13:24:12.220085+00:00", "meta": {"OBJECT_NAME": "EXPRESS-AT1", "OBJECT_ID": "2014-010A", "EPOCH": "2026-02-23T04:22:40.433088", "MEAN_MOTION": 1.00274195, "ECCENTRICITY": 8.52e-05, "INCLINATION": 0.0421, "RA_OF_ASC_NODE": 287.0856, "ARG_OF_PERICENTER": 320.2063, "MEAN_ANOMALY": 27.4362, "EPHEMERIS_TYPE": 0, "CLASSIFICATION_TYPE": "U", "NORAD_CAT_ID": 39612, "ELEMENT_SET_NO": 999, "REV_AT_EPOCH": 4367, "BSTAR": 0, "MEAN_MOTION_DOT": 8.1e-07, "MEAN_MOTION_DDOT": 0}, "tle": {"line1": "1 39612U 14010A   26054.18241242  .00000081  00000+0  00000+0 0  9995", "line2": "2 39612   0.0421 287.0856 0000852 320.2063  27.4362  1.00274195 43670"}}, "geometry": {"type": "Point", "coordinates": [50.50887720123469, 0.0054061899676225615]}}, {"type": "Feature", "properties": {"norad_id": 39613, "name": "EXPRESS-AT2", "group": "eutelsat", "lat": 0.0010639830397053988, "lon": 134.3575551573268, "alt_km": 35792.31565073286, "timestamp": "2026-02-23T13:24:12.220096+00:00", "meta": {"OBJECT_NAME": "EXPRESS-AT2", "OBJECT_ID": "2014-010B", "EPOCH": "2026-02-22T21:55:54.296832", "MEAN_MOTION": 1.00273098, "ECCENTRICITY": 0.0001922, "INCLINATION": 0.0163, "RA_OF_ASC_NODE": 133.0779, "ARG_OF_PERICENTER": 144.8862, "MEAN_ANOMALY": 343.6721, "EPHEMERIS_TYPE": 0, "CLASSIFICATION_TYPE": "U", "NORAD_CAT_ID": 39613, "ELEMENT_SET_NO": 999, "REV_AT_EPOCH": 4335, "BSTAR": 0, "MEAN_MOTION_DOT": 0, "MEAN_MOTION_DDOT": 0}, "tle": {"line1": "1 39613U 14010B   26053.91382288  .00000000  00000+0  00000+0 0  9993", "line2": "2 39613   0.0163 133.0779 0001922 144.8862 343.6721  1.00273098 43352"}}, "geometry": {"type": "Point", "coordinates": [134.3575551573268, 0.0010639830397053988]}}, {"type": "Feature", "properties": {"norad_id": 39773, "name": "EUTELSAT 3B", "group": "eutelsat", "lat": -0.0034018019071967998, "lon": -2.392952514346393, "alt_km": 35786.71552856239, "timestamp": "2026-02-23T13:24:12.220108+00:00", "meta": {"OBJECT_NAME": "EUTELSAT 3B", "OBJECT_ID": "2014-030A", "EPOCH": "2026-02-23T05:50:17.031552", "MEAN_MOTION": 1.00270677, "ECCENTRICITY": 0.00017508, "INCLINATION": 0.0642, "RA_OF_ASC_NODE": 344.9609, "ARG_OF_PERICENTER": 279.8606, "MEAN_ANOMALY": 338.9547, "EPHEMERIS_TYPE": 0, "CLASSIFICATION_TYPE": "U", "NORAD_CAT_ID": 39773, "ELEMENT_SET_NO": 999, "REV_AT_EPOCH": 4292, "BSTAR": 0, "MEAN_MOTION_DOT": 2.2e-07, "MEAN_MOTION_DDOT": 0}, "tle": {"line1": "1 39773U 14030A   26054.24325268  .00000022  00000+0  00000+0 0  9998", "line2": "2 39773   0.0642 344.9609 0001750 279.8606 338.9547  1.00270677 42925"}}, "geometry": {"type": "Point", "coordinates": [-2.392952514346393, -0.0034018019071967998]}}, {"type": "Feature", "properties": {"norad_id": 40425, "name": "EUTELSAT 115 WEST B", "group": "eutelsat", "lat": -0.005955393830982735, "lon": -120.40682926083905, "alt_km": 35786.894755737136, "timestamp": "2026-02-23T13:24:12.220120+00:00", "meta": {"OBJECT_NAME": "EUTELSAT 115 WEST B", "OBJECT_ID": "2015-010B", "EPOCH": "2026-02-22T15:35:08.299104", "MEAN_MOTION": 1.0027134, "ECCENTRICITY": 1.867e-05, "INCLINATION": 0.0079, "RA_OF_ASC_NODE": 264.7891, "ARG_OF_PERICENTER": 178.1287, "MEAN_ANOMALY": 188.4918, "EPHEMERIS_TYPE": 0, "CLASSIFICATION_TYPE": "U", "NORAD_CAT_ID": 40425, "ELEMENT_SET_NO": 999, "REV_AT_EPOCH": 4024, "BSTAR": 0, "MEAN_MOTION_DOT": -2.1e-07, "MEAN_MOTION_DDOT": 0}, "tle": {"line1": "1 40425U 15010B   26053.64940161 -.00000021  00000+0  00000+0 0  9991", "line2": "2 40425   0.0079 264.7891 0000186 178.1287 188.4918  1.00271340 40246"}}, "geometry": {"type": "Point", "coordinates": [-120.40682926083905, -0.005955393830982735]}}, {"type": "Feature", "properties": {"norad_id": 40875, "name": "EUTELSAT 8 WEST B", "group": "eutelsat", "lat": -0.042581586454070765, "lon": -13.492226743376575, "alt_km": 35769.99856195575, "timestamp": "2026-02-23T13:24:12.220132+00:00", "meta": {"OBJECT_NAME": "EUTELSAT 8 WEST B", "OBJECT_ID": "2015-039B", "EPOCH": "2026-02-23T05:39:38.736000", "MEAN_MOTION": 1.00271912, "ECCENTRICITY": 0.00038716, "INCLINATION": 0.0696, "RA_OF_ASC_NODE": 13.5861, "ARG_OF_PERICENTER": 321.3208, "MEAN_ANOMALY": 255.1129, "EPHEMERIS_TYPE": 0, "CLASSIFICATION_TYPE": "U", "NORAD_CAT_ID": 40875, "ELEMENT_SET_NO": 999, "REV_AT_EPOCH": 3851, "BSTAR": 0, "MEAN_MOTION_DOT": -6.4e-07, "MEAN_MOTION_DDOT": 0}, "tle": {"line1": "1 40875U 15039B   26054.23586500 -.00000064  00000+0  00000+0 0  9997", "line2": "2 40875   0.0696  13.5861 0003871 321.3208 255.1129  1.00271912 38514"}}, "geometry": {"type": "Point", "coordinates": [-13.492226743376575, -0.042581586454070765]}}, {"type": "Feature", "properties": {"norad_id": 41310, "name": "EUTELSAT 9B", "group": "eutelsat", "lat": -0.03219352411799764, "lon": 3.5229078923634516, "alt_km": 35773.87989234884, "timestamp": "2026-02-23T13:24:12.220144+00:00", "meta": {"OBJECT_NAME": "EUTELSAT 9B", "OBJECT_ID": "2016-005A", "EPOCH": "2026-02-23T05:52:01.864992", "MEAN_MOTION": 1.00270429, "ECCENTRICITY": 0.00046798, "INCLINATION": 0.025, "RA_OF_ASC_NODE": 63.286, "ARG_OF_PERICENTER": 249.4828, "MEAN_ANOMALY": 297.34, "EPHEMERIS_TYPE": 0, "CLASSIFICATION_TYPE": "U", "NORAD_CAT_ID": 41310, "ELEMENT_SET_NO": 999, "REV_AT_EPOCH": 3697, "BSTAR": 0, "MEAN_MOTION_DOT": 6.3e-07, "MEAN_MOTION_DDOT": 0}, "tle": {"line1": "1 41310U 16005A   26054.24446603  .00000063  00000+0  00000+0 0  9994", "line2": "2 41310   0.0250  63.2860 0004679 249.4828 297.3400  1.00270429 36971"}}, "geometry": {"type": "Point", "coordinates": [3.5229078923634516, -0.03219352411799764]}}, {"type": "Feature", "properties": {"norad_id": 41382, "name": "EUTELSAT 65 WEST A", "group": "eutelsat", "lat": -0.045979309736509405, "lon": -70.72017099413218, "alt_km": 35779.18011292247, "timestamp": "2026-02-23T13:24:12.220155+00:00", "meta": {"OBJECT_NAME": "EUTELSAT 65 WEST A", "OBJECT_ID": "2016-014A", "EPOCH": "2026-02-23T05:45:11.996352", "MEAN_MOTION": 1.00269446, "ECCENTRICITY": 0.0002314, "INCLINATION": 0.0562, "RA_OF_ASC_NODE": 21.8924, "ARG_OF_PERICENTER": 306.4671, "MEAN_ANOMALY": 205.8534, "EPHEMERIS_TYPE": 0, "CLASSIFICATION_TYPE": "U", "NORAD_CAT_ID": 41382, "ELEMENT_SET_NO": 999, "REV_AT_EPOCH": 3639, "BSTAR": 0, "MEAN_MOTION_DOT": -2.74e-06, "MEAN_MOTION_DDOT": 0}, "tle": {"line1": "1 41382U 16014A   26054.23972218 -.00000274  00000+0  00000+0 0  9993", "line2": "2 41382   0.0562  21.8924 0002314 306.4671 205.8534  1.00269446 36396"}}, "geometry": {"type": "Point", "coordinates": [-70.72017099413218, -0.045979309736509405]}}, {"type": "Feature", "properties": {"norad_id": 41589, "name": "EUTELSAT 117 WEST B", "group": "eutelsat", "lat": -0.004864737248682771, "lon": -122.49679471114193, "alt_km": 35787.71310756516, "timestamp": "2026-02-23T13:24:12.220167+00:00", "meta": {"OBJECT_NAME": "EUTELSAT 117 WEST B", "OBJECT_ID": "2016-038B", "EPOCH": "2026-02-23T04:50:38.552640", "MEAN_MOTION": 1.00269208, "ECCENTRICITY": 2.311e-05, "INCLINATION": 0.0084, "RA_OF_ASC_NODE": 266.5124, "ARG_OF_PERICENTER": 169.3943, "MEAN_ANOMALY": 32.8357, "EPHEMERIS_TYPE": 0, "CLASSIFICATION_TYPE": "U", "NORAD_CAT_ID": 41589, "ELEMENT_SET_NO": 999, "REV_AT_EPOCH": 3552, "BSTAR": 0, "MEAN_MOTION_DOT": -9e-08, "MEAN_MOTION_DDOT": 0}, "tle": {"line1": "1 41589U 16038B   26054.20183510 -.00000009  00000+0  00000+0 0  9990", "line2": "2 41589   0.0084 266.5124 0000231 169.3943  32.8357  1.00269208 35529"}}, "geometry": {"type": "Point", "coordinates": [-122.49679471114193, -0.004864737248682771]}}, {"type": "Feature", "properties": {"norad_id": 42741, "name": "EUTELSAT 172B", "group": "eutelsat", "lat": 0.01051523880920565, "lon": 166.50686317411515, "alt_km": 35785.85142089843, "timestamp": "2026-02-23T13:24:12.220179+00:00", "meta": {"OBJECT_NAME": "EUTELSAT 172B", "OBJECT_ID": "2017-029B", "EPOCH": "2026-02-22T22:05:02.110848", "MEAN_MOTION": 1.00270608, "ECCENTRICITY": 3.02e-05, "INCLINATION": 0.0169, "RA_OF_ASC_NODE": 157.3852, "ARG_OF_PERICENTER": 74.4133, "MEAN_ANOMALY": 64.2713, "EPHEMERIS_TYPE": 0, "CLASSIFICATION_TYPE": "U", "NORAD_CAT_ID": 42741, "ELEMENT_SET_NO": 999, "REV_AT_EPOCH": 3259, "BSTAR": 0, "MEAN_MOTION_DOT": -3e-08, "MEAN_MOTION_DDOT": 0}, "tle": {"line1": "1 42741U 17029B   26053.92016332 -.00000003  00000+0  00000+0 0  9991", "line2": "2 42741   0.0169 157.3852 0000302  74.4133  64.2713  1.00270608 32590"}}, "geometry": {"type": "Point", "coordinates": [166.50686317411515, 0.01051523880920565]}}, {"type": "Feature", "properties": {"norad_id": 44334, "name": "EUTELSAT 7C", "group": "eutelsat", "lat": -0.017804704319298453, "lon": 1.5200435965149635, "alt_km": 35775.738225383706, "timestamp": "2026-02-23T13:24:12.220191+00:00", "meta": {"OBJECT_NAME": "EUTELSAT 7C", "OBJECT_ID": "2019-034B", "EPOCH": "2026-02-22T05:39:38.722176", "MEAN_MOTION": 1.0027036, "ECCENTRICITY": 0.00034221, "INCLINATION": 0.0744, "RA_OF_ASC_NODE": 177.1998, "ARG_OF_PERICENTER": 141.5195, "MEAN_ANOMALY": 285.315, "EPHEMERIS_TYPE": 0, "CLASSIFICATION_TYPE": "U", "NORAD_CAT_ID": 44334, "ELEMENT_SET_NO": 999, "REV_AT_EPOCH": 568, "BSTAR": 0, "MEAN_MOTION_DOT": 5.2e-07, "MEAN_MOTION_DDOT": 0}, "tle": {"line1": "1 44334U 19034B   26053.23586484  .00000052  00000+0  00000+0 0  9996", "line2": "2 44334   0.0744 177.1998 0003422 141.5195 285.3150  1.00270360  5686"}}, "geometry": {"type": "Point", "coordinates": [1.5200435965149635, -0.017804704319298453]}}, {"type": "Feature", "properties": {"norad_id": 44624, "name": "EUTELSAT 5 WEST B", "group": "eutelsat", "lat": 0.040084577691575404, "lon": -10.50746991001848, "alt_km": 35773.13099618675, "timestamp": "2026-02-23T13:24:12.220203+00:00", "meta": {"OBJECT_NAME": "EUTELSAT 5 WEST B", "OBJECT_ID": "2019-067A", "EPOCH": "2026-02-22T21:14:35.757312", "MEAN_MOTION": 1.00271682, "ECCENTRICITY": 0.0003128, "INCLINATION": 0.0861, "RA_OF_ASC_NODE": 312.2691, "ARG_OF_PERICENTER": 25.4088, "MEAN_ANOMALY": 128.7202, "EPHEMERIS_TYPE": 0, "CLASSIFICATION_TYPE": "U", "NORAD_CAT_ID": 44624, "ELEMENT_SET_NO": 999, "REV_AT_EPOCH": 2329, "BSTAR": 0, "MEAN_MOTION_DOT": -3.9e-07, "MEAN_MOTION_DDOT": 0}, "tle": {"line1": "1 44624U 19067A   26053.88513608 -.00000039  00000+0  00000+0 0  9999", "line2": "2 44624   0.0861 312.2691 0003128  25.4088 128.7202  1.00271682 23297"}}, "geometry": {"type": "Point", "coordinates": [-10.50746991001848, 0.040084577691575404]}}, {"type": "Feature", "properties": {"norad_id": 45027, "name": "EUTELSAT KONNECT", "group": "eutelsat", "lat": -0.07837001669832037, "lon": 1.7252148949725357, "alt_km": 35782.34260109437, "timestamp": "2026-02-23T13:24:12.220225+00:00", "meta": {"OBJECT_NAME": "EUTELSAT KONNECT", "OBJECT_ID": "2020-005B", "EPOCH": "2026-02-23T00:43:23.956032", "MEAN_MOTION": 1.00275646, "ECCENTRICITY": 0.00010964, "INCLINATION": 0.0638, "RA_OF_ASC_NODE": 98.8097, "ARG_OF_PERICENTER": 207.3185, "MEAN_ANOMALY": 224.8359, "EPHEMERIS_TYPE": 0, "CLASSIFICATION_TYPE": "U", "NORAD_CAT_ID": 45027, "ELEMENT_SET_NO": 999, "REV_AT_EPOCH": 2319, "BSTAR": 0, "MEAN_MOTION_DOT": 5.3e-07, "MEAN_MOTION_DDOT": 0}, "tle": {"line1": "1 45027U 20005B   26054.03013838  .00000053  00000+0  00000+0 0  9994", "line2": "2 45027   0.0638  98.8097 0001096 207.3185 224.8359  1.00275646 23199"}}, "geometry": {"type": "Point", "coordinates": [1.7252148949725357, -0.07837001669832037]}}, {"type": "Feature", "properties": {"norad_id": 49056, "name": "EUTELSAT QUANTUM", "group": "eutelsat", "lat": -0.030430149203429832, "lon": 42.25490648772651, "alt_km": 35782.22154578663, "timestamp": "2026-02-23T13:24:12.220245+00:00", "meta": {"OBJECT_NAME": "EUTELSAT QUANTUM", "OBJECT_ID": "2021-069B", "EPOCH": "2026-02-23T04:20:18.159936", "MEAN_MOTION": 1.00272635, "ECCENTRICITY": 0.00030561, "INCLINATION": 0.0177, "RA_OF_ASC_NODE": 95.2859, "ARG_OF_PERICENTER": 232.9931, "MEAN_ANOMALY": 297.5719, "EPHEMERIS_TYPE": 0, "CLASSIFICATION_TYPE": "U", "NORAD_CAT_ID": 49056, "ELEMENT_SET_NO": 999, "REV_AT_EPOCH": 1678, "BSTAR": 0, "MEAN_MOTION_DOT": 0, "MEAN_MOTION_DDOT": 0}, "tle": {"line1": "1 49056U 21069B   26054.18076574  .00000000  00000+0  00000+0 0  9995", "line2": "2 49056   0.0177  95.2859 0003056 232.9931 297.5719  1.00272635 16780"}}, "geometry": {"type": "Point", "coordinates": [42.25490648772651, -0.030430149203429832]}}, {"type": "Feature", "properties": {"norad_id": 53765, "name": "EUTELSAT KONNECT VHTS", "group": "eutelsat", "lat": -0.06913637698033936, "lon": -2.7988893113899223, "alt_km": 35779.115641878525, "timestamp": "2026-02-23T13:24:12.220258+00:00", "meta": {"OBJECT_NAME": "EUTELSAT KONNECT VHTS", "OBJECT_ID": "2022-110A", "EPOCH": "2026-02-23T05:50:09.544128", "MEAN_MOTION": 1.00268771, "ECCENTRICITY": 0.00030742, "INCLINATION": 0.0573, "RA_OF_ASC_NODE": 102.3613, "ARG_OF_PERICENTER": 201.5752, "MEAN_ANOMALY": 299.3965, "EPHEMERIS_TYPE": 0, "CLASSIFICATION_TYPE": "U", "NORAD_CAT_ID": 53765, "ELEMENT_SET_NO": 999, "REV_AT_EPOCH": 569, "BSTAR": 0, "MEAN_MOTION_DOT": 1.8e-07, "MEAN_MOTION_DDOT": 0}, "tle": {"line1": "1 53765U 22110A   26054.24316602  .00000018  00000+0  00000+0 0  9990", "line2": "2 53765   0.0573 102.3613 0003074 201.5752 299.3965  1.00268771  5690"}}, "geometry": {"type": "Point", "coordinates": [-2.7988893113899223, -0.06913637698033936]}}, {"type": "Feature", "properties": {"norad_id": 54048, "name": "EUTELSAT HOTBIRD 13F", "group": "eutelsat", "lat": 0.03683502809871988, "lon": 7.513505078712002, "alt_km": 35776.953976390534, "timestamp": "2026-02-23T13:24:12.220270+00:00", "meta": {"OBJECT_NAME": "EUTELSAT HOTBIRD 13F", "OBJECT_ID": "2022-134A", "EPOCH": "2026-02-22T19:09:38.426688", "MEAN_MOTION": 1.00272465, "ECCENTRICITY": 0.00021426, "INCLINATION": 0.056, "RA_OF_ASC_NODE": 294.1394, "ARG_OF_PERICENTER": 61.5263, "MEAN_ANOMALY": 97.4288, "EPHEMERIS_TYPE": 0, "CLASSIFICATION_TYPE": "U", "NORAD_CAT_ID": 54048, "ELEMENT_SET_NO": 999, "REV_AT_EPOCH": 1223, "BSTAR": 0, "MEAN_MOTION_DOT": 9e-07, "MEAN_MOTION_DDOT": 0}, "tle": {"line1": "1 54048U 22134A   26053.79836142  .00000090  00000+0  00000+0 0  9996", "line2": "2 54048   0.0560 294.1394 0002142  61.5263  97.4288  1.00272465 12231"}}, "geometry": {"type": "Point", "coordinates": [7.513505078712002, 0.03683502809871988]}}, {"type": "Feature", "properties": {"norad_id": 54225, "name": "EUTELSAT HOTBIRD 13G", "group": "eutelsat", "lat": 0.02229917388626342, "lon": 7.514546874076339, "alt_km": 35792.846026552616, "timestamp": "2026-02-23T13:24:12.220282+00:00", "meta": {"OBJECT_NAME": "EUTELSAT HOTBIRD 13G", "OBJECT_ID": "2022-146A", "EPOCH": "2026-02-23T01:35:38.826240", "MEAN_MOTION": 1.00275686, "ECCENTRICITY": 0.00018878, "INCLINATION": 0.053, "RA_OF_ASC_NODE": 239.5579, "ARG_OF_PERICENTER": 314.9972, "MEAN_ANOMALY": 355.3041, "EPHEMERIS_TYPE": 0, "CLASSIFICATION_TYPE": "U", "NORAD_CAT_ID": 54225, "ELEMENT_SET_NO": 999, "REV_AT_EPOCH": 632, "BSTAR": 0, "MEAN_MOTION_DOT": 9e-07, "MEAN_MOTION_DDOT": 0}, "tle": {"line1": "1 54225U 22146A   26054.06642160  .00000090  00000+0  00000+0 0  9992", "line2": "2 54225   0.0530 239.5579 0001887 314.9972 355.3041  1.00275686  6324"}}, "geometry": {"type": "Point", "coordinates": [7.514546874076339, 0.02229917388626342]}}, {"type": "Feature", "properties": {"norad_id": 54259, "name": "EUTELSAT 10B", "group": "eutelsat", "lat": -0.0712916540098206, "lon": 4.476412189443379, "alt_km": 35789.80191562093, "timestamp": "2026-02-23T13:24:12.220294+00:00", "meta": {"OBJECT_NAME": "EUTELSAT 10B", "OBJECT_ID": "2022-157A", "EPOCH": "2026-02-23T05:52:16.840704", "MEAN_MOTION": 1.00266872, "ECCENTRICITY": 0.00010361, "INCLINATION": 0.0566, "RA_OF_ASC_NODE": 101.5951, "ARG_OF_PERICENTER": 25.2863, "MEAN_ANOMALY": 124.2991, "EPHEMERIS_TYPE": 0, "CLASSIFICATION_TYPE": "U", "NORAD_CAT_ID": 54259, "ELEMENT_SET_NO": 999, "REV_AT_EPOCH": 1188, "BSTAR": 0, "MEAN_MOTION_DOT": 6.9e-07, "MEAN_MOTION_DDOT": 0}, "tle": {"line1": "1 54259U 22157A   26054.24463936  .00000069  00000+0  00000+0 0  9999", "line2": "2 54259   0.0566 101.5951 0001036  25.2863 124.2991  1.00266872 11880"}}, "geometry": {"type": "Point", "coordinates": [4.476412189443379, -0.0712916540098206]}}, {"type": "Feature", "properties": {"norad_id": 59346, "name": "EUTELSAT 36D", "group": "eutelsat", "lat": -0.0354898550060142, "lon": 30.37779878984761, "alt_km": 35786.88085195198, "timestamp": "2026-02-23T13:24:12.220306+00:00", "meta": {"OBJECT_NAME": "EUTELSAT 36D", "OBJECT_ID": "2024-059A", "EPOCH": "2026-02-23T05:59:38.635008", "MEAN_MOTION": 1.00269761, "ECCENTRICITY": 3.755e-05, "INCLINATION": 0.018, "RA_OF_ASC_NODE": 137.1942, "ARG_OF_PERICENTER": 153.2799, "MEAN_ANOMALY": 348.436, "EPHEMERIS_TYPE": 0, "CLASSIFICATION_TYPE": "U", "NORAD_CAT_ID": 59346, "ELEMENT_SET_NO": 999, "REV_AT_EPOCH": 700, "BSTAR": 0, "MEAN_MOTION_DOT": 1.58e-06, "MEAN_MOTION_DDOT": 0}, "tle": {"line1": "1 59346U 24059A   26054.24975272  .00000158  00000+0  00000+0 0  9994", "line2": "2 59346   0.0180 137.1942 0000375 153.2799 348.4360  1.00269761  7003"}}, "geometry": {"type": "Point", "coordinates": [30.37779878984761, -0.0354898550060142]}}]}