{"type": "FeatureCollection", "features": [{"type": "Feature", "properties": {"norad_id": 37846, "name": "GSAT0101 (GALILEO-PFM)", "group": "galileo", "lat": -43.09380150838785, "lon": -158.4854480408344, "alt_km": 23235.610541603342, "timestamp": "2026-03-21T05:49:39.317775+00:00", "meta": {"OBJECT_NAME": "GSAT0101 (GALILEO-PFM)", "OBJECT_ID": "2011-060A", "EPOCH": "2026-03-20T06:34:44.940864", "MEAN_MOTION": 1.70475589, "ECCENTRICITY": 0.00040603, "INCLINATION": 57.0223, "RA_OF_ASC_NODE": 344.1754, "ARG_OF_PERICENTER": 9.5766, "MEAN_ANOMALY": 350.4748, "EPHEMERIS_TYPE": 0, "CLASSIFICATION_TYPE": "U", "NORAD_CAT_ID": 37846, "ELEMENT_SET_NO": 999, "REV_AT_EPOCH": 8960, "BSTAR": 0, "MEAN_MOTION_DOT": -7.3e-07, "MEAN_MOTION_DDOT": 0}, "tle": {"line1": "1 37846U 11060A   26079.27413126 -.00000073  00000+0  00000+0 0  9995", "line2": "2 37846  57.0223 344.1754 0004060   9.5766 350.4748  1.70475589 89600"}}, "geometry": {"type": "Point", "coordinates": [-158.4854480408344, -43.09380150838785]}}, {"type": "Feature", "properties": {"norad_id": 37847, "name": "GSAT0102 (GALILEO-FM2)", "group": "galileo", "lat": -55.7133871693138, "lon": -87.8462523696258, "alt_km": 23222.357530214453, "timestamp": "2026-03-21T05:49:39.317818+00:00", "meta": {"OBJECT_NAME": "GSAT0102 (GALILEO-FM2)", "OBJECT_ID": "2011-060B", "EPOCH": "2026-03-19T07:43:09.480864", "MEAN_MOTION": 1.70475872, "ECCENTRICITY": 0.00052502, "INCLINATION": 57.0234, "RA_OF_ASC_NODE": 344.2017, "ARG_OF_PERICENTER": 348.8353, "MEAN_ANOMALY": 192.1948, "EPHEMERIS_TYPE": 0, "CLASSIFICATION_TYPE": "U", "NORAD_CAT_ID": 37847, "ELEMENT_SET_NO": 999, "REV_AT_EPOCH": 8959, "BSTAR": 0, "MEAN_MOTION_DOT": -7.2e-07, "MEAN_MOTION_DDOT": 0}, "tle": {"line1": "1 37847U 11060B   26078.32163751 -.00000072  00000+0  00000+0 0  9996", "line2": "2 37847  57.0234 344.2017 0005250 348.8353 192.1948  1.70475872 89595"}}, "geometry": {"type": "Point", "coordinates": [-87.8462523696258, -55.7133871693138]}}, {"type": "Feature", "properties": {"norad_id": 38857, "name": "GSAT0103 (GALILEO-FM3)", "group": "galileo", "lat": -24.105259352354494, "lon": -58.289614416207755, "alt_km": 23221.931192480606, "timestamp": "2026-03-21T05:49:39.317833+00:00", "meta": {"OBJECT_NAME": "GSAT0103 (GALILEO-FM3)", "OBJECT_ID": "2012-055A", "EPOCH": "2026-03-20T07:32:57.337728", "MEAN_MOTION": 1.70473352, "ECCENTRICITY": 0.00057205, "INCLINATION": 55.7525, "RA_OF_ASC_NODE": 103.9829, "ARG_OF_PERICENTER": 287.6222, "MEAN_ANOMALY": 72.3876, "EPHEMERIS_TYPE": 0, "CLASSIFICATION_TYPE": "U", "NORAD_CAT_ID": 38857, "ELEMENT_SET_NO": 999, "REV_AT_EPOCH": 8349, "BSTAR": 0, "MEAN_MOTION_DOT": 5.6e-07, "MEAN_MOTION_DDOT": 0}, "tle": {"line1": "1 38857U 12055A   26079.31455252  .00000056  00000+0  00000+0 0  9994", "line2": "2 38857  55.7525 103.9829 0005720 287.6222  72.3876  1.70473352 83496"}}, "geometry": {"type": "Point", "coordinates": [-58.289614416207755, -24.105259352354494]}}, {"type": "Feature", "properties": {"norad_id": 40128, "name": "GSAT0201 (GALILEO 5)", "group": "galileo", "lat": 30.66340809033509, "lon": 65.94726705831958, "alt_km": 17705.42092040638, "timestamp": "2026-03-21T05:49:39.317845+00:00", "meta": {"OBJECT_NAME": "GSAT0201 (GALILEO 5)", "OBJECT_ID": "2014-050A", "EPOCH": "2026-03-19T09:45:05.798304", "MEAN_MOTION": 1.85519959, "ECCENTRICITY": 0.1660183, "INCLINATION": 48.9731, "RA_OF_ASC_NODE": 277.1098, "ARG_OF_PERICENTER": 175.8997, "MEAN_ANOMALY": 185.6527, "EPHEMERIS_TYPE": 0, "CLASSIFICATION_TYPE": "U", "NORAD_CAT_ID": 40128, "ELEMENT_SET_NO": 999, "REV_AT_EPOCH": 7665, "BSTAR": 0, "MEAN_MOTION_DOT": 3e-08, "MEAN_MOTION_DDOT": 0}, "tle": {"line1": "1 40128U 14050A   26078.40631711  .00000003  00000+0  00000+0 0  9992", "line2": "2 40128  48.9731 277.1098 1660183 175.8997 185.6527  1.85519959 76654"}}, "geometry": {"type": "Point", "coordinates": [65.94726705831958, 30.66340809033509]}}, {"type": "Feature", "properties": {"norad_id": 40129, "name": "GSAT0202 (GALILEO 6)", "group": "galileo", "lat": -13.224156732612778, "lon": -95.6798346598478, "alt_km": 26039.18871985463, "timestamp": "2026-03-21T05:49:39.317858+00:00", "meta": {"OBJECT_NAME": "GSAT0202 (GALILEO 6)", "OBJECT_ID": "2014-050B", "EPOCH": "2026-03-20T04:49:40.187712", "MEAN_MOTION": 1.85520661, "ECCENTRICITY": 0.16612046, "INCLINATION": 48.9886, "RA_OF_ASC_NODE": 276.162, "ARG_OF_PERICENTER": 176.666, "MEAN_ANOMALY": 184.596, "EPHEMERIS_TYPE": 0, "CLASSIFICATION_TYPE": "U", "NORAD_CAT_ID": 40129, "ELEMENT_SET_NO": 999, "REV_AT_EPOCH": 7883, "BSTAR": 0, "MEAN_MOTION_DOT": 2e-08, "MEAN_MOTION_DDOT": 0}, "tle": {"line1": "1 40129U 14050B   26079.20115958  .00000002  00000+0  00000+0 0  9991", "line2": "2 40129  48.9886 276.1620 1661204 176.6660 184.5960  1.85520661 78830"}}, "geometry": {"type": "Point", "coordinates": [-95.6798346598478, -13.224156732612778]}}, {"type": "Feature", "properties": {"norad_id": 40544, "name": "GSAT0203 (GALILEO 7)", "group": "galileo", "lat": 8.996772092219196, "lon": -10.051089702232048, "alt_km": 23217.221511325704, "timestamp": "2026-03-21T05:49:39.317869+00:00", "meta": {"OBJECT_NAME": "GSAT0203 (GALILEO 7)", "OBJECT_ID": "2015-017A", "EPOCH": "2026-03-19T11:10:21.175104", "MEAN_MOTION": 1.70475713, "ECCENTRICITY": 0.00048266, "INCLINATION": 56.8157, "RA_OF_ASC_NODE": 344.0443, "ARG_OF_PERICENTER": 296.4892, "MEAN_ANOMALY": 63.5041, "EPHEMERIS_TYPE": 0, "CLASSIFICATION_TYPE": "U", "NORAD_CAT_ID": 40544, "ELEMENT_SET_NO": 999, "REV_AT_EPOCH": 6767, "BSTAR": 0, "MEAN_MOTION_DOT": -7.2e-07, "MEAN_MOTION_DDOT": 0}, "tle": {"line1": "1 40544U 15017A   26078.46552286 -.00000072  00000+0  00000+0 0  9990", "line2": "2 40544  56.8157 344.0443 0004826 296.4892  63.5041  1.70475713 67673"}}, "geometry": {"type": "Point", "coordinates": [-10.051089702232048, 8.996772092219196]}}, {"type": "Feature", "properties": {"norad_id": 40545, "name": "GSAT0204 (GALILEO 8)", "group": "galileo", "lat": -27.777974082515353, "lon": -175.838886116621, "alt_km": 23222.962528800486, "timestamp": "2026-03-21T05:49:39.317880+00:00", "meta": {"OBJECT_NAME": "GSAT0204 (GALILEO 8)", "OBJECT_ID": "2015-017B", "EPOCH": "2026-03-19T17:18:27.141408", "MEAN_MOTION": 1.70475274, "ECCENTRICITY": 0.0004268, "INCLINATION": 56.8218, "RA_OF_ASC_NODE": 344.0553, "ARG_OF_PERICENTER": 291.3833, "MEAN_ANOMALY": 68.6144, "EPHEMERIS_TYPE": 0, "CLASSIFICATION_TYPE": "U", "NORAD_CAT_ID": 40545, "ELEMENT_SET_NO": 999, "REV_AT_EPOCH": 3072, "BSTAR": 0, "MEAN_MOTION_DOT": -7.3e-07, "MEAN_MOTION_DDOT": 0}, "tle": {"line1": "1 40545U 15017B   26078.72114747 -.00000073  00000+0  00000+0 0  9997", "line2": "2 40545  56.8218 344.0553 0004268 291.3833  68.6144  1.70475274 30721"}}, "geometry": {"type": "Point", "coordinates": [-175.838886116621, -27.777974082515353]}}, {"type": "Feature", "properties": {"norad_id": 40890, "name": "GSAT0206 (GALILEO 10)", "group": "galileo", "lat": -32.405258695365475, "lon": 70.42020307885284, "alt_km": 23235.778821609703, "timestamp": "2026-03-21T05:49:39.317891+00:00", "meta": {"OBJECT_NAME": "GSAT0206 (GALILEO 10)", "OBJECT_ID": "2015-045B", "EPOCH": "2026-03-20T07:06:54.496512", "MEAN_MOTION": 1.70473674, "ECCENTRICITY": 0.00032588, "INCLINATION": 54.9748, "RA_OF_ASC_NODE": 224.0564, "ARG_OF_PERICENTER": 50.2455, "MEAN_ANOMALY": 309.724, "EPHEMERIS_TYPE": 0, "CLASSIFICATION_TYPE": "U", "NORAD_CAT_ID": 40890, "ELEMENT_SET_NO": 999, "REV_AT_EPOCH": 6552, "BSTAR": 0, "MEAN_MOTION_DOT": 2.2e-07, "MEAN_MOTION_DDOT": 0}, "tle": {"line1": "1 40890U 15045B   26079.29646408  .00000022  00000+0  00000+0 0  9991", "line2": "2 40890  54.9748 224.0564 0003258  50.2455 309.7240  1.70473674 65524"}}, "geometry": {"type": "Point", "coordinates": [70.42020307885284, -32.405258695365475]}}, {"type": "Feature", "properties": {"norad_id": 41174, "name": "GSAT0209 (GALILEO 12)", "group": "galileo", "lat": 47.07185020529807, "lon": -123.39269839816157, "alt_km": 23230.189335830742, "timestamp": "2026-03-21T05:49:39.317902+00:00", "meta": {"OBJECT_NAME": "GSAT0209 (GALILEO 12)", "OBJECT_ID": "2015-079A", "EPOCH": "2026-03-18T02:50:19.987296", "MEAN_MOTION": 1.7047441, "ECCENTRICITY": 0.0005129, "INCLINATION": 55.7685, "RA_OF_ASC_NODE": 103.7584, "ARG_OF_PERICENTER": 323.5033, "MEAN_ANOMALY": 36.545, "EPHEMERIS_TYPE": 0, "CLASSIFICATION_TYPE": "U", "NORAD_CAT_ID": 41174, "ELEMENT_SET_NO": 999, "REV_AT_EPOCH": 6322, "BSTAR": 0, "MEAN_MOTION_DOT": 6e-07, "MEAN_MOTION_DDOT": 0}, "tle": {"line1": "1 41174U 15079A   26077.11828689  .00000060  00000+0  00000+0 0  9998", "line2": "2 41174  55.7685 103.7584 0005129 323.5033  36.5450  1.70474410 63223"}}, "geometry": {"type": "Point", "coordinates": [-123.39269839816157, 47.07185020529807]}}, {"type": "Feature", "properties": {"norad_id": 41175, "name": "GSAT0208 (GALILEO 11)", "group": "galileo", "lat": -14.440870554912221, "lon": 93.568918019526, "alt_km": 23211.331588109064, "timestamp": "2026-03-21T05:49:39.317913+00:00", "meta": {"OBJECT_NAME": "GSAT0208 (GALILEO 11)", "OBJECT_ID": "2015-079B", "EPOCH": "2026-03-19T12:16:48.884160", "MEAN_MOTION": 1.7047426, "ECCENTRICITY": 0.00045971, "INCLINATION": 55.7675, "RA_OF_ASC_NODE": 103.7171, "ARG_OF_PERICENTER": 324.3681, "MEAN_ANOMALY": 35.6784, "EPHEMERIS_TYPE": 0, "CLASSIFICATION_TYPE": "U", "NORAD_CAT_ID": 41175, "ELEMENT_SET_NO": 999, "REV_AT_EPOCH": 6366, "BSTAR": 0, "MEAN_MOTION_DOT": 5.9e-07, "MEAN_MOTION_DDOT": 0}, "tle": {"line1": "1 41175U 15079B   26078.51167690  .00000059  00000+0  00000+0 0  9990", "line2": "2 41175  55.7675 103.7171 0004597 324.3681  35.6784  1.70474260 63662"}}, "geometry": {"type": "Point", "coordinates": [93.568918019526, -14.440870554912221]}}, {"type": "Feature", "properties": {"norad_id": 41549, "name": "GSAT0211 (GALILEO 14)", "group": "galileo", "lat": -54.968162868376766, "lon": 127.75036327552947, "alt_km": 23232.164205695102, "timestamp": "2026-03-21T05:49:39.317924+00:00", "meta": {"OBJECT_NAME": "GSAT0211 (GALILEO 14)", "OBJECT_ID": "2016-030A", "EPOCH": "2026-03-19T01:10:38.035776", "MEAN_MOTION": 1.70473834, "ECCENTRICITY": 0.00032504, "INCLINATION": 55.1257, "RA_OF_ASC_NODE": 224.1714, "ARG_OF_PERICENTER": 21.49, "MEAN_ANOMALY": 338.462, "EPHEMERIS_TYPE": 0, "CLASSIFICATION_TYPE": "U", "NORAD_CAT_ID": 41549, "ELEMENT_SET_NO": 999, "REV_AT_EPOCH": 6113, "BSTAR": 0, "MEAN_MOTION_DOT": 2.1e-07, "MEAN_MOTION_DDOT": 0}, "tle": {"line1": "1 41549U 16030A   26078.04905134  .00000021  00000+0  00000+0 0  9993", "line2": "2 41549  55.1257 224.1714 0003250  21.4900 338.4620  1.70473834 61131"}}, "geometry": {"type": "Point", "coordinates": [127.75036327552947, -54.968162868376766]}}, {"type": "Feature", "properties": {"norad_id": 41550, "name": "GSAT0210 (GALILEO 13)", "group": "galileo", "lat": 51.09613614152266, "lon": -15.611281398090375, "alt_km": 23216.779216592437, "timestamp": "2026-03-21T05:49:39.317935+00:00", "meta": {"OBJECT_NAME": "GSAT0210 (GALILEO 13)", "OBJECT_ID": "2016-030B", "EPOCH": "2026-03-19T21:25:47.200224", "MEAN_MOTION": 1.70473886, "ECCENTRICITY": 0.00016156, "INCLINATION": 55.1233, "RA_OF_ASC_NODE": 224.1462, "ARG_OF_PERICENTER": 205.5824, "MEAN_ANOMALY": 154.3493, "EPHEMERIS_TYPE": 0, "CLASSIFICATION_TYPE": "U", "NORAD_CAT_ID": 41550, "ELEMENT_SET_NO": 999, "REV_AT_EPOCH": 6114, "BSTAR": 0, "MEAN_MOTION_DOT": 2.1e-07, "MEAN_MOTION_DDOT": 0}, "tle": {"line1": "1 41550U 16030B   26078.89290741  .00000021  00000+0  00000+0 0  9999", "line2": "2 41550  55.1233 224.1462 0001615 205.5824 154.3493  1.70473886 61141"}}, "geometry": {"type": "Point", "coordinates": [-15.611281398090375, 51.09613614152266]}}, {"type": "Feature", "properties": {"norad_id": 41859, "name": "GSAT0207 (GALILEO 15)", "group": "galileo", "lat": -46.86286512956487, "lon": 56.14438098496104, "alt_km": 23211.582453829567, "timestamp": "2026-03-21T05:49:39.317946+00:00", "meta": {"OBJECT_NAME": "GSAT0207 (GALILEO 15)", "OBJECT_ID": "2016-069A", "EPOCH": "2026-03-20T04:06:38.877984", "MEAN_MOTION": 1.70474281, "ECCENTRICITY": 0.0005517, "INCLINATION": 55.4413, "RA_OF_ASC_NODE": 103.5478, "ARG_OF_PERICENTER": 310.8202, "MEAN_ANOMALY": 49.2045, "EPHEMERIS_TYPE": 0, "CLASSIFICATION_TYPE": "U", "NORAD_CAT_ID": 41859, "ELEMENT_SET_NO": 999, "REV_AT_EPOCH": 5788, "BSTAR": 0, "MEAN_MOTION_DOT": 5.6e-07, "MEAN_MOTION_DDOT": 0}, "tle": {"line1": "1 41859U 16069A   26079.17128331  .00000056  00000+0  00000+0 0  9998", "line2": "2 41859  55.4413 103.5478 0005517 310.8202  49.2045  1.70474281 57889"}}, "geometry": {"type": "Point", "coordinates": [56.14438098496104, -46.86286512956487]}}, {"type": "Feature", "properties": {"norad_id": 41860, "name": "GSAT0212 (GALILEO 16)", "group": "galileo", "lat": 22.377576584985903, "lon": 120.00585730680194, "alt_km": 23212.1220618653, "timestamp": "2026-03-21T05:49:39.317957+00:00", "meta": {"OBJECT_NAME": "GSAT0212 (GALILEO 16)", "OBJECT_ID": "2016-069B", "EPOCH": "2026-03-19T10:31:04.057824", "MEAN_MOTION": 1.70474522, "ECCENTRICITY": 0.00040488, "INCLINATION": 55.4377, "RA_OF_ASC_NODE": 103.5632, "ARG_OF_PERICENTER": 335.2679, "MEAN_ANOMALY": 24.79, "EPHEMERIS_TYPE": 0, "CLASSIFICATION_TYPE": "U", "NORAD_CAT_ID": 41860, "ELEMENT_SET_NO": 999, "REV_AT_EPOCH": 5812, "BSTAR": 0, "MEAN_MOTION_DOT": 5.9e-07, "MEAN_MOTION_DDOT": 0}, "tle": {"line1": "1 41860U 16069B   26078.43824141  .00000059  00000+0  00000+0 0  9993", "line2": "2 41860  55.4377 103.5632 0004048 335.2679  24.7900  1.70474522 58123"}}, "geometry": {"type": "Point", "coordinates": [120.00585730680194, 22.377576584985903]}}, {"type": "Feature", "properties": {"norad_id": 41861, "name": "GSAT0213 (GALILEO 17)", "group": "galileo", "lat": 14.757311952392314, "lon": -86.9425250660286, "alt_km": 23231.5014144257, "timestamp": "2026-03-21T05:49:39.317968+00:00", "meta": {"OBJECT_NAME": "GSAT0213 (GALILEO 17)", "OBJECT_ID": "2016-069C", "EPOCH": "2026-03-18T01:06:07.601184", "MEAN_MOTION": 1.70474868, "ECCENTRICITY": 0.00055384, "INCLINATION": 55.4384, "RA_OF_ASC_NODE": 103.6095, "ARG_OF_PERICENTER": 294.5801, "MEAN_ANOMALY": 65.4453, "EPHEMERIS_TYPE": 0, "CLASSIFICATION_TYPE": "U", "NORAD_CAT_ID": 41861, "ELEMENT_SET_NO": 999, "REV_AT_EPOCH": 5796, "BSTAR": 0, "MEAN_MOTION_DOT": 5.9e-07, "MEAN_MOTION_DDOT": 0}, "tle": {"line1": "1 41861U 16069C   26077.04592131  .00000059  00000+0  00000+0 0  9991", "line2": "2 41861  55.4384 103.6095 0005538 294.5801  65.4453  1.70474868 57964"}}, "geometry": {"type": "Point", "coordinates": [-86.9425250660286, 14.757311952392314]}}, {"type": "Feature", "properties": {"norad_id": 41862, "name": "GSAT0214 (GALILEO 18)", "group": "galileo", "lat": 51.693682507066974, "lon": 164.30760164878185, "alt_km": 23225.386981167012, "timestamp": "2026-03-21T05:49:39.317979+00:00", "meta": {"OBJECT_NAME": "GSAT0214 (GALILEO 18)", "OBJECT_ID": "2016-069D", "EPOCH": "2026-03-19T22:50:28.955328", "MEAN_MOTION": 1.70474551, "ECCENTRICITY": 0.0004629, "INCLINATION": 55.4386, "RA_OF_ASC_NODE": 103.5495, "ARG_OF_PERICENTER": 299.6017, "MEAN_ANOMALY": 60.4262, "EPHEMERIS_TYPE": 0, "CLASSIFICATION_TYPE": "U", "NORAD_CAT_ID": 41862, "ELEMENT_SET_NO": 999, "REV_AT_EPOCH": 5812, "BSTAR": 0, "MEAN_MOTION_DOT": 5.7e-07, "MEAN_MOTION_DDOT": 0}, "tle": {"line1": "1 41862U 16069D   26078.95172402  .00000057  00000+0  00000+0 0  9996", "line2": "2 41862  55.4386 103.5495 0004629 299.6017  60.4262  1.70474551 58126"}}, "geometry": {"type": "Point", "coordinates": [164.30760164878185, 51.693682507066974]}}, {"type": "Feature", "properties": {"norad_id": 43055, "name": "GSAT0215 (GALILEO 19)", "group": "galileo", "lat": 37.77317862518158, "lon": 11.19859896274732, "alt_km": 23218.707141317966, "timestamp": "2026-03-21T05:49:39.317991+00:00", "meta": {"OBJECT_NAME": "GSAT0215 (GALILEO 19)", "OBJECT_ID": "2017-079A", "EPOCH": "2026-03-19T06:26:42.634464", "MEAN_MOTION": 1.70474495, "ECCENTRICITY": 4.103e-05, "INCLINATION": 55.1033, "RA_OF_ASC_NODE": 223.9782, "ARG_OF_PERICENTER": 326.3438, "MEAN_ANOMALY": 33.5922, "EPHEMERIS_TYPE": 0, "CLASSIFICATION_TYPE": "U", "NORAD_CAT_ID": 43055, "ELEMENT_SET_NO": 999, "REV_AT_EPOCH": 5145, "BSTAR": 0, "MEAN_MOTION_DOT": 2.1e-07, "MEAN_MOTION_DDOT": 0}, "tle": {"line1": "1 43055U 17079A   26078.26854901  .00000021  00000+0  00000+0 0  9990", "line2": "2 43055  55.1033 223.9782 0000410 326.3438  33.5922  1.70474495 51453"}}, "geometry": {"type": "Point", "coordinates": [11.19859896274732, 37.77317862518158]}}, {"type": "Feature", "properties": {"norad_id": 43056, "name": "GSAT0216 (GALILEO 20)", "group": "galileo", "lat": -36.91704546600847, "lon": -167.68497581896682, "alt_km": 23221.30135937675, "timestamp": "2026-03-21T05:49:39.318002+00:00", "meta": {"OBJECT_NAME": "GSAT0216 (GALILEO 20)", "OBJECT_ID": "2017-079B", "EPOCH": "2026-03-20T03:30:44.028288", "MEAN_MOTION": 1.70474606, "ECCENTRICITY": 0.00018027, "INCLINATION": 55.1033, "RA_OF_ASC_NODE": 223.9543, "ARG_OF_PERICENTER": 305.8588, "MEAN_ANOMALY": 54.0649, "EPHEMERIS_TYPE": 0, "CLASSIFICATION_TYPE": "U", "NORAD_CAT_ID": 43056, "ELEMENT_SET_NO": 999, "REV_AT_EPOCH": 5148, "BSTAR": 0, "MEAN_MOTION_DOT": 2.2e-07, "MEAN_MOTION_DDOT": 0}, "tle": {"line1": "1 43056U 17079B   26079.14634292  .00000022  00000+0  00000+0 0  9999", "line2": "2 43056  55.1033 223.9543 0001802 305.8588  54.0649  1.70474606 51484"}}, "geometry": {"type": "Point", "coordinates": [-167.68497581896682, -36.91704546600847]}}, {"type": "Feature", "properties": {"norad_id": 43057, "name": "GSAT0217 (GALILEO 21)", "group": "galileo", "lat": 2.0676423376276682, "lon": 42.46283596824637, "alt_km": 23227.613748945907, "timestamp": "2026-03-21T05:49:39.318013+00:00", "meta": {"OBJECT_NAME": "GSAT0217 (GALILEO 21)", "OBJECT_ID": "2017-079C", "EPOCH": "2026-03-19T04:39:16.418592", "MEAN_MOTION": 1.70474513, "ECCENTRICITY": 0.00018985, "INCLINATION": 55.1026, "RA_OF_ASC_NODE": 223.9782, "ARG_OF_PERICENTER": 345.508, "MEAN_ANOMALY": 14.4251, "EPHEMERIS_TYPE": 0, "CLASSIFICATION_TYPE": "U", "NORAD_CAT_ID": 43057, "ELEMENT_SET_NO": 999, "REV_AT_EPOCH": 5145, "BSTAR": 0, "MEAN_MOTION_DOT": 2.1e-07, "MEAN_MOTION_DDOT": 0}, "tle": {"line1": "1 43057U 17079C   26078.19394003  .00000021  00000+0  00000+0 0  9996", "line2": "2 43057  55.1026 223.9782 0001898 345.5080  14.4251  1.70474513 51458"}}, "geometry": {"type": "Point", "coordinates": [42.46283596824637, 2.0676423376276682]}}, {"type": "Feature", "properties": {"norad_id": 43058, "name": "GSAT0218 (GALILEO 22)", "group": "galileo", "lat": 33.57977246954592, "lon": -108.5179732274494, "alt_km": 23220.089460292565, "timestamp": "2026-03-21T05:49:39.318024+00:00", "meta": {"OBJECT_NAME": "GSAT0218 (GALILEO 22)", "OBJECT_ID": "2017-079D", "EPOCH": "2026-03-20T00:00:49.299840", "MEAN_MOTION": 1.70474498, "ECCENTRICITY": 0.00021364, "INCLINATION": 55.1015, "RA_OF_ASC_NODE": 223.9538, "ARG_OF_PERICENTER": 293.3882, "MEAN_ANOMALY": 66.5292, "EPHEMERIS_TYPE": 0, "CLASSIFICATION_TYPE": "U", "NORAD_CAT_ID": 43058, "ELEMENT_SET_NO": 999, "REV_AT_EPOCH": 5149, "BSTAR": 0, "MEAN_MOTION_DOT": 2.1e-07, "MEAN_MOTION_DDOT": 0}, "tle": {"line1": "1 43058U 17079D   26079.00057060  .00000021  00000+0  00000+0 0  9997", "line2": "2 43058  55.1015 223.9538 0002136 293.3882  66.5292  1.70474498 51491"}}, "geometry": {"type": "Point", "coordinates": [-108.5179732274494, 33.57977246954592]}}, {"type": "Feature", "properties": {"norad_id": 43564, "name": "GSAT0221 (GALILEO 25)", "group": "galileo", "lat": 55.4366879835713, "lon": 94.93538652021813, "alt_km": 23228.403564613673, "timestamp": "2026-03-21T05:49:39.318035+00:00", "meta": {"OBJECT_NAME": "GSAT0221 (GALILEO 25)", "OBJECT_ID": "2018-060A", "EPOCH": "2026-03-20T11:46:36.877440", "MEAN_MOTION": 1.70475353, "ECCENTRICITY": 0.00050427, "INCLINATION": 57.1972, "RA_OF_ASC_NODE": 344.1785, "ARG_OF_PERICENTER": 312.8048, "MEAN_ANOMALY": 47.1969, "EPHEMERIS_TYPE": 0, "CLASSIFICATION_TYPE": "U", "NORAD_CAT_ID": 43564, "ELEMENT_SET_NO": 999, "REV_AT_EPOCH": 4765, "BSTAR": 0, "MEAN_MOTION_DOT": -7.3e-07, "MEAN_MOTION_DDOT": 0}, "tle": {"line1": "1 43564U 18060A   26079.49070460 -.00000073  00000+0  00000+0 0  9990", "line2": "2 43564  57.1972 344.1785 0005042 312.8048  47.1969  1.70475353 47657"}}, "geometry": {"type": "Point", "coordinates": [94.93538652021813, 55.4366879835713]}}, {"type": "Feature", "properties": {"norad_id": 43565, "name": "GSAT0222 (GALILEO 26)", "group": "galileo", "lat": -27.36313514226596, "lon": -35.29658567248281, "alt_km": 23217.113391056017, "timestamp": "2026-03-21T05:49:39.318046+00:00", "meta": {"OBJECT_NAME": "GSAT0222 (GALILEO 26)", "OBJECT_ID": "2018-060B", "EPOCH": "2026-03-18T08:43:57.327744", "MEAN_MOTION": 1.70475125, "ECCENTRICITY": 0.00036007, "INCLINATION": 57.2015, "RA_OF_ASC_NODE": 344.2393, "ARG_OF_PERICENTER": 290.2442, "MEAN_ANOMALY": 69.7573, "EPHEMERIS_TYPE": 0, "CLASSIFICATION_TYPE": "U", "NORAD_CAT_ID": 43565, "ELEMENT_SET_NO": 999, "REV_AT_EPOCH": 4766, "BSTAR": 0, "MEAN_MOTION_DOT": -7.2e-07, "MEAN_MOTION_DDOT": 0}, "tle": {"line1": "1 43565U 18060B   26077.36385796 -.00000072  00000+0  00000+0 0  9995", "line2": "2 43565  57.2015 344.2393 0003600 290.2442  69.7573  1.70475125 47667"}}, "geometry": {"type": "Point", "coordinates": [-35.29658567248281, -27.36313514226596]}}, {"type": "Feature", "properties": {"norad_id": 43566, "name": "GSAT0219 (GALILEO 23)", "group": "galileo", "lat": -9.401496404673576, "lon": 170.2977134741216, "alt_km": 23232.47719137845, "timestamp": "2026-03-21T05:49:39.318057+00:00", "meta": {"OBJECT_NAME": "GSAT0219 (GALILEO 23)", "OBJECT_ID": "2018-060C", "EPOCH": "2026-03-20T08:16:14.424960", "MEAN_MOTION": 1.70475412, "ECCENTRICITY": 0.0005258, "INCLINATION": 57.2008, "RA_OF_ASC_NODE": 344.1873, "ARG_OF_PERICENTER": 316.1614, "MEAN_ANOMALY": 43.8408, "EPHEMERIS_TYPE": 0, "CLASSIFICATION_TYPE": "U", "NORAD_CAT_ID": 43566, "ELEMENT_SET_NO": 999, "REV_AT_EPOCH": 4767, "BSTAR": 0, "MEAN_MOTION_DOT": -7.3e-07, "MEAN_MOTION_DDOT": 0}, "tle": {"line1": "1 43566U 18060C   26079.34461140 -.00000073  00000+0  00000+0 0  9995", "line2": "2 43566  57.2008 344.1873 0005258 316.1614  43.8408  1.70475412 47672"}}, "geometry": {"type": "Point", "coordinates": [170.2977134741216, -9.401496404673576]}}, {"type": "Feature", "properties": {"norad_id": 43567, "name": "GSAT0220 (GALILEO 24)", "group": "galileo", "lat": 43.96129709969538, "lon": 22.57688745745976, "alt_km": 23219.18296021782, "timestamp": "2026-03-21T05:49:39.318072+00:00", "meta": {"OBJECT_NAME": "GSAT0220 (GALILEO 24)", "OBJECT_ID": "2018-060D", "EPOCH": "2026-03-19T09:25:03.699552", "MEAN_MOTION": 1.70475188, "ECCENTRICITY": 0.00047753, "INCLINATION": 57.2004, "RA_OF_ASC_NODE": 344.2138, "ARG_OF_PERICENTER": 315.8088, "MEAN_ANOMALY": 44.1958, "EPHEMERIS_TYPE": 0, "CLASSIFICATION_TYPE": "U", "NORAD_CAT_ID": 43567, "ELEMENT_SET_NO": 999, "REV_AT_EPOCH": 4764, "BSTAR": 0, "MEAN_MOTION_DOT": -7.2e-07, "MEAN_MOTION_DDOT": 0}, "tle": {"line1": "1 43567U 18060D   26078.39240393 -.00000072  00000+0  00000+0 0  9994", "line2": "2 43567  57.2004 344.2138 0004775 315.8088  44.1958  1.70475188 47649"}}, "geometry": {"type": "Point", "coordinates": [22.57688745745976, 43.96129709969538]}}, {"type": "Feature", "properties": {"norad_id": 49809, "name": "GSAT0223 (GALILEO 27)", "group": "galileo", "lat": 27.70744946836044, "lon": 144.28649710099427, "alt_km": 23222.266811798996, "timestamp": "2026-03-21T05:49:39.318084+00:00", "meta": {"OBJECT_NAME": "GSAT0223 (GALILEO 27)", "OBJECT_ID": "2021-116A", "EPOCH": "2026-03-20T02:52:33.617856", "MEAN_MOTION": 1.70475335, "ECCENTRICITY": 0.00016015, "INCLINATION": 57.1888, "RA_OF_ASC_NODE": 344.084, "ARG_OF_PERICENTER": 285.2733, "MEAN_ANOMALY": 251.9596, "EPHEMERIS_TYPE": 0, "CLASSIFICATION_TYPE": "U", "NORAD_CAT_ID": 49809, "ELEMENT_SET_NO": 999, "REV_AT_EPOCH": 2666, "BSTAR": 0, "MEAN_MOTION_DOT": -7.3e-07, "MEAN_MOTION_DDOT": 0}, "tle": {"line1": "1 49809U 21116A   26079.11983354 -.00000073  00000+0  00000+0 0  9998", "line2": "2 49809  57.1888 344.0840 0001601 285.2733 251.9596  1.70475335 26662"}}, "geometry": {"type": "Point", "coordinates": [144.28649710099427, 27.70744946836044]}}, {"type": "Feature", "properties": {"norad_id": 49810, "name": "GSAT0224 (GALILEO 28)", "group": "galileo", "lat": -55.60459693766847, "lon": -125.67644305586764, "alt_km": 23229.387463510517, "timestamp": "2026-03-21T05:49:39.318095+00:00", "meta": {"OBJECT_NAME": "GSAT0224 (GALILEO 28)", "OBJECT_ID": "2021-116B", "EPOCH": "2026-03-19T08:53:47.787936", "MEAN_MOTION": 1.70475259, "ECCENTRICITY": 9.569e-05, "INCLINATION": 57.1896, "RA_OF_ASC_NODE": 344.1029, "ARG_OF_PERICENTER": 17.8219, "MEAN_ANOMALY": 172.2427, "EPHEMERIS_TYPE": 0, "CLASSIFICATION_TYPE": "U", "NORAD_CAT_ID": 49810, "ELEMENT_SET_NO": 999, "REV_AT_EPOCH": 2667, "BSTAR": 0, "MEAN_MOTION_DOT": -7.2e-07, "MEAN_MOTION_DDOT": 0}, "tle": {"line1": "1 49810U 21116B   26078.37069199 -.00000072  00000+0  00000+0 0  9998", "line2": "2 49810  57.1896 344.1029 0000956  17.8219 172.2427  1.70475259 26677"}}, "geometry": {"type": "Point", "coordinates": [-125.67644305586764, -55.60459693766847]}}, {"type": "Feature", "properties": {"norad_id": 59598, "name": "GSAT0225 (GALILEO 29)", "group": "galileo", "lat": -51.217781959845425, "lon": -15.968951734945785, "alt_km": 23219.709565064502, "timestamp": "2026-03-21T05:49:39.318106+00:00", "meta": {"OBJECT_NAME": "GSAT0225 (GALILEO 29)", "OBJECT_ID": "2024-079A", "EPOCH": "2026-03-20T05:48:08.083872", "MEAN_MOTION": 1.70474699, "ECCENTRICITY": 0.0002781, "INCLINATION": 55.06, "RA_OF_ASC_NODE": 103.5641, "ARG_OF_PERICENTER": 265.0538, "MEAN_ANOMALY": 92.6447, "EPHEMERIS_TYPE": 0, "CLASSIFICATION_TYPE": "U", "NORAD_CAT_ID": 59598, "ELEMENT_SET_NO": 999, "REV_AT_EPOCH": 1179, "BSTAR": 0, "MEAN_MOTION_DOT": 5.5e-07, "MEAN_MOTION_DDOT": 0}, "tle": {"line1": "1 59598U 24079A   26079.24176023  .00000055  00000+0  00000+0 0  9995", "line2": "2 59598  55.0600 103.5641 0002781 265.0538  92.6447  1.70474699 11798"}}, "geometry": {"type": "Point", "coordinates": [-15.968951734945785, -51.217781959845425]}}, {"type": "Feature", "properties": {"norad_id": 59600, "name": "GSAT0227 (GALILEO 30)", "group": "galileo", "lat": 32.156379345920186, "lon": -102.54939601831344, "alt_km": 23219.002027696693, "timestamp": "2026-03-21T05:49:39.318117+00:00", "meta": {"OBJECT_NAME": "GSAT0227 (GALILEO 30)", "OBJECT_ID": "2024-079C", "EPOCH": "2026-03-19T20:13:08.025600", "MEAN_MOTION": 1.70474693, "ECCENTRICITY": 5.105e-05, "INCLINATION": 55.0553, "RA_OF_ASC_NODE": 103.5738, "ARG_OF_PERICENTER": 16.0429, "MEAN_ANOMALY": 344.0336, "EPHEMERIS_TYPE": 0, "CLASSIFICATION_TYPE": "U", "NORAD_CAT_ID": 59600, "ELEMENT_SET_NO": 999, "REV_AT_EPOCH": 1184, "BSTAR": 0, "MEAN_MOTION_DOT": 5.6e-07, "MEAN_MOTION_DDOT": 0}, "tle": {"line1": "1 59600U 24079C   26078.84245400  .00000056  00000+0  00000+0 0  9991", "line2": "2 59600  55.0553 103.5738 0000510  16.0429 344.0336  1.70474693 11848"}}, "geometry": {"type": "Point", "coordinates": [-102.54939601831344, 32.156379345920186]}}, {"type": "Feature", "properties": {"norad_id": 61183, "name": "GSAT0226 (GALILEO 31)", "group": "galileo", "lat": 55.06319675924706, "lon": -52.507126113835874, "alt_km": 23213.331264391596, "timestamp": "2026-03-21T05:49:39.318129+00:00", "meta": {"OBJECT_NAME": "GSAT0226 (GALILEO 31)", "OBJECT_ID": "2024-167B", "EPOCH": "2026-03-19T22:21:31.712256", "MEAN_MOTION": 1.70474039, "ECCENTRICITY": 0.0001645, "INCLINATION": 55.2135, "RA_OF_ASC_NODE": 223.767, "ARG_OF_PERICENTER": 145.8785, "MEAN_ANOMALY": 215.7879, "EPHEMERIS_TYPE": 0, "CLASSIFICATION_TYPE": "U", "NORAD_CAT_ID": 61183, "ELEMENT_SET_NO": 999, "REV_AT_EPOCH": 933, "BSTAR": 0, "MEAN_MOTION_DOT": 2.1e-07, "MEAN_MOTION_DDOT": 0}, "tle": {"line1": "1 61183U 24167B   26078.93161704  .00000021  00000+0  00000+0 0  9994", "line2": "2 61183  55.2135 223.7670 0001645 145.8785 215.7879  1.70474039  9332"}}, "geometry": {"type": "Point", "coordinates": [-52.507126113835874, 55.06319675924706]}}, {"type": "Feature", "properties": {"norad_id": 67162, "name": "GSAT0234 (GALILEO 34)", "group": "galileo", "lat": -2.2294792549787386, "lon": -73.75685842534291, "alt_km": 23217.30293305497, "timestamp": "2026-03-21T05:49:39.318140+00:00", "meta": {"OBJECT_NAME": "GSAT0234 (GALILEO 34)", "OBJECT_ID": "2025-302C", "EPOCH": "2026-03-19T18:38:23.380800", "MEAN_MOTION": 1.70474738, "ECCENTRICITY": 0.00026542, "INCLINATION": 54.2746, "RA_OF_ASC_NODE": 104.6769, "ARG_OF_PERICENTER": 229.9157, "MEAN_ANOMALY": 133.0532, "EPHEMERIS_TYPE": 0, "CLASSIFICATION_TYPE": "U", "NORAD_CAT_ID": 67162, "ELEMENT_SET_NO": 999, "REV_AT_EPOCH": 165, "BSTAR": 0, "MEAN_MOTION_DOT": 5.5e-07, "MEAN_MOTION_DDOT": 0}, "tle": {"line1": "1 67162U 25302C   26078.77665950  .00000055  00000+0  00000+0 0  9990", "line2": "2 67162  54.2746 104.6769 0002654 229.9157 133.0532  1.70474738  1657"}}, "geometry": {"type": "Point", "coordinates": [-73.75685842534291, -2.2294792549787386]}}]}