{"type": "FeatureCollection", "features": [{"type": "Feature", "properties": {"norad_id": 32275, "name": "COSMOS 2433 (720)", "group": "glo-ops", "lat": 64.256982780157, "lon": 70.91977142220482, "alt_km": 19132.121468103804, "timestamp": "2026-01-30T13:14:27.093240+00:00", "meta": {"OBJECT_NAME": "COSMOS 2433 (720)", "OBJECT_ID": "2007-052A", "EPOCH": "2026-01-28T13:06:14.463936", "MEAN_MOTION": 2.13103862, "ECCENTRICITY": 0.00037097, "INCLINATION": 65.6562, "RA_OF_ASC_NODE": 320.6345, "ARG_OF_PERICENTER": 266.6227, "MEAN_ANOMALY": 93.3497, "EPHEMERIS_TYPE": 0, "CLASSIFICATION_TYPE": "U", "NORAD_CAT_ID": 32275, "ELEMENT_SET_NO": 999, "REV_AT_EPOCH": 14208, "BSTAR": 0, "MEAN_MOTION_DOT": -6.7e-07, "MEAN_MOTION_DDOT": 0}, "tle": {"line1": "1 32275U 07052A   26028.54600074 -.00000067  00000+0  00000+0 0  9999", "line2": "2 32275  65.6562 320.6345 0003709 266.6227  93.3497  2.13103862142080"}}, "geometry": {"type": "Point", "coordinates": [70.91977142220482, 64.256982780157]}}, {"type": "Feature", "properties": {"norad_id": 32276, "name": "COSMOS 2432 (719)", "group": "glo-ops", "lat": 38.53771272601859, "lon": -18.230622495760173, "alt_km": 19120.768216098553, "timestamp": "2026-01-30T13:14:27.093264+00:00", "meta": {"OBJECT_NAME": "COSMOS 2432 (719)", "OBJECT_ID": "2007-052B", "EPOCH": "2026-01-29T08:21:39.841920", "MEAN_MOTION": 2.13103141, "ECCENTRICITY": 0.00112528, "INCLINATION": 65.6715, "RA_OF_ASC_NODE": 320.7325, "ARG_OF_PERICENTER": 322.2819, "MEAN_ANOMALY": 237.5779, "EPHEMERIS_TYPE": 0, "CLASSIFICATION_TYPE": "U", "NORAD_CAT_ID": 32276, "ELEMENT_SET_NO": 999, "REV_AT_EPOCH": 14212, "BSTAR": 0, "MEAN_MOTION_DOT": -6.9e-07, "MEAN_MOTION_DDOT": 0}, "tle": {"line1": "1 32276U 07052B   26029.34837780 -.00000069  00000+0  00000+0 0  9997", "line2": "2 32276  65.6715 320.7325 0011252 322.2819 237.5779  2.13103141142128"}}, "geometry": {"type": "Point", "coordinates": [-18.230622495760173, 38.53771272601859]}}, {"type": "Feature", "properties": {"norad_id": 32393, "name": "COSMOS 2434 (721)", "group": "glo-ops", "lat": -9.828348472708267, "lon": -168.2268103954769, "alt_km": 19130.464884977213, "timestamp": "2026-01-30T13:14:27.093279+00:00", "meta": {"OBJECT_NAME": "COSMOS 2434 (721)", "OBJECT_ID": "2007-065A", "EPOCH": "2026-01-30T07:48:20.000736", "MEAN_MOTION": 2.13101008, "ECCENTRICITY": 0.0004726, "INCLINATION": 64.3184, "RA_OF_ASC_NODE": 196.5627, "ARG_OF_PERICENTER": 72.9492, "MEAN_ANOMALY": 102.4299, "EPHEMERIS_TYPE": 0, "CLASSIFICATION_TYPE": "U", "NORAD_CAT_ID": 32393, "ELEMENT_SET_NO": 999, "REV_AT_EPOCH": 14083, "BSTAR": 0, "MEAN_MOTION_DOT": 6.6e-07, "MEAN_MOTION_DDOT": 0}, "tle": {"line1": "1 32393U 07065A   26030.32523149  .00000066  00000+0  00000+0 0  9998", "line2": "2 32393  64.3184 196.5627 0004726  72.9492 102.4299  2.13101008140835"}}, "geometry": {"type": "Point", "coordinates": [-168.2268103954769, -9.828348472708267]}}, {"type": "Feature", "properties": {"norad_id": 32395, "name": "COSMOS 2436 (723)", "group": "glo-ops", "lat": 49.65472379754708, "lon": -17.880218093201336, "alt_km": 19141.440188497203, "timestamp": "2026-01-30T13:14:27.093293+00:00", "meta": {"OBJECT_NAME": "COSMOS 2436 (723)", "OBJECT_ID": "2007-065C", "EPOCH": "2026-01-30T03:47:35.615040", "MEAN_MOTION": 2.13099951, "ECCENTRICITY": 0.00177614, "INCLINATION": 64.3268, "RA_OF_ASC_NODE": 196.6389, "ARG_OF_PERICENTER": 10.0905, "MEAN_ANOMALY": 169.9092, "EPHEMERIS_TYPE": 0, "CLASSIFICATION_TYPE": "U", "NORAD_CAT_ID": 32395, "ELEMENT_SET_NO": 999, "REV_AT_EPOCH": 14078, "BSTAR": 0, "MEAN_MOTION_DOT": 6.9e-07, "MEAN_MOTION_DDOT": 0}, "tle": {"line1": "1 32395U 07065C   26030.15805110  .00000069  00000+0  00000+0 0  9995", "line2": "2 32395  64.3268 196.6389 0017761  10.0905 169.9092  2.13099951140787"}}, "geometry": {"type": "Point", "coordinates": [-17.880218093201336, 49.65472379754708]}}, {"type": "Feature", "properties": {"norad_id": 36111, "name": "COSMOS 2456 (730)", "group": "glo-ops", "lat": 30.053733063348734, "lon": -120.0213828437513, "alt_km": 19138.59160297122, "timestamp": "2026-01-30T13:14:27.093305+00:00", "meta": {"OBJECT_NAME": "COSMOS 2456 (730)", "OBJECT_ID": "2009-070A", "EPOCH": "2026-01-30T08:01:35.500224", "MEAN_MOTION": 2.13103457, "ECCENTRICITY": 0.00053532, "INCLINATION": 64.9273, "RA_OF_ASC_NODE": 75.6763, "ARG_OF_PERICENTER": 300.0757, "MEAN_ANOMALY": 39.727, "EPHEMERIS_TYPE": 0, "CLASSIFICATION_TYPE": "U", "NORAD_CAT_ID": 36111, "ELEMENT_SET_NO": 999, "REV_AT_EPOCH": 12548, "BSTAR": 0, "MEAN_MOTION_DOT": 6e-08, "MEAN_MOTION_DDOT": 0}, "tle": {"line1": "1 36111U 09070A   26030.33443866  .00000006  00000+0  00000+0 0  9990", "line2": "2 36111  64.9273  75.6763 0005353 300.0757  39.7270  2.13103457125481"}}, "geometry": {"type": "Point", "coordinates": [-120.0213828437513, 30.053733063348734]}}, {"type": "Feature", "properties": {"norad_id": 36112, "name": "COSMOS 2457 (733)", "group": "glo-ops", "lat": -64.4216418471314, "lon": -2.452483673395633, "alt_km": 19137.391451754465, "timestamp": "2026-01-30T13:14:27.093318+00:00", "meta": {"OBJECT_NAME": "COSMOS 2457 (733)", "OBJECT_ID": "2009-070B", "EPOCH": "2026-01-29T06:05:05.524224", "MEAN_MOTION": 2.13100925, "ECCENTRICITY": 0.00032527, "INCLINATION": 64.9121, "RA_OF_ASC_NODE": 75.5598, "ARG_OF_PERICENTER": 179.4129, "MEAN_ANOMALY": 179.8535, "EPHEMERIS_TYPE": 0, "CLASSIFICATION_TYPE": "U", "NORAD_CAT_ID": 36112, "ELEMENT_SET_NO": 999, "REV_AT_EPOCH": 12546, "BSTAR": 0, "MEAN_MOTION_DOT": 0, "MEAN_MOTION_DDOT": 0}, "tle": {"line1": "1 36112U 09070B   26029.25353616  .00000000  00000+0  00000+0 0  9997", "line2": "2 36112  64.9121  75.5598 0003252 179.4129 179.8535  2.13100925125461"}}, "geometry": {"type": "Point", "coordinates": [-2.452483673395633, -64.4216418471314]}}, {"type": "Feature", "properties": {"norad_id": 36402, "name": "COSMOS 2460 (732)", "group": "glo-ops", "lat": -64.96590953608735, "lon": -118.01539443268659, "alt_km": 19133.242077366605, "timestamp": "2026-01-30T13:14:27.093331+00:00", "meta": {"OBJECT_NAME": "COSMOS 2460 (732)", "OBJECT_ID": "2010-007C", "EPOCH": "2026-01-29T10:02:27.695904", "MEAN_MOTION": 2.13106056, "ECCENTRICITY": 0.00018072, "INCLINATION": 65.5011, "RA_OF_ASC_NODE": 319.1641, "ARG_OF_PERICENTER": 325.4353, "MEAN_ANOMALY": 160.5178, "EPHEMERIS_TYPE": 0, "CLASSIFICATION_TYPE": "U", "NORAD_CAT_ID": 36402, "ELEMENT_SET_NO": 999, "REV_AT_EPOCH": 12377, "BSTAR": 0, "MEAN_MOTION_DOT": -6.7e-07, "MEAN_MOTION_DDOT": 0}, "tle": {"line1": "1 36402U 10007C   26029.41837611 -.00000067  00000+0  00000+0 0  9995", "line2": "2 36402  65.5011 319.1641 0001807 325.4353 160.5178  2.13106056123773"}}, "geometry": {"type": "Point", "coordinates": [-118.01539443268659, -64.96590953608735]}}, {"type": "Feature", "properties": {"norad_id": 37867, "name": "COSMOS 2476 (744)", "group": "glo-ops", "lat": 47.86757101967406, "lon": 108.26891249749639, "alt_km": 19188.11973229638, "timestamp": "2026-01-30T13:14:27.093342+00:00", "meta": {"OBJECT_NAME": "COSMOS 2476 (744)", "OBJECT_ID": "2011-064A", "EPOCH": "2026-01-29T02:48:32.331168", "MEAN_MOTION": 2.13103741, "ECCENTRICITY": 0.00250255, "INCLINATION": 65.1874, "RA_OF_ASC_NODE": 77.5683, "ARG_OF_PERICENTER": 238.1837, "MEAN_ANOMALY": 156.0187, "EPHEMERIS_TYPE": 0, "CLASSIFICATION_TYPE": "U", "NORAD_CAT_ID": 37867, "ELEMENT_SET_NO": 999, "REV_AT_EPOCH": 11080, "BSTAR": 0, "MEAN_MOTION_DOT": 0, "MEAN_MOTION_DDOT": 0}, "tle": {"line1": "1 37867U 11064A   26029.11704087  .00000000  00000+0  00000+0 0  9998", "line2": "2 37867  65.1874  77.5683 0025025 238.1837 156.0187  2.13103741110806"}}, "geometry": {"type": "Point", "coordinates": [108.26891249749639, 47.86757101967406]}}, {"type": "Feature", "properties": {"norad_id": 37868, "name": "COSMOS 2477 (745)", "group": "glo-ops", "lat": -48.46265438063295, "lon": -70.94165126740211, "alt_km": 19079.01037066513, "timestamp": "2026-01-30T13:14:27.093354+00:00", "meta": {"OBJECT_NAME": "COSMOS 2477 (745)", "OBJECT_ID": "2011-064B", "EPOCH": "2026-01-30T06:12:29.404224", "MEAN_MOTION": 2.13102741, "ECCENTRICITY": 0.00221732, "INCLINATION": 65.1948, "RA_OF_ASC_NODE": 77.6078, "ARG_OF_PERICENTER": 239.6699, "MEAN_ANOMALY": 131.122, "EPHEMERIS_TYPE": 0, "CLASSIFICATION_TYPE": "U", "NORAD_CAT_ID": 37868, "ELEMENT_SET_NO": 999, "REV_AT_EPOCH": 11082, "BSTAR": 0, "MEAN_MOTION_DOT": 6e-08, "MEAN_MOTION_DDOT": 0}, "tle": {"line1": "1 37868U 11064B   26030.25867366  .00000006  00000+0  00000+0 0  9992", "line2": "2 37868  65.1948  77.6078 0022173 239.6699 131.1220  2.13102741110824"}}, "geometry": {"type": "Point", "coordinates": [-70.94165126740211, -48.46265438063295]}}, {"type": "Feature", "properties": {"norad_id": 37869, "name": "COSMOS 2475 (743)", "group": "glo-ops", "lat": -9.988425869570351, "lon": -97.69852543952007, "alt_km": 19097.386342143494, "timestamp": "2026-01-30T13:14:27.093372+00:00", "meta": {"OBJECT_NAME": "COSMOS 2475 (743)", "OBJECT_ID": "2011-064C", "EPOCH": "2026-01-29T08:13:07.029408", "MEAN_MOTION": 2.13101536, "ECCENTRICITY": 0.00277556, "INCLINATION": 65.201, "RA_OF_ASC_NODE": 77.6592, "ARG_OF_PERICENTER": 252.136, "MEAN_ANOMALY": 91.4749, "EPHEMERIS_TYPE": 0, "CLASSIFICATION_TYPE": "U", "NORAD_CAT_ID": 37869, "ELEMENT_SET_NO": 999, "REV_AT_EPOCH": 11080, "BSTAR": 0, "MEAN_MOTION_DOT": 1e-08, "MEAN_MOTION_DDOT": 0}, "tle": {"line1": "1 37869U 11064C   26029.34244247  .00000001  00000+0  00000+0 0  9993", "line2": "2 37869  65.2010  77.6592 0027755 252.1360  91.4749  2.13101536110806"}}, "geometry": {"type": "Point", "coordinates": [-97.69852543952007, -9.988425869570351]}}, {"type": "Feature", "properties": {"norad_id": 39155, "name": "COSMOS 2485 (747)", "group": "glo-ops", "lat": 62.42518795908181, "lon": -163.2893637003704, "alt_km": 19166.30910356805, "timestamp": "2026-01-30T13:14:27.093397+00:00", "meta": {"OBJECT_NAME": "COSMOS 2485 (747)", "OBJECT_ID": "2013-019A", "EPOCH": "2026-01-29T00:13:35.544288", "MEAN_MOTION": 2.13103003, "ECCENTRICITY": 0.00255573, "INCLINATION": 65.3384, "RA_OF_ASC_NODE": 78.2774, "ARG_OF_PERICENTER": 234.2692, "MEAN_ANOMALY": 125.5639, "EPHEMERIS_TYPE": 0, "CLASSIFICATION_TYPE": "U", "NORAD_CAT_ID": 39155, "ELEMENT_SET_NO": 999, "REV_AT_EPOCH": 9931, "BSTAR": 0, "MEAN_MOTION_DOT": -1e-08, "MEAN_MOTION_DDOT": 0}, "tle": {"line1": "1 39155U 13019A   26029.00943917 -.00000001  00000+0  00000+0 0  9999", "line2": "2 39155  65.3384  78.2774 0025557 234.2692 125.5639  2.13103003 99317"}}, "geometry": {"type": "Point", "coordinates": [-163.2893637003704, 62.42518795908181]}}, {"type": "Feature", "properties": {"norad_id": 39620, "name": "COSMOS 2492 (754)", "group": "glo-ops", "lat": 40.148916771622986, "lon": 115.8851937905057, "alt_km": 19160.950141715304, "timestamp": "2026-01-30T13:14:27.093415+00:00", "meta": {"OBJECT_NAME": "COSMOS 2492 (754)", "OBJECT_ID": "2014-012A", "EPOCH": "2026-01-28T00:42:37.160928", "MEAN_MOTION": 2.13103157, "ECCENTRICITY": 0.00140532, "INCLINATION": 65.3799, "RA_OF_ASC_NODE": 318.7012, "ARG_OF_PERICENTER": 319.6313, "MEAN_ANOMALY": 40.2822, "EPHEMERIS_TYPE": 0, "CLASSIFICATION_TYPE": "U", "NORAD_CAT_ID": 39620, "ELEMENT_SET_NO": 999, "REV_AT_EPOCH": 9225, "BSTAR": 0, "MEAN_MOTION_DOT": -6.4e-07, "MEAN_MOTION_DDOT": 0}, "tle": {"line1": "1 39620U 14012A   26028.02959677 -.00000064  00000+0  00000+0 0  9990", "line2": "2 39620  65.3799 318.7012 0014053 319.6313  40.2822  2.13103157 92251"}}, "geometry": {"type": "Point", "coordinates": [115.8851937905057, 40.148916771622986]}}, {"type": "Feature", "properties": {"norad_id": 40001, "name": "COSMOS 2500 (755)", "group": "glo-ops", "lat": 2.9641236695648345, "lon": -40.27349781562535, "alt_km": 19143.12307672367, "timestamp": "2026-01-30T13:14:27.093428+00:00", "meta": {"OBJECT_NAME": "COSMOS 2500 (755)", "OBJECT_ID": "2014-032A", "EPOCH": "2026-01-30T01:52:35.776704", "MEAN_MOTION": 2.13105964, "ECCENTRICITY": 0.00062029, "INCLINATION": 65.3142, "RA_OF_ASC_NODE": 318.39, "ARG_OF_PERICENTER": 215.598, "MEAN_ANOMALY": 144.3789, "EPHEMERIS_TYPE": 0, "CLASSIFICATION_TYPE": "U", "NORAD_CAT_ID": 40001, "ELEMENT_SET_NO": 999, "REV_AT_EPOCH": 9051, "BSTAR": 0, "MEAN_MOTION_DOT": -6.6e-07, "MEAN_MOTION_DDOT": 0}, "tle": {"line1": "1 40001U 14032A   26030.07819186 -.00000066  00000+0  00000+0 0  9997", "line2": "2 40001  65.3142 318.3900 0006202 215.5980 144.3789  2.13105964 90514"}}, "geometry": {"type": "Point", "coordinates": [-40.27349781562535, 2.9641236695648345]}}, {"type": "Feature", "properties": {"norad_id": 40315, "name": "COSMOS 2501 (702K)", "group": "glo-ops", "lat": 14.783287655019315, "lon": 7.605285338256235, "alt_km": 19089.175467264242, "timestamp": "2026-01-30T13:14:27.093439+00:00", "meta": {"OBJECT_NAME": "COSMOS 2501 (702K)", "OBJECT_ID": "2014-075A", "EPOCH": "2026-01-29T09:35:51.023904", "MEAN_MOTION": 2.13101222, "ECCENTRICITY": 0.00202716, "INCLINATION": 63.617, "RA_OF_ASC_NODE": 195.1734, "ARG_OF_PERICENTER": 203.9731, "MEAN_ANOMALY": 155.9239, "EPHEMERIS_TYPE": 0, "CLASSIFICATION_TYPE": "U", "NORAD_CAT_ID": 40315, "ELEMENT_SET_NO": 999, "REV_AT_EPOCH": 8689, "BSTAR": 0, "MEAN_MOTION_DOT": 7.9e-07, "MEAN_MOTION_DDOT": 0}, "tle": {"line1": "1 40315U 14075A   26029.39989611  .00000079  00000+0  00000+0 0  9999", "line2": "2 40315  63.6170 195.1734 0020271 203.9731 155.9239  2.13101222 86894"}}, "geometry": {"type": "Point", "coordinates": [7.605285338256235, 14.783287655019315]}}, {"type": "Feature", "properties": {"norad_id": 41330, "name": "COSMOS 2514 (751)", "group": "glo-ops", "lat": 3.9753845176597205, "lon": 135.87590635305742, "alt_km": 19110.429476897585, "timestamp": "2026-01-30T13:14:27.093451+00:00", "meta": {"OBJECT_NAME": "COSMOS 2514 (751)", "OBJECT_ID": "2016-008A", "EPOCH": "2026-01-28T21:57:26.606592", "MEAN_MOTION": 2.13102498, "ECCENTRICITY": 0.00101166, "INCLINATION": 65.1045, "RA_OF_ASC_NODE": 317.7883, "ARG_OF_PERICENTER": 216.7233, "MEAN_ANOMALY": 143.2259, "EPHEMERIS_TYPE": 0, "CLASSIFICATION_TYPE": "U", "NORAD_CAT_ID": 41330, "ELEMENT_SET_NO": 999, "REV_AT_EPOCH": 7765, "BSTAR": 0, "MEAN_MOTION_DOT": -6.5e-07, "MEAN_MOTION_DDOT": 0}, "tle": {"line1": "1 41330U 16008A   26028.91489128 -.00000065  00000+0  00000+0 0  9996", "line2": "2 41330  65.1045 317.7883 0010116 216.7233 143.2259  2.13102498 77655"}}, "geometry": {"type": "Point", "coordinates": [135.87590635305742, 3.9753845176597205]}}, {"type": "Feature", "properties": {"norad_id": 42939, "name": "COSMOS 2522 (752)", "group": "glo-ops", "lat": -51.17130331833891, "lon": 159.3732389961417, "alt_km": 19132.252431327932, "timestamp": "2026-01-30T13:14:27.093462+00:00", "meta": {"OBJECT_NAME": "COSMOS 2522 (752)", "OBJECT_ID": "2017-055A", "EPOCH": "2026-01-27T19:32:50.195904", "MEAN_MOTION": 2.13101776, "ECCENTRICITY": 0.00063318, "INCLINATION": 64.0792, "RA_OF_ASC_NODE": 196.659, "ARG_OF_PERICENTER": 222.4821, "MEAN_ANOMALY": 137.4693, "EPHEMERIS_TYPE": 0, "CLASSIFICATION_TYPE": "U", "NORAD_CAT_ID": 42939, "ELEMENT_SET_NO": 999, "REV_AT_EPOCH": 6498, "BSTAR": 0, "MEAN_MOTION_DOT": 1.06e-06, "MEAN_MOTION_DDOT": 0}, "tle": {"line1": "1 42939U 17055A   26027.81446986  .00000106  00000+0  00000+0 0  9993", "line2": "2 42939  64.0792 196.6590 0006331 222.4821 137.4693  2.13101776 64985"}}, "geometry": {"type": "Point", "coordinates": [159.3732389961417, -51.17130331833891]}}, {"type": "Feature", "properties": {"norad_id": 43508, "name": "COSMOS 2527 (756)", "group": "glo-ops", "lat": -27.286780210532225, "lon": 64.9195155103366, "alt_km": 19134.706847766207, "timestamp": "2026-01-30T13:14:27.093474+00:00", "meta": {"OBJECT_NAME": "COSMOS 2527 (756)", "OBJECT_ID": "2018-053A", "EPOCH": "2026-01-29T15:39:47.881728", "MEAN_MOTION": 2.13102114, "ECCENTRICITY": 0.00095159, "INCLINATION": 65.4976, "RA_OF_ASC_NODE": 78.53, "ARG_OF_PERICENTER": 237.3017, "MEAN_ANOMALY": 122.6799, "EPHEMERIS_TYPE": 0, "CLASSIFICATION_TYPE": "U", "NORAD_CAT_ID": 43508, "ELEMENT_SET_NO": 999, "REV_AT_EPOCH": 5932, "BSTAR": 0, "MEAN_MOTION_DOT": 3e-08, "MEAN_MOTION_DDOT": 0}, "tle": {"line1": "1 43508U 18053A   26029.65263752  .00000003  00000+0  00000+0 0  9993", "line2": "2 43508  65.4976  78.5300 0009515 237.3017 122.6799  2.13102114 59325"}}, "geometry": {"type": "Point", "coordinates": [64.9195155103366, -27.286780210532225]}}, {"type": "Feature", "properties": {"norad_id": 43687, "name": "COSMOS 2529 (757)", "group": "glo-ops", "lat": -60.58250377734447, "lon": 75.95919808536455, "alt_km": 19118.74775607546, "timestamp": "2026-01-30T13:14:27.093485+00:00", "meta": {"OBJECT_NAME": "COSMOS 2529 (757)", "OBJECT_ID": "2018-086A", "EPOCH": "2026-01-30T05:15:19.704384", "MEAN_MOTION": 2.13101891, "ECCENTRICITY": 0.00068925, "INCLINATION": 64.2951, "RA_OF_ASC_NODE": 197.2497, "ARG_OF_PERICENTER": 252.2199, "MEAN_ANOMALY": 107.6945, "EPHEMERIS_TYPE": 0, "CLASSIFICATION_TYPE": "U", "NORAD_CAT_ID": 43687, "ELEMENT_SET_NO": 999, "REV_AT_EPOCH": 5634, "BSTAR": 0, "MEAN_MOTION_DOT": 6.9e-07, "MEAN_MOTION_DDOT": 0}, "tle": {"line1": "1 43687U 18086A   26030.21897806  .00000069  00000+0  00000+0 0  9996", "line2": "2 43687  64.2951 197.2497 0006892 252.2199 107.6945  2.13101891 56347"}}, "geometry": {"type": "Point", "coordinates": [75.95919808536455, -60.58250377734447]}}, {"type": "Feature", "properties": {"norad_id": 44299, "name": "COSMOS 2534 (758)", "group": "glo-ops", "lat": 26.55011795614076, "lon": -148.86378101216687, "alt_km": 19133.40962012907, "timestamp": "2026-01-30T13:14:27.093496+00:00", "meta": {"OBJECT_NAME": "COSMOS 2534 (758)", "OBJECT_ID": "2019-030A", "EPOCH": "2026-01-30T05:18:00.110304", "MEAN_MOTION": 2.13101913, "ECCENTRICITY": 0.00087166, "INCLINATION": 64.3692, "RA_OF_ASC_NODE": 197.2588, "ARG_OF_PERICENTER": 282.7574, "MEAN_ANOMALY": 213.0263, "EPHEMERIS_TYPE": 0, "CLASSIFICATION_TYPE": "U", "NORAD_CAT_ID": 44299, "ELEMENT_SET_NO": 999, "REV_AT_EPOCH": 5198, "BSTAR": 0, "MEAN_MOTION_DOT": 6.9e-07, "MEAN_MOTION_DDOT": 0}, "tle": {"line1": "1 44299U 19030A   26030.22083461  .00000069  00000+0  00000+0 0  9991", "line2": "2 44299  64.3692 197.2588 0008716 282.7574 213.0263  2.13101913 51988"}}, "geometry": {"type": "Point", "coordinates": [-148.86378101216687, 26.55011795614076]}}, {"type": "Feature", "properties": {"norad_id": 44850, "name": "COSMOS 2544 (759)", "group": "glo-ops", "lat": 11.095528427540204, "lon": 83.47252232832892, "alt_km": 19146.660128982934, "timestamp": "2026-01-30T13:14:27.093507+00:00", "meta": {"OBJECT_NAME": "COSMOS 2544 (759)", "OBJECT_ID": "2019-088A", "EPOCH": "2026-01-29T14:20:01.764096", "MEAN_MOTION": 2.13101931, "ECCENTRICITY": 0.00153636, "INCLINATION": 65.4849, "RA_OF_ASC_NODE": 78.3579, "ARG_OF_PERICENTER": 255.4286, "MEAN_ANOMALY": 104.4742, "EPHEMERIS_TYPE": 0, "CLASSIFICATION_TYPE": "U", "NORAD_CAT_ID": 44850, "ELEMENT_SET_NO": 999, "REV_AT_EPOCH": 4776, "BSTAR": 0, "MEAN_MOTION_DOT": 3e-08, "MEAN_MOTION_DDOT": 0}, "tle": {"line1": "1 44850U 19088A   26029.59724264  .00000003  00000+0  00000+0 0  9996", "line2": "2 44850  65.4849  78.3579 0015363 255.4286 104.4742  2.13101931 47765"}}, "geometry": {"type": "Point", "coordinates": [83.47252232832892, 11.095528427540204]}}, {"type": "Feature", "properties": {"norad_id": 45358, "name": "COSMOS 2545 (760)", "group": "glo-ops", "lat": -37.194158809216304, "lon": 158.5111442580015, "alt_km": 19113.18743906943, "timestamp": "2026-01-30T13:14:27.093518+00:00", "meta": {"OBJECT_NAME": "COSMOS 2545 (760)", "OBJECT_ID": "2020-018A", "EPOCH": "2026-01-29T07:45:56.820384", "MEAN_MOTION": 2.13102425, "ECCENTRICITY": 0.00097595, "INCLINATION": 64.4397, "RA_OF_ASC_NODE": 317.3015, "ARG_OF_PERICENTER": 252.518, "MEAN_ANOMALY": 107.3947, "EPHEMERIS_TYPE": 0, "CLASSIFICATION_TYPE": "U", "NORAD_CAT_ID": 45358, "ELEMENT_SET_NO": 999, "REV_AT_EPOCH": 4570, "BSTAR": 0, "MEAN_MOTION_DOT": -6.5e-07, "MEAN_MOTION_DDOT": 0}, "tle": {"line1": "1 45358U 20018A   26029.32357431 -.00000065  00000+0  00000+0 0  9993", "line2": "2 45358  64.4397 317.3015 0009759 252.5180 107.3947  2.13102425 45700"}}, "geometry": {"type": "Point", "coordinates": [158.5111442580015, -37.194158809216304]}}, {"type": "Feature", "properties": {"norad_id": 46805, "name": "COSMOS 2547 (705K)", "group": "glo-ops", "lat": 61.90042708819575, "lon": -100.02069321496775, "alt_km": 19136.944748412665, "timestamp": "2026-01-30T13:14:27.093530+00:00", "meta": {"OBJECT_NAME": "COSMOS 2547 (705K)", "OBJECT_ID": "2020-075A", "EPOCH": "2026-01-29T23:32:54.610368", "MEAN_MOTION": 2.13099947, "ECCENTRICITY": 0.0006196, "INCLINATION": 64.5995, "RA_OF_ASC_NODE": 197.0846, "ARG_OF_PERICENTER": 227.1759, "MEAN_ANOMALY": 132.763, "EPHEMERIS_TYPE": 0, "CLASSIFICATION_TYPE": "U", "NORAD_CAT_ID": 46805, "ELEMENT_SET_NO": 999, "REV_AT_EPOCH": 4096, "BSTAR": 0, "MEAN_MOTION_DOT": 7.3e-07, "MEAN_MOTION_DDOT": 0}, "tle": {"line1": "1 46805U 20075A   26029.98118762  .00000073  00000+0  00000+0 0  9996", "line2": "2 46805  64.5995 197.0846 0006196 227.1759 132.7630  2.13099947 40968"}}, "geometry": {"type": "Point", "coordinates": [-100.02069321496775, 61.90042708819575]}}, {"type": "Feature", "properties": {"norad_id": 52984, "name": "COSMOS 2557 (706K)", "group": "glo-ops", "lat": -42.956158298585486, "lon": -67.16834978993637, "alt_km": 19106.760019785823, "timestamp": "2026-01-30T13:14:27.093542+00:00", "meta": {"OBJECT_NAME": "COSMOS 2557 (706K)", "OBJECT_ID": "2022-075A", "EPOCH": "2026-01-29T04:59:14.912736", "MEAN_MOTION": 2.1310166, "ECCENTRICITY": 0.00127805, "INCLINATION": 64.3811, "RA_OF_ASC_NODE": 319.3834, "ARG_OF_PERICENTER": 281.4739, "MEAN_ANOMALY": 78.3991, "EPHEMERIS_TYPE": 0, "CLASSIFICATION_TYPE": "U", "NORAD_CAT_ID": 52984, "ELEMENT_SET_NO": 999, "REV_AT_EPOCH": 2775, "BSTAR": 0, "MEAN_MOTION_DOT": -6.8e-07, "MEAN_MOTION_DDOT": 0}, "tle": {"line1": "1 52984U 22075A   26029.20781149 -.00000068  00000+0  00000+0 0  9998", "line2": "2 52984  64.3811 319.3834 0012780 281.4739  78.3991  2.13101660 27754"}}, "geometry": {"type": "Point", "coordinates": [-67.16834978993637, -42.956158298585486]}}, {"type": "Feature", "properties": {"norad_id": 54031, "name": "COSMOS 2559 (707K)", "group": "glo-ops", "lat": 64.36734263026754, "lon": 48.25543109309926, "alt_km": 19126.680790124963, "timestamp": "2026-01-30T13:14:27.093553+00:00", "meta": {"OBJECT_NAME": "COSMOS 2559 (707K)", "OBJECT_ID": "2022-130A", "EPOCH": "2026-01-29T11:54:46.552032", "MEAN_MOTION": 2.13101061, "ECCENTRICITY": 0.00107956, "INCLINATION": 64.3532, "RA_OF_ASC_NODE": 319.4606, "ARG_OF_PERICENTER": 187.187, "MEAN_ANOMALY": 172.8142, "EPHEMERIS_TYPE": 0, "CLASSIFICATION_TYPE": "U", "NORAD_CAT_ID": 54031, "ELEMENT_SET_NO": 999, "REV_AT_EPOCH": 2573, "BSTAR": 0, "MEAN_MOTION_DOT": -6.8e-07, "MEAN_MOTION_DDOT": 0}, "tle": {"line1": "1 54031U 22130A   26029.49637213 -.00000068  00000+0  00000+0 0  9998", "line2": "2 54031  64.3532 319.4606 0010795 187.1870 172.8142  2.13101061 25738"}}, "geometry": {"type": "Point", "coordinates": [48.25543109309926, 64.36734263026754]}}, {"type": "Feature", "properties": {"norad_id": 54377, "name": "COSMOS 2564 (761)", "group": "glo-ops", "lat": -26.416146511827, "lon": 30.84936229572635, "alt_km": 19111.396254765572, "timestamp": "2026-01-30T13:14:27.093564+00:00", "meta": {"OBJECT_NAME": "COSMOS 2564 (761)", "OBJECT_ID": "2022-161A", "EPOCH": "2026-01-29T08:09:51.225408", "MEAN_MOTION": 2.13101894, "ECCENTRICITY": 0.00087488, "INCLINATION": 64.7416, "RA_OF_ASC_NODE": 197.3172, "ARG_OF_PERICENTER": 204.3233, "MEAN_ANOMALY": 155.6307, "EPHEMERIS_TYPE": 0, "CLASSIFICATION_TYPE": "U", "NORAD_CAT_ID": 54377, "ELEMENT_SET_NO": 999, "REV_AT_EPOCH": 2467, "BSTAR": 0, "MEAN_MOTION_DOT": 8.5e-07, "MEAN_MOTION_DDOT": 0}, "tle": {"line1": "1 54377U 22161A   26029.34017622  .00000085  00000+0  00000+0 0  9993", "line2": "2 54377  64.7416 197.3172 0008748 204.3233 155.6307  2.13101894 24675"}}, "geometry": {"type": "Point", "coordinates": [30.84936229572635, -26.416146511827]}}, {"type": "Feature", "properties": {"norad_id": 57517, "name": "COSMOS 2569 (703K)", "group": "glo-ops", "lat": -17.286845304585793, "lon": -94.46139945230495, "alt_km": 19132.433476545495, "timestamp": "2026-01-30T13:14:27.093575+00:00", "meta": {"OBJECT_NAME": "COSMOS 2569 (703K)", "OBJECT_ID": "2023-114A", "EPOCH": "2026-01-29T19:44:35.563776", "MEAN_MOTION": 2.13103924, "ECCENTRICITY": 0.00122662, "INCLINATION": 65.2204, "RA_OF_ASC_NODE": 77.2878, "ARG_OF_PERICENTER": 289.1975, "MEAN_ANOMALY": 70.7439, "EPHEMERIS_TYPE": 0, "CLASSIFICATION_TYPE": "U", "NORAD_CAT_ID": 57517, "ELEMENT_SET_NO": 999, "REV_AT_EPOCH": 1931, "BSTAR": 0, "MEAN_MOTION_DOT": 4e-08, "MEAN_MOTION_DDOT": 0}, "tle": {"line1": "1 57517U 23114A   26029.82263384  .00000004  00000+0  00000+0 0  9993", "line2": "2 57517  65.2204  77.2878 0012266 289.1975  70.7439  2.13103924 19312"}}, "geometry": {"type": "Point", "coordinates": [-94.46139945230495, -17.286845304585793]}}, {"type": "Feature", "properties": {"norad_id": 63130, "name": "COSMOS 2584 (704K)", "group": "glo-ops", "lat": -60.49279655813211, "lon": 22.031408210516798, "alt_km": 19125.268026121426, "timestamp": "2026-01-30T13:14:27.093586+00:00", "meta": {"OBJECT_NAME": "COSMOS 2584 (704K)", "OBJECT_ID": "2025-042A", "EPOCH": "2026-01-29T05:45:48.272256", "MEAN_MOTION": 2.13103061, "ECCENTRICITY": 0.0007914, "INCLINATION": 65.002, "RA_OF_ASC_NODE": 77.527, "ARG_OF_PERICENTER": 228.9177, "MEAN_ANOMALY": 131.0859, "EPHEMERIS_TYPE": 0, "CLASSIFICATION_TYPE": "U", "NORAD_CAT_ID": 63130, "ELEMENT_SET_NO": 999, "REV_AT_EPOCH": 708, "BSTAR": 0, "MEAN_MOTION_DOT": 0, "MEAN_MOTION_DDOT": 0}, "tle": {"line1": "1 63130U 25042A   26029.24014204  .00000000  00000+0  00000+0 0  9990", "line2": "2 63130  65.0020  77.5270 0007914 228.9177 131.0859  2.13103061  7082"}}, "geometry": {"type": "Point", "coordinates": [22.031408210516798, -60.49279655813211]}}, {"type": "Feature", "properties": {"norad_id": 65590, "name": "COSMOS 2596 (708K)", "group": "glo-ops", "lat": 39.14877475129899, "lon": -17.63596674728271, "alt_km": 19126.98934211328, "timestamp": "2026-01-30T13:14:27.093598+00:00", "meta": {"OBJECT_NAME": "COSMOS 2596 (708K)", "OBJECT_ID": "2025-206B", "EPOCH": "2026-01-30T05:01:35.057856", "MEAN_MOTION": 2.13099933, "ECCENTRICITY": 0.00135913, "INCLINATION": 64.7149, "RA_OF_ASC_NODE": 319.7905, "ARG_OF_PERICENTER": 311.758, "MEAN_ANOMALY": 189.797, "EPHEMERIS_TYPE": 0, "CLASSIFICATION_TYPE": "U", "NORAD_CAT_ID": 65590, "ELEMENT_SET_NO": 999, "REV_AT_EPOCH": 297, "BSTAR": 0, "MEAN_MOTION_DOT": -6.8e-07, "MEAN_MOTION_DDOT": 0}, "tle": {"line1": "1 65590U 25206B   26030.20943354 -.00000068  00000+0  00000+0 0  9994", "line2": "2 65590  64.7149 319.7905 0013591 311.7580 189.7970  2.13099933  2974"}}, "geometry": {"type": "Point", "coordinates": [-17.63596674728271, 39.14877475129899]}}]}