{"type": "FeatureCollection", "features": [{"type": "Feature", "properties": {"norad_id": 24876, "name": "GPS BIIR-2  (PRN 13)", "group": "gps-ops", "lat": 55.81969524032139, "lon": -159.83344567054365, "alt_km": 19966.81249871614, "timestamp": "2025-12-30T19:23:22.090153+00:00", "meta": {"OBJECT_NAME": "GPS BIIR-2  (PRN 13)", "OBJECT_ID": "1997-035A", "EPOCH": "2025-12-30T04:23:31.030656", "MEAN_MOTION": 2.00563673, "ECCENTRICITY": 0.00969023, "INCLINATION": 55.9033, "RA_OF_ASC_NODE": 105.1865, "ARG_OF_PERICENTER": 56.8949, "MEAN_ANOMALY": 304.0218, "EPHEMERIS_TYPE": 0, "CLASSIFICATION_TYPE": "U", "NORAD_CAT_ID": 24876, "ELEMENT_SET_NO": 999, "REV_AT_EPOCH": 20856, "BSTAR": 0, "MEAN_MOTION_DOT": -1.3e-07, "MEAN_MOTION_DDOT": 0}, "tle": {"line1": "1 24876U 97035A   25364.18299804 -.00000013  00000+0  00000+0 0  9995", "line2": "2 24876  55.9033 105.1865 0096902  56.8949 304.0218  2.00563673208568"}}, "geometry": {"type": "Point", "coordinates": [-159.83344567054365, 55.81969524032139]}}, {"type": "Feature", "properties": {"norad_id": 26360, "name": "GPS BIIR-4  (PRN 20)", "group": "gps-ops", "lat": -3.1730305960176444, "lon": -151.65865271893924, "alt_km": 20130.40647058667, "timestamp": "2025-12-30T19:23:22.090192+00:00", "meta": {"OBJECT_NAME": "GPS BIIR-4  (PRN 20)", "OBJECT_ID": "2000-025A", "EPOCH": "2025-12-30T02:41:23.144352", "MEAN_MOTION": 2.00566039, "ECCENTRICITY": 0.00388954, "INCLINATION": 55.0556, "RA_OF_ASC_NODE": 26.1353, "ARG_OF_PERICENTER": 243.6435, "MEAN_ANOMALY": 158.1916, "EPHEMERIS_TYPE": 0, "CLASSIFICATION_TYPE": "U", "NORAD_CAT_ID": 26360, "ELEMENT_SET_NO": 999, "REV_AT_EPOCH": 18788, "BSTAR": 0, "MEAN_MOTION_DOT": -5.7e-07, "MEAN_MOTION_DDOT": 0}, "tle": {"line1": "1 26360U 00025A   25364.11207343 -.00000057  00000+0  00000+0 0  9996", "line2": "2 26360  55.0556  26.1353 0038895 243.6435 158.1916  2.00566039187889"}}, "geometry": {"type": "Point", "coordinates": [-151.65865271893924, -3.1730305960176444]}}, {"type": "Feature", "properties": {"norad_id": 26407, "name": "GPS BIIR-5  (PRN 22)", "group": "gps-ops", "lat": 20.50112753260565, "lon": -122.88788500764043, "alt_km": 20136.371366817482, "timestamp": "2025-12-30T19:23:22.090210+00:00", "meta": {"OBJECT_NAME": "GPS BIIR-5  (PRN 22)", "OBJECT_ID": "2000-040A", "EPOCH": "2025-12-30T00:37:32.119680", "MEAN_MOTION": 2.00568082, "ECCENTRICITY": 0.01250871, "INCLINATION": 54.8871, "RA_OF_ASC_NODE": 221.8814, "ARG_OF_PERICENTER": 302.077, "MEAN_ANOMALY": 237.4032, "EPHEMERIS_TYPE": 0, "CLASSIFICATION_TYPE": "U", "NORAD_CAT_ID": 26407, "ELEMENT_SET_NO": 999, "REV_AT_EPOCH": 18655, "BSTAR": 0, "MEAN_MOTION_DOT": 1e-06, "MEAN_MOTION_DDOT": 0}, "tle": {"line1": "1 26407U 00040A   25364.02606620  .00000100  00000+0  00000+0 0  9994", "line2": "2 26407  54.8871 221.8814 0125087 302.0770 237.4032  2.00568082186559"}}, "geometry": {"type": "Point", "coordinates": [-122.88788500764043, 20.50112753260565]}}, {"type": "Feature", "properties": {"norad_id": 27663, "name": "GPS BIIR-8  (PRN 16)", "group": "gps-ops", "lat": 14.951144233930203, "lon": 30.857742738079313, "alt_km": 20306.42857444443, "timestamp": "2025-12-30T19:23:22.090224+00:00", "meta": {"OBJECT_NAME": "GPS BIIR-8  (PRN 16)", "OBJECT_ID": "2003-005A", "EPOCH": "2025-12-30T05:57:33.729984", "MEAN_MOTION": 2.00569826, "ECCENTRICITY": 0.01480293, "INCLINATION": 54.9196, "RA_OF_ASC_NODE": 221.6816, "ARG_OF_PERICENTER": 52.0514, "MEAN_ANOMALY": 63.931, "EPHEMERIS_TYPE": 0, "CLASSIFICATION_TYPE": "U", "NORAD_CAT_ID": 27663, "ELEMENT_SET_NO": 999, "REV_AT_EPOCH": 16792, "BSTAR": 0, "MEAN_MOTION_DOT": 1.01e-06, "MEAN_MOTION_DDOT": 0}, "tle": {"line1": "1 27663U 03005A   25364.24830706  .00000101  00000+0  00000+0 0  9992", "line2": "2 27663  54.9196 221.6816 0148029  52.0514  63.9310  2.00569826167922"}}, "geometry": {"type": "Point", "coordinates": [30.857742738079313, 14.951144233930203]}}, {"type": "Feature", "properties": {"norad_id": 28190, "name": "GPS BIIR-11 (PRN 19)", "group": "gps-ops", "lat": -32.73263965485092, "lon": -104.27943425839092, "alt_km": 20438.149128237164, "timestamp": "2025-12-30T19:23:22.090237+00:00", "meta": {"OBJECT_NAME": "GPS BIIR-11 (PRN 19)", "OBJECT_ID": "2004-009A", "EPOCH": "2025-12-28T17:03:08.229024", "MEAN_MOTION": 2.00560067, "ECCENTRICITY": 0.010865, "INCLINATION": 54.9712, "RA_OF_ASC_NODE": 282.5752, "ARG_OF_PERICENTER": 167.8701, "MEAN_ANOMALY": 75.8377, "EPHEMERIS_TYPE": 0, "CLASSIFICATION_TYPE": "U", "NORAD_CAT_ID": 28190, "ELEMENT_SET_NO": 999, "REV_AT_EPOCH": 15952, "BSTAR": 0, "MEAN_MOTION_DOT": -3.6e-07, "MEAN_MOTION_DDOT": 0}, "tle": {"line1": "1 28190U 04009A   25362.71051191 -.00000036  00000+0  00000+0 0  9994", "line2": "2 28190  54.9712 282.5752 0108650 167.8701  75.8377  2.00560067159526"}}, "geometry": {"type": "Point", "coordinates": [-104.27943425839092, -32.73263965485092]}}, {"type": "Feature", "properties": {"norad_id": 28474, "name": "GPS BIIR-13 (PRN 02)", "group": "gps-ops", "lat": 16.815103823368243, "lon": -16.224180921211275, "alt_km": 20022.168138221565, "timestamp": "2025-12-30T19:23:22.090250+00:00", "meta": {"OBJECT_NAME": "GPS BIIR-13 (PRN 02)", "OBJECT_ID": "2004-045A", "EPOCH": "2025-12-30T06:42:22.264704", "MEAN_MOTION": 2.00570154, "ECCENTRICITY": 0.01710543, "INCLINATION": 55.2317, "RA_OF_ASC_NODE": 331.7004, "ARG_OF_PERICENTER": 310.0225, "MEAN_ANOMALY": 47.1557, "EPHEMERIS_TYPE": 0, "CLASSIFICATION_TYPE": "U", "NORAD_CAT_ID": 28474, "ELEMENT_SET_NO": 999, "REV_AT_EPOCH": 15503, "BSTAR": 0, "MEAN_MOTION_DOT": -7.4e-07, "MEAN_MOTION_DDOT": 0}, "tle": {"line1": "1 28474U 04045A   25364.27942436 -.00000074  00000+0  00000+0 0  9995", "line2": "2 28474  55.2317 331.7004 0171054 310.0225  47.1557  2.00570154155036"}}, "geometry": {"type": "Point", "coordinates": [-16.224180921211275, 16.815103823368243]}}, {"type": "Feature", "properties": {"norad_id": 28874, "name": "GPS BIIRM-1 (PRN 17)", "group": "gps-ops", "lat": -16.880873803196035, "lon": -92.28648797456505, "alt_km": 19935.700574227816, "timestamp": "2025-12-30T19:23:22.090262+00:00", "meta": {"OBJECT_NAME": "GPS BIIRM-1 (PRN 17)", "OBJECT_ID": "2005-038A", "EPOCH": "2025-12-27T11:43:07.333248", "MEAN_MOTION": 2.00577349, "ECCENTRICITY": 0.01311466, "INCLINATION": 55.0187, "RA_OF_ASC_NODE": 280.107, "ARG_OF_PERICENTER": 293.9094, "MEAN_ANOMALY": 167.2168, "EPHEMERIS_TYPE": 0, "CLASSIFICATION_TYPE": "U", "NORAD_CAT_ID": 28874, "ELEMENT_SET_NO": 999, "REV_AT_EPOCH": 14839, "BSTAR": 0, "MEAN_MOTION_DOT": -3.1e-07, "MEAN_MOTION_DDOT": 0}, "tle": {"line1": "1 28874U 05038A   25361.48827932 -.00000031  00000+0  00000+0 0  9998", "line2": "2 28874  55.0187 280.1070 0131146 293.9094 167.2168  2.00577349148390"}}, "geometry": {"type": "Point", "coordinates": [-92.28648797456505, -16.880873803196035]}}, {"type": "Feature", "properties": {"norad_id": 29486, "name": "GPS BIIRM-2 (PRN 31)", "group": "gps-ops", "lat": -44.80124167979716, "lon": 22.748375452963025, "alt_km": 20470.397585213013, "timestamp": "2025-12-30T19:23:22.090274+00:00", "meta": {"OBJECT_NAME": "GPS BIIRM-2 (PRN 31)", "OBJECT_ID": "2006-042A", "EPOCH": "2025-12-30T05:32:06.230688", "MEAN_MOTION": 2.00553396, "ECCENTRICITY": 0.01072207, "INCLINATION": 54.6959, "RA_OF_ASC_NODE": 158.0469, "ARG_OF_PERICENTER": 52.3347, "MEAN_ANOMALY": 130.7039, "EPHEMERIS_TYPE": 0, "CLASSIFICATION_TYPE": "U", "NORAD_CAT_ID": 29486, "ELEMENT_SET_NO": 999, "REV_AT_EPOCH": 14100, "BSTAR": 0, "MEAN_MOTION_DOT": 9.1e-07, "MEAN_MOTION_DDOT": 0}, "tle": {"line1": "1 29486U 06042A   25364.23062767  .00000091  00000+0  00000+0 0  9992", "line2": "2 29486  54.6959 158.0469 0107220  52.3347 130.7039  2.00553396141000"}}, "geometry": {"type": "Point", "coordinates": [22.748375452963025, -44.80124167979716]}}, {"type": "Feature", "properties": {"norad_id": 29601, "name": "GPS BIIRM-3 (PRN 12)", "group": "gps-ops", "lat": -46.1699779609322, "lon": 173.75417717014395, "alt_km": 20387.27771806376, "timestamp": "2025-12-30T19:23:22.090286+00:00", "meta": {"OBJECT_NAME": "GPS BIIRM-3 (PRN 12)", "OBJECT_ID": "2006-052A", "EPOCH": "2025-12-29T21:31:44.910048", "MEAN_MOTION": 2.00574616, "ECCENTRICITY": 0.0088113, "INCLINATION": 54.9673, "RA_OF_ASC_NODE": 220.717, "ARG_OF_PERICENTER": 87.6363, "MEAN_ANOMALY": 273.4531, "EPHEMERIS_TYPE": 0, "CLASSIFICATION_TYPE": "U", "NORAD_CAT_ID": 29601, "ELEMENT_SET_NO": 999, "REV_AT_EPOCH": 14001, "BSTAR": 0, "MEAN_MOTION_DOT": 1.02e-06, "MEAN_MOTION_DDOT": 0}, "tle": {"line1": "1 29601U 06052A   25363.89704757  .00000102  00000+0  00000+0 0  9998", "line2": "2 29601  54.9673 220.7170 0088113  87.6363 273.4531  2.00574616140019"}}, "geometry": {"type": "Point", "coordinates": [173.75417717014395, -46.1699779609322]}}, {"type": "Feature", "properties": {"norad_id": 32260, "name": "GPS BIIRM-4 (PRN 15)", "group": "gps-ops", "lat": 52.27913591410864, "lon": 157.02646652825962, "alt_km": 19744.59043943602, "timestamp": "2025-12-30T19:23:22.090298+00:00", "meta": {"OBJECT_NAME": "GPS BIIRM-4 (PRN 15)", "OBJECT_ID": "2007-047A", "EPOCH": "2025-12-30T04:53:17.971008", "MEAN_MOTION": 2.00563663, "ECCENTRICITY": 0.01639521, "INCLINATION": 53.9669, "RA_OF_ASC_NODE": 87.0369, "ARG_OF_PERICENTER": 85.4401, "MEAN_ANOMALY": 276.4454, "EPHEMERIS_TYPE": 0, "CLASSIFICATION_TYPE": "U", "NORAD_CAT_ID": 32260, "ELEMENT_SET_NO": 999, "REV_AT_EPOCH": 13342, "BSTAR": 0, "MEAN_MOTION_DOT": -3.8e-07, "MEAN_MOTION_DDOT": 0}, "tle": {"line1": "1 32260U 07047A   25364.20368022 -.00000038  00000+0  00000+0 0  9994", "line2": "2 32260  53.9669  87.0369 0163952  85.4401 276.4454  2.00563663133420"}}, "geometry": {"type": "Point", "coordinates": [157.02646652825962, 52.27913591410864]}}, {"type": "Feature", "properties": {"norad_id": 32384, "name": "GPS BIIRM-5 (PRN 29)", "group": "gps-ops", "lat": -22.080184637697386, "lon": 117.29542712769089, "alt_km": 20127.250468908518, "timestamp": "2025-12-30T19:23:22.090310+00:00", "meta": {"OBJECT_NAME": "GPS BIIRM-5 (PRN 29)", "OBJECT_ID": "2007-062A", "EPOCH": "2025-12-30T06:17:29.593248", "MEAN_MOTION": 2.00549491, "ECCENTRICITY": 0.00314658, "INCLINATION": 55.167, "RA_OF_ASC_NODE": 280.9428, "ARG_OF_PERICENTER": 162.0793, "MEAN_ANOMALY": 10.8686, "EPHEMERIS_TYPE": 0, "CLASSIFICATION_TYPE": "U", "NORAD_CAT_ID": 32384, "ELEMENT_SET_NO": 999, "REV_AT_EPOCH": 13212, "BSTAR": 0, "MEAN_MOTION_DOT": -3.2e-07, "MEAN_MOTION_DDOT": 0}, "tle": {"line1": "1 32384U 07062A   25364.26214807 -.00000032  00000+0  00000+0 0  9999", "line2": "2 32384  55.1670 280.9428 0031465 162.0793  10.8686  2.00549491132128"}}, "geometry": {"type": "Point", "coordinates": [117.29542712769089, -22.080184637697386]}}, {"type": "Feature", "properties": {"norad_id": 32711, "name": "GPS BIIRM-6 (PRN 07)", "group": "gps-ops", "lat": 38.69545408652311, "lon": -58.26558642166111, "alt_km": 20399.766250833192, "timestamp": "2025-12-30T19:23:22.090321+00:00", "meta": {"OBJECT_NAME": "GPS BIIRM-6 (PRN 07)", "OBJECT_ID": "2008-012A", "EPOCH": "2025-12-29T15:00:16.432416", "MEAN_MOTION": 2.00566268, "ECCENTRICITY": 0.02032208, "INCLINATION": 54.479, "RA_OF_ASC_NODE": 156.6988, "ARG_OF_PERICENTER": 245.1542, "MEAN_ANOMALY": 112.7098, "EPHEMERIS_TYPE": 0, "CLASSIFICATION_TYPE": "U", "NORAD_CAT_ID": 32711, "ELEMENT_SET_NO": 999, "REV_AT_EPOCH": 13035, "BSTAR": 0, "MEAN_MOTION_DOT": 9.6e-07, "MEAN_MOTION_DDOT": 0}, "tle": {"line1": "1 32711U 08012A   25363.62519019  .00000096  00000+0  00000+0 0  9990", "line2": "2 32711  54.4790 156.6988 0203220 245.1542 112.7098  2.00566268130355"}}, "geometry": {"type": "Point", "coordinates": [-58.26558642166111, 38.69545408652311]}}, {"type": "Feature", "properties": {"norad_id": 35752, "name": "GPS BIIRM-8 (PRN 05)", "group": "gps-ops", "lat": 22.780559949539203, "lon": -162.3060581452111, "alt_km": 20133.318355004336, "timestamp": "2025-12-30T19:23:22.090333+00:00", "meta": {"OBJECT_NAME": "GPS BIIRM-8 (PRN 05)", "OBJECT_ID": "2009-043A", "EPOCH": "2025-12-30T02:43:33.413088", "MEAN_MOTION": 2.00564432, "ECCENTRICITY": 0.00514798, "INCLINATION": 56.1032, "RA_OF_ASC_NODE": 34.0981, "ARG_OF_PERICENTER": 81.6094, "MEAN_ANOMALY": 288.7056, "EPHEMERIS_TYPE": 0, "CLASSIFICATION_TYPE": "U", "NORAD_CAT_ID": 35752, "ELEMENT_SET_NO": 999, "REV_AT_EPOCH": 11997, "BSTAR": 0, "MEAN_MOTION_DOT": -5.3e-07, "MEAN_MOTION_DDOT": 0}, "tle": {"line1": "1 35752U 09043A   25364.11358117 -.00000053  00000+0  00000+0 0  9992", "line2": "2 35752  56.1032  34.0981 0051479  81.6094 288.7056  2.00564432119979"}}, "geometry": {"type": "Point", "coordinates": [-162.3060581452111, 22.780559949539203]}}, {"type": "Feature", "properties": {"norad_id": 36585, "name": "GPS BIIF-1  (PRN 25)", "group": "gps-ops", "lat": -54.26369655810818, "lon": 123.30265920576514, "alt_km": 20497.06012018353, "timestamp": "2025-12-30T19:23:22.090344+00:00", "meta": {"OBJECT_NAME": "GPS BIIF-1  (PRN 25)", "OBJECT_ID": "2010-022A", "EPOCH": "2025-12-30T04:36:36.041184", "MEAN_MOTION": 2.00554001, "ECCENTRICITY": 0.01267349, "INCLINATION": 54.2977, "RA_OF_ASC_NODE": 215.3699, "ARG_OF_PERICENTER": 65.2868, "MEAN_ANOMALY": 119.5227, "EPHEMERIS_TYPE": 0, "CLASSIFICATION_TYPE": "U", "NORAD_CAT_ID": 36585, "ELEMENT_SET_NO": 999, "REV_AT_EPOCH": 11420, "BSTAR": 0, "MEAN_MOTION_DOT": 1.1e-06, "MEAN_MOTION_DDOT": 0}, "tle": {"line1": "1 36585U 10022A   25364.19208381  .00000110  00000+0  00000+0 0  9994", "line2": "2 36585  54.2977 215.3699 0126734  65.2868 119.5227  2.00554001114208"}}, "geometry": {"type": "Point", "coordinates": [123.30265920576514, -54.26369655810818]}}, {"type": "Feature", "properties": {"norad_id": 38833, "name": "GPS BIIF-3  (PRN 24)", "group": "gps-ops", "lat": 4.818063765434318, "lon": 154.05689993235072, "alt_km": 19929.73815238353, "timestamp": "2025-12-30T19:23:22.090356+00:00", "meta": {"OBJECT_NAME": "GPS BIIF-3  (PRN 24)", "OBJECT_ID": "2012-053A", "EPOCH": "2025-12-29T19:15:44.599392", "MEAN_MOTION": 2.00565037, "ECCENTRICITY": 0.01761606, "INCLINATION": 53.5604, "RA_OF_ASC_NODE": 150.5399, "ARG_OF_PERICENTER": 64.2243, "MEAN_ANOMALY": 297.5632, "EPHEMERIS_TYPE": 0, "CLASSIFICATION_TYPE": "U", "NORAD_CAT_ID": 38833, "ELEMENT_SET_NO": 999, "REV_AT_EPOCH": 9604, "BSTAR": 0, "MEAN_MOTION_DOT": 8.1e-07, "MEAN_MOTION_DDOT": 0}, "tle": {"line1": "1 38833U 12053A   25363.80259953  .00000081  00000+0  00000+0 0  9993", "line2": "2 38833  53.5604 150.5399 0176160  64.2243 297.5632  2.00565037 96045"}}, "geometry": {"type": "Point", "coordinates": [154.05689993235072, 4.818063765434318]}}, {"type": "Feature", "properties": {"norad_id": 39166, "name": "GPS BIIF-4  (PRN 27)", "group": "gps-ops", "lat": 51.45864616920776, "lon": 32.92713764071806, "alt_km": 19975.26331932697, "timestamp": "2025-12-30T19:23:22.090367+00:00", "meta": {"OBJECT_NAME": "GPS BIIF-4  (PRN 27)", "OBJECT_ID": "2013-023A", "EPOCH": "2025-12-30T03:58:08.736960", "MEAN_MOTION": 2.00564448, "ECCENTRICITY": 0.01389273, "INCLINATION": 54.637, "RA_OF_ASC_NODE": 275.8595, "ARG_OF_PERICENTER": 48.8513, "MEAN_ANOMALY": 312.3784, "EPHEMERIS_TYPE": 0, "CLASSIFICATION_TYPE": "U", "NORAD_CAT_ID": 39166, "ELEMENT_SET_NO": 999, "REV_AT_EPOCH": 9249, "BSTAR": 0, "MEAN_MOTION_DOT": -2.3e-07, "MEAN_MOTION_DDOT": 0}, "tle": {"line1": "1 39166U 13023A   25364.16537890 -.00000023  00000+0  00000+0 0  9997", "line2": "2 39166  54.6370 275.8595 0138927  48.8513 312.3784  2.00564448 92497"}}, "geometry": {"type": "Point", "coordinates": [32.92713764071806, 51.45864616920776]}}, {"type": "Feature", "properties": {"norad_id": 39533, "name": "GPS BIIF-5  (PRN 30)", "group": "gps-ops", "lat": 50.57344447368643, "lon": -87.51863462620366, "alt_km": 20281.723700363884, "timestamp": "2025-12-30T19:23:22.090379+00:00", "meta": {"OBJECT_NAME": "GPS BIIF-5  (PRN 30)", "OBJECT_ID": "2014-008A", "EPOCH": "2025-12-29T15:52:26.221440", "MEAN_MOTION": 2.00549103, "ECCENTRICITY": 0.00798563, "INCLINATION": 53.6284, "RA_OF_ASC_NODE": 156.2345, "ARG_OF_PERICENTER": 226.1869, "MEAN_ANOMALY": 133.1394, "EPHEMERIS_TYPE": 0, "CLASSIFICATION_TYPE": "U", "NORAD_CAT_ID": 39533, "ELEMENT_SET_NO": 999, "REV_AT_EPOCH": 8628, "BSTAR": 0, "MEAN_MOTION_DOT": 9.4e-07, "MEAN_MOTION_DDOT": 0}, "tle": {"line1": "1 39533U 14008A   25363.66141460  .00000094  00000+0  00000+0 0  9994", "line2": "2 39533  53.6284 156.2345 0079856 226.1869 133.1394  2.00549103 86280"}}, "geometry": {"type": "Point", "coordinates": [-87.51863462620366, 50.57344447368643]}}, {"type": "Feature", "properties": {"norad_id": 39741, "name": "GPS BIIF-6  (PRN 06)", "group": "gps-ops", "lat": -55.874388381951455, "lon": -124.98190269065593, "alt_km": 20130.656298853573, "timestamp": "2025-12-30T19:23:22.090390+00:00", "meta": {"OBJECT_NAME": "GPS BIIF-6  (PRN 06)", "OBJECT_ID": "2014-026A", "EPOCH": "2025-12-29T22:40:08.516928", "MEAN_MOTION": 2.0055995, "ECCENTRICITY": 0.00395891, "INCLINATION": 56.5767, "RA_OF_ASC_NODE": 338.1074, "ARG_OF_PERICENTER": 319.6786, "MEAN_ANOMALY": 40.0317, "EPHEMERIS_TYPE": 0, "CLASSIFICATION_TYPE": "U", "NORAD_CAT_ID": 39741, "ELEMENT_SET_NO": 999, "REV_AT_EPOCH": 8514, "BSTAR": 0, "MEAN_MOTION_DOT": -6.9e-07, "MEAN_MOTION_DDOT": 0}, "tle": {"line1": "1 39741U 14026A   25363.94454302 -.00000069  00000+0  00000+0 0  9991", "line2": "2 39741  56.5767 338.1074 0039589 319.6786  40.0317  2.00559950 85140"}}, "geometry": {"type": "Point", "coordinates": [-124.98190269065593, -55.874388381951455]}}, {"type": "Feature", "properties": {"norad_id": 40105, "name": "GPS BIIF-7  (PRN 09)", "group": "gps-ops", "lat": -17.774138603312178, "lon": -71.9739963279224, "alt_km": 20170.928039592476, "timestamp": "2025-12-30T19:23:22.090402+00:00", "meta": {"OBJECT_NAME": "GPS BIIF-7  (PRN 09)", "OBJECT_ID": "2014-045A", "EPOCH": "2025-12-30T00:44:28.273056", "MEAN_MOTION": 2.00573501, "ECCENTRICITY": 0.00322371, "INCLINATION": 55.239, "RA_OF_ASC_NODE": 95.2089, "ARG_OF_PERICENTER": 120.2332, "MEAN_ANOMALY": 240.092, "EPHEMERIS_TYPE": 0, "CLASSIFICATION_TYPE": "U", "NORAD_CAT_ID": 40105, "ELEMENT_SET_NO": 999, "REV_AT_EPOCH": 8268, "BSTAR": 0, "MEAN_MOTION_DOT": -2.6e-07, "MEAN_MOTION_DDOT": 0}, "tle": {"line1": "1 40105U 14045A   25364.03088279 -.00000026  00000+0  00000+0 0  9998", "line2": "2 40105  55.2390  95.2089 0032237 120.2332 240.0920  2.00573501 82683"}}, "geometry": {"type": "Point", "coordinates": [-71.9739963279224, -17.774138603312178]}}, {"type": "Feature", "properties": {"norad_id": 40294, "name": "GPS BIIF-8  (PRN 03)", "group": "gps-ops", "lat": -52.41268035841861, "lon": -20.523859444328902, "alt_km": 20311.52044081516, "timestamp": "2025-12-30T19:23:22.090413+00:00", "meta": {"OBJECT_NAME": "GPS BIIF-8  (PRN 03)", "OBJECT_ID": "2014-068A", "EPOCH": "2025-12-29T09:51:48.309984", "MEAN_MOTION": 2.00565749, "ECCENTRICITY": 0.00609072, "INCLINATION": 56.8702, "RA_OF_ASC_NODE": 37.5012, "ARG_OF_PERICENTER": 68.854, "MEAN_ANOMALY": 291.8564, "EPHEMERIS_TYPE": 0, "CLASSIFICATION_TYPE": "U", "NORAD_CAT_ID": 40294, "ELEMENT_SET_NO": 999, "REV_AT_EPOCH": 8180, "BSTAR": 0, "MEAN_MOTION_DOT": -5.1e-07, "MEAN_MOTION_DDOT": 0}, "tle": {"line1": "1 40294U 14068A   25363.41097581 -.00000051  00000+0  00000+0 0  9997", "line2": "2 40294  56.8702  37.5012 0060907  68.8540 291.8564  2.00565749 81800"}}, "geometry": {"type": "Point", "coordinates": [-20.523859444328902, -52.41268035841861]}}, {"type": "Feature", "properties": {"norad_id": 40534, "name": "GPS BIIF-9  (PRN 26)", "group": "gps-ops", "lat": -12.848180241634935, "lon": 40.98629453854041, "alt_km": 20447.671866246186, "timestamp": "2025-12-30T19:23:22.090424+00:00", "meta": {"OBJECT_NAME": "GPS BIIF-9  (PRN 26)", "OBJECT_ID": "2015-013A", "EPOCH": "2025-12-30T00:56:52.129536", "MEAN_MOTION": 2.00561447, "ECCENTRICITY": 0.01076731, "INCLINATION": 53.1955, "RA_OF_ASC_NODE": 211.1735, "ARG_OF_PERICENTER": 38.8816, "MEAN_ANOMALY": 321.9618, "EPHEMERIS_TYPE": 0, "CLASSIFICATION_TYPE": "U", "NORAD_CAT_ID": 40534, "ELEMENT_SET_NO": 999, "REV_AT_EPOCH": 7843, "BSTAR": 0, "MEAN_MOTION_DOT": 1.13e-06, "MEAN_MOTION_DDOT": 0}, "tle": {"line1": "1 40534U 15013A   25364.03949224  .00000113  00000+0  00000+0 0  9992", "line2": "2 40534  53.1955 211.1735 0107673  38.8816 321.9618  2.00561447 78435"}}, "geometry": {"type": "Point", "coordinates": [40.98629453854041, -12.848180241634935]}}, {"type": "Feature", "properties": {"norad_id": 40730, "name": "GPS BIIF-10 (PRN 08)", "group": "gps-ops", "lat": 52.96507114501512, "lon": -12.61152864806114, "alt_km": 19994.186955155506, "timestamp": "2025-12-30T19:23:22.090436+00:00", "meta": {"OBJECT_NAME": "GPS BIIF-10 (PRN 08)", "OBJECT_ID": "2015-033A", "EPOCH": "2025-12-29T16:51:00.987264", "MEAN_MOTION": 2.00564648, "ECCENTRICITY": 0.01119278, "INCLINATION": 54.1159, "RA_OF_ASC_NODE": 274.0746, "ARG_OF_PERICENTER": 27.2629, "MEAN_ANOMALY": 333.3626, "EPHEMERIS_TYPE": 0, "CLASSIFICATION_TYPE": "U", "NORAD_CAT_ID": 40730, "ELEMENT_SET_NO": 999, "REV_AT_EPOCH": 7659, "BSTAR": 0, "MEAN_MOTION_DOT": -2.1e-07, "MEAN_MOTION_DDOT": 0}, "tle": {"line1": "1 40730U 15033A   25363.70209476 -.00000021  00000+0  00000+0 0  9992", "line2": "2 40730  54.1159 274.0746 0111927  27.2629 333.3626  2.00564648 76598"}}, "geometry": {"type": "Point", "coordinates": [-12.61152864806114, 52.96507114501512]}}, {"type": "Feature", "properties": {"norad_id": 41019, "name": "GPS BIIF-11 (PRN 10)", "group": "gps-ops", "lat": 28.64580725099406, "lon": 58.23014046451044, "alt_km": 20463.396441283585, "timestamp": "2025-12-30T19:23:22.090447+00:00", "meta": {"OBJECT_NAME": "GPS BIIF-11 (PRN 10)", "OBJECT_ID": "2015-062A", "EPOCH": "2025-12-29T18:16:31.350144", "MEAN_MOTION": 2.0056701, "ECCENTRICITY": 0.01112054, "INCLINATION": 56.8447, "RA_OF_ASC_NODE": 37.3439, "ARG_OF_PERICENTER": 230.3804, "MEAN_ANOMALY": 128.6904, "EPHEMERIS_TYPE": 0, "CLASSIFICATION_TYPE": "U", "NORAD_CAT_ID": 41019, "ELEMENT_SET_NO": 999, "REV_AT_EPOCH": 7443, "BSTAR": 0, "MEAN_MOTION_DOT": -5.1e-07, "MEAN_MOTION_DDOT": 0}, "tle": {"line1": "1 41019U 15062A   25363.76147396 -.00000051  00000+0  00000+0 0  9996", "line2": "2 41019  56.8447  37.3439 0111205 230.3804 128.6904  2.00567010 74439"}}, "geometry": {"type": "Point", "coordinates": [58.23014046451044, 28.64580725099406]}}, {"type": "Feature", "properties": {"norad_id": 41328, "name": "GPS BIIF-12 (PRN 32)", "group": "gps-ops", "lat": -19.75673353627637, "lon": 81.81729504901456, "alt_km": 20190.738816833953, "timestamp": "2025-12-30T19:23:22.090473+00:00", "meta": {"OBJECT_NAME": "GPS BIIF-12 (PRN 32)", "OBJECT_ID": "2016-007A", "EPOCH": "2025-12-29T20:15:58.924800", "MEAN_MOTION": 2.005598, "ECCENTRICITY": 0.00930172, "INCLINATION": 55.4155, "RA_OF_ASC_NODE": 96.1779, "ARG_OF_PERICENTER": 244.0619, "MEAN_ANOMALY": 114.9833, "EPHEMERIS_TYPE": 0, "CLASSIFICATION_TYPE": "U", "NORAD_CAT_ID": 41328, "ELEMENT_SET_NO": 999, "REV_AT_EPOCH": 7244, "BSTAR": 0, "MEAN_MOTION_DOT": -2.3e-07, "MEAN_MOTION_DDOT": 0}, "tle": {"line1": "1 41328U 16007A   25363.84443200 -.00000023  00000+0  00000+0 0  9990", "line2": "2 41328  55.4155  96.1779 0093017 244.0619 114.9833  2.00559800 72445"}}, "geometry": {"type": "Point", "coordinates": [81.81729504901456, -19.75673353627637]}}, {"type": "Feature", "properties": {"norad_id": 43873, "name": "GPS BIII-1  (PRN 04)", "group": "gps-ops", "lat": -38.64375483042449, "lon": -47.9667955323215, "alt_km": 20104.206430002338, "timestamp": "2025-12-30T19:23:22.090487+00:00", "meta": {"OBJECT_NAME": "GPS BIII-1  (PRN 04)", "OBJECT_ID": "2018-109A", "EPOCH": "2025-12-29T17:35:21.500736", "MEAN_MOTION": 2.0055394, "ECCENTRICITY": 0.00375827, "INCLINATION": 55.5761, "RA_OF_ASC_NODE": 98.8762, "ARG_OF_PERICENTER": 195.7605, "MEAN_ANOMALY": 336.9739, "EPHEMERIS_TYPE": 0, "CLASSIFICATION_TYPE": "U", "NORAD_CAT_ID": 43873, "ELEMENT_SET_NO": 999, "REV_AT_EPOCH": 5167, "BSTAR": 0, "MEAN_MOTION_DOT": -1.8e-07, "MEAN_MOTION_DDOT": 0}, "tle": {"line1": "1 43873U 18109A   25363.73288774 -.00000018  00000+0  00000+0 0  9997", "line2": "2 43873  55.5761  98.8762 0037582 195.7605 336.9739  2.00553940 51671"}}, "geometry": {"type": "Point", "coordinates": [-47.9667955323215, -38.64375483042449]}}, {"type": "Feature", "properties": {"norad_id": 44506, "name": "GPS BIII-2  (PRN 18)", "group": "gps-ops", "lat": 41.91054967339659, "lon": 120.07478791964635, "alt_km": 20130.57218910303, "timestamp": "2025-12-30T19:23:22.090500+00:00", "meta": {"OBJECT_NAME": "GPS BIII-2  (PRN 18)", "OBJECT_ID": "2019-056A", "EPOCH": "2025-12-30T00:28:17.518080", "MEAN_MOTION": 2.00566367, "ECCENTRICITY": 0.00577985, "INCLINATION": 55.7147, "RA_OF_ASC_NODE": 337.8671, "ARG_OF_PERICENTER": 198.7326, "MEAN_ANOMALY": 78.7442, "EPHEMERIS_TYPE": 0, "CLASSIFICATION_TYPE": "U", "NORAD_CAT_ID": 44506, "ELEMENT_SET_NO": 999, "REV_AT_EPOCH": 4667, "BSTAR": 0, "MEAN_MOTION_DOT": -7.1e-07, "MEAN_MOTION_DDOT": 0}, "tle": {"line1": "1 44506U 19056A   25364.01964720 -.00000071  00000+0  00000+0 0  9996", "line2": "2 44506  55.7147 337.8671 0057798 198.7326  78.7442  2.00566367 46677"}}, "geometry": {"type": "Point", "coordinates": [120.07478791964635, 41.91054967339659]}}, {"type": "Feature", "properties": {"norad_id": 45854, "name": "GPS BIII-3  (PRN 23)", "group": "gps-ops", "lat": 51.5585409103103, "lon": 91.81713224797528, "alt_km": 20288.513055181236, "timestamp": "2025-12-30T19:23:22.090512+00:00", "meta": {"OBJECT_NAME": "GPS BIII-3  (PRN 23)", "OBJECT_ID": "2020-041A", "EPOCH": "2025-12-30T04:47:38.628960", "MEAN_MOTION": 2.00561224, "ECCENTRICITY": 0.00607375, "INCLINATION": 56.5591, "RA_OF_ASC_NODE": 35.506, "ARG_OF_PERICENTER": 203.9606, "MEAN_ANOMALY": 147.3118, "EPHEMERIS_TYPE": 0, "CLASSIFICATION_TYPE": "U", "NORAD_CAT_ID": 45854, "ELEMENT_SET_NO": 999, "REV_AT_EPOCH": 4064, "BSTAR": 0, "MEAN_MOTION_DOT": -5.2e-07, "MEAN_MOTION_DDOT": 0}, "tle": {"line1": "1 45854U 20041A   25364.19975265 -.00000052  00000+0  00000+0 0  9993", "line2": "2 45854  56.5591  35.5060 0060737 203.9606 147.3118  2.00561224 40648"}}, "geometry": {"type": "Point", "coordinates": [91.81713224797528, 51.5585409103103]}}, {"type": "Feature", "properties": {"norad_id": 46826, "name": "GPS BIII-4  (PRN 14)", "group": "gps-ops", "lat": 32.46139596403612, "lon": -114.84985817861397, "alt_km": 20342.08391890681, "timestamp": "2025-12-30T19:23:22.090524+00:00", "meta": {"OBJECT_NAME": "GPS BIII-4  (PRN 14)", "OBJECT_ID": "2020-078A", "EPOCH": "2025-12-16T01:06:13.902336", "MEAN_MOTION": 2.00566891, "ECCENTRICITY": 0.0064754, "INCLINATION": 54.0144, "RA_OF_ASC_NODE": 218.2068, "ARG_OF_PERICENTER": 203.3802, "MEAN_ANOMALY": 339.3962, "EPHEMERIS_TYPE": 0, "CLASSIFICATION_TYPE": "U", "NORAD_CAT_ID": 46826, "ELEMENT_SET_NO": 999, "REV_AT_EPOCH": 3783, "BSTAR": 0, "MEAN_MOTION_DOT": 6.7e-07, "MEAN_MOTION_DDOT": 0}, "tle": {"line1": "1 46826U 20078A   25350.04599424  .00000067  00000+0  00000+0 0  9996", "line2": "2 46826  54.0144 218.2068 0064754 203.3802 339.3962  2.00566891 37830"}}, "geometry": {"type": "Point", "coordinates": [-114.84985817861397, 32.46139596403612]}}, {"type": "Feature", "properties": {"norad_id": 48859, "name": "GPS BIII-5  (PRN 11)", "group": "gps-ops", "lat": -36.38130754020397, "lon": -170.03289700906188, "alt_km": 20122.604015299556, "timestamp": "2025-12-30T19:23:22.090536+00:00", "meta": {"OBJECT_NAME": "GPS BIII-5  (PRN 11)", "OBJECT_ID": "2021-054A", "EPOCH": "2025-12-08T04:14:32.423424", "MEAN_MOTION": 2.00553627, "ECCENTRICITY": 0.0024678, "INCLINATION": 55.2581, "RA_OF_ASC_NODE": 340.1367, "ARG_OF_PERICENTER": 233.3993, "MEAN_ANOMALY": 212.8594, "EPHEMERIS_TYPE": 0, "CLASSIFICATION_TYPE": "U", "NORAD_CAT_ID": 48859, "ELEMENT_SET_NO": 999, "REV_AT_EPOCH": 3292, "BSTAR": 0, "MEAN_MOTION_DOT": -8.6e-07, "MEAN_MOTION_DDOT": 0}, "tle": {"line1": "1 48859U 21054A   25342.17676416 -.00000086  00000+0  00000+0 0  9993", "line2": "2 48859  55.2581 340.1367 0024678 233.3993 212.8594  2.00553627 32922"}}, "geometry": {"type": "Point", "coordinates": [-170.03289700906188, -36.38130754020397]}}, {"type": "Feature", "properties": {"norad_id": 55268, "name": "GPS BIII-6  (PRN 28)", "group": "gps-ops", "lat": -55.069173708791006, "lon": 63.0253994398494, "alt_km": 20188.351818473748, "timestamp": "2025-12-30T19:23:22.090547+00:00", "meta": {"OBJECT_NAME": "GPS BIII-6  (PRN 28)", "OBJECT_ID": "2023-009A", "EPOCH": "2025-12-22T10:59:58.065216", "MEAN_MOTION": 2.00554901, "ECCENTRICITY": 0.00037047, "INCLINATION": 55.1065, "RA_OF_ASC_NODE": 155.4638, "ARG_OF_PERICENTER": 355.7912, "MEAN_ANOMALY": 4.4255, "EPHEMERIS_TYPE": 0, "CLASSIFICATION_TYPE": "U", "NORAD_CAT_ID": 55268, "ELEMENT_SET_NO": 999, "REV_AT_EPOCH": 2170, "BSTAR": 0, "MEAN_MOTION_DOT": 7.4e-07, "MEAN_MOTION_DDOT": 0}, "tle": {"line1": "1 55268U 23009A   25356.45831094  .00000074  00000+0  00000+0 0  9994", "line2": "2 55268  55.1065 155.4638 0003704 355.7912   4.4255  2.00554901 21704"}}, "geometry": {"type": "Point", "coordinates": [63.0253994398494, -55.069173708791006]}}, {"type": "Feature", "properties": {"norad_id": 62339, "name": "GPS BIII-7  (PRN 01)", "group": "gps-ops", "lat": -10.615397235497545, "lon": -26.57049003721671, "alt_km": 20149.067217113206, "timestamp": "2025-12-30T19:23:22.090559+00:00", "meta": {"OBJECT_NAME": "GPS BIII-7  (PRN 01)", "OBJECT_ID": "2024-242A", "EPOCH": "2025-12-28T14:00:42.903360", "MEAN_MOTION": 2.00567893, "ECCENTRICITY": 0.0012966, "INCLINATION": 54.9186, "RA_OF_ASC_NODE": 341.0992, "ARG_OF_PERICENTER": 346.5216, "MEAN_ANOMALY": 194.5508, "EPHEMERIS_TYPE": 0, "CLASSIFICATION_TYPE": "U", "NORAD_CAT_ID": 62339, "ELEMENT_SET_NO": 999, "REV_AT_EPOCH": 783, "BSTAR": 0, "MEAN_MOTION_DOT": -6.5e-07, "MEAN_MOTION_DDOT": 0}, "tle": {"line1": "1 62339U 24242A   25362.58382990 -.00000065  00000+0  00000+0 0  9999", "line2": "2 62339  54.9186 341.0992 0012966 346.5216 194.5508  2.00567893  7837"}}, "geometry": {"type": "Point", "coordinates": [-26.57049003721671, -10.615397235497545]}}, {"type": "Feature", "properties": {"norad_id": 64202, "name": "GPS BIII-8  (PRN 21)", "group": "gps-ops", "lat": 3.4793416641812973, "lon": -144.49994437134242, "alt_km": 20194.182414898776, "timestamp": "2025-12-30T19:23:22.090572+00:00", "meta": {"OBJECT_NAME": "GPS BIII-8  (PRN 21)", "OBJECT_ID": "2025-116A", "EPOCH": "2025-12-28T04:53:28.544640", "MEAN_MOTION": 2.00557029, "ECCENTRICITY": 0.00060773, "INCLINATION": 55.1169, "RA_OF_ASC_NODE": 38.017, "ARG_OF_PERICENTER": 311.5812, "MEAN_ANOMALY": 144.0093, "EPHEMERIS_TYPE": 0, "CLASSIFICATION_TYPE": "U", "NORAD_CAT_ID": 64202, "ELEMENT_SET_NO": 999, "REV_AT_EPOCH": 444, "BSTAR": 0, "MEAN_MOTION_DOT": -5.4e-07, "MEAN_MOTION_DDOT": 0}, "tle": {"line1": "1 64202U 25116A   25362.20380260 -.00000054  00000+0  00000+0 0  9996", "line2": "2 64202  55.1169  38.0170 0006077 311.5812 144.0093  2.00557029  4446"}}, "geometry": {"type": "Point", "coordinates": [-144.49994437134242, 3.4793416641812973]}}]}