{"type": "FeatureCollection", "features": [{"type": "Feature", "properties": {"norad_id": 26766, "name": "INTELSAT 10 (IS-10)", "group": "intelsat", "lat": 8.33530625205901, "lon": 130.69031656105523, "alt_km": 36156.09965024456, "timestamp": "2026-03-16T15:10:46.463813+00:00", "meta": {"OBJECT_NAME": "INTELSAT 10 (IS-10)", "OBJECT_ID": "2001-019A", "EPOCH": "2026-03-15T20:53:26.592288", "MEAN_MOTION": 0.99037589, "ECCENTRICITY": 0.00055173, "INCLINATION": 8.852, "RA_OF_ASC_NODE": 60.1967, "ARG_OF_PERICENTER": 274.9756, "MEAN_ANOMALY": 244.0073, "EPHEMERIS_TYPE": 0, "CLASSIFICATION_TYPE": "U", "NORAD_CAT_ID": 26766, "ELEMENT_SET_NO": 999, "REV_AT_EPOCH": 4465, "BSTAR": 0, "MEAN_MOTION_DOT": -2.9e-07, "MEAN_MOTION_DDOT": 0}, "tle": {"line1": "1 26766U 01019A   26074.87044667 -.00000029  00000+0  00000+0 0  9999", "line2": "2 26766   8.8520  60.1967 0005517 274.9756 244.0073  0.99037589 44658"}}, "geometry": {"type": "Point", "coordinates": [130.69031656105523, 8.33530625205901]}}, {"type": "Feature", "properties": {"norad_id": 26900, "name": "INTELSAT 902 (IS-902)", "group": "intelsat", "lat": -5.811779369932694, "lon": -8.164309114836806, "alt_km": 35767.792619974076, "timestamp": "2026-03-16T15:10:46.463837+00:00", "meta": {"OBJECT_NAME": "INTELSAT 902 (IS-902)", "OBJECT_ID": "2001-039A", "EPOCH": "2026-03-16T06:28:53.906304", "MEAN_MOTION": 1.00270405, "ECCENTRICITY": 0.00046172, "INCLINATION": 5.8833, "RA_OF_ASC_NODE": 72.9089, "ARG_OF_PERICENTER": 284.2689, "MEAN_ANOMALY": 223.7876, "EPHEMERIS_TYPE": 0, "CLASSIFICATION_TYPE": "U", "NORAD_CAT_ID": 26900, "ELEMENT_SET_NO": 999, "REV_AT_EPOCH": 8976, "BSTAR": 0, "MEAN_MOTION_DOT": -2.8e-06, "MEAN_MOTION_DDOT": 0}, "tle": {"line1": "1 26900U 01039A   26075.27006836 -.00000280  00000+0  00000+0 0  9991", "line2": "2 26900   5.8833  72.9089 0004617 284.2689 223.7876  1.00270405 89762"}}, "geometry": {"type": "Point", "coordinates": [-8.164309114836806, -5.811779369932694]}}, {"type": "Feature", "properties": {"norad_id": 27380, "name": "INTELSAT 904 (IS-904)", "group": "intelsat", "lat": -5.7876500111764155, "lon": 10.568556601303111, "alt_km": 35760.12159727519, "timestamp": "2026-03-16T15:10:46.463852+00:00", "meta": {"OBJECT_NAME": "INTELSAT 904 (IS-904)", "OBJECT_ID": "2002-007A", "EPOCH": "2026-03-15T07:29:55.572000", "MEAN_MOTION": 1.00270725, "ECCENTRICITY": 0.0006679, "INCLINATION": 6.6846, "RA_OF_ASC_NODE": 70.3034, "ARG_OF_PERICENTER": 316.3531, "MEAN_ANOMALY": 227.2529, "EPHEMERIS_TYPE": 0, "CLASSIFICATION_TYPE": "U", "NORAD_CAT_ID": 27380, "ELEMENT_SET_NO": 999, "REV_AT_EPOCH": 5082, "BSTAR": 0, "MEAN_MOTION_DOT": -2.22e-06, "MEAN_MOTION_DDOT": 0}, "tle": {"line1": "1 27380U 02007A   26074.31244875 -.00000222  00000+0  00000+0 0  9997", "line2": "2 27380   6.6846  70.3034 0006679 316.3531 227.2529  1.00270725 50827"}}, "geometry": {"type": "Point", "coordinates": [10.568556601303111, -5.7876500111764155]}}, {"type": "Feature", "properties": {"norad_id": 27426, "name": "DIRECTV 5 (TEMPO 1)", "group": "intelsat", "lat": -2.658613311420809, "lon": -68.30589969444092, "alt_km": 35781.585782063186, "timestamp": "2026-03-16T15:10:46.463866+00:00", "meta": {"OBJECT_NAME": "DIRECTV 5 (TEMPO 1)", "OBJECT_ID": "2002-023A", "EPOCH": "2026-03-16T02:46:22.745856", "MEAN_MOTION": 1.00272136, "ECCENTRICITY": 0.00034501, "INCLINATION": 4.6386, "RA_OF_ASC_NODE": 76.4644, "ARG_OF_PERICENTER": 286.504, "MEAN_ANOMALY": 102.2334, "EPHEMERIS_TYPE": 0, "CLASSIFICATION_TYPE": "U", "NORAD_CAT_ID": 27426, "ELEMENT_SET_NO": 999, "REV_AT_EPOCH": 8719, "BSTAR": 0, "MEAN_MOTION_DOT": -5.5e-07, "MEAN_MOTION_DDOT": 0}, "tle": {"line1": "1 27426U 02023A   26075.11554104 -.00000055  00000+0  00000+0 0  9998", "line2": "2 27426   4.6386  76.4644 0003450 286.5040 102.2334  1.00272136 87190"}}, "geometry": {"type": "Point", "coordinates": [-68.30589969444092, -2.658613311420809]}}, {"type": "Feature", "properties": {"norad_id": 27438, "name": "INTELSAT 905 (IS-905)", "group": "intelsat", "lat": -1.5314946299463499, "lon": -95.33855573283978, "alt_km": 35785.49515426789, "timestamp": "2026-03-16T15:10:46.463879+00:00", "meta": {"OBJECT_NAME": "INTELSAT 905 (IS-905)", "OBJECT_ID": "2002-027A", "EPOCH": "2026-03-08T16:38:59.462592", "MEAN_MOTION": 1.00272811, "ECCENTRICITY": 0.00031045, "INCLINATION": 6.5009, "RA_OF_ASC_NODE": 71.0066, "ARG_OF_PERICENTER": 285.0028, "MEAN_ANOMALY": 282.9238, "EPHEMERIS_TYPE": 0, "CLASSIFICATION_TYPE": "U", "NORAD_CAT_ID": 27438, "ELEMENT_SET_NO": 999, "REV_AT_EPOCH": 5035, "BSTAR": 0, "MEAN_MOTION_DOT": 9.5e-07, "MEAN_MOTION_DDOT": 0}, "tle": {"line1": "1 27438U 02027A   26067.69374378  .00000095  00000+0  00000+0 0  9995", "line2": "2 27438   6.5009  71.0066 0003104 285.0028 282.9238  1.00272811 50358"}}, "geometry": {"type": "Point", "coordinates": [-95.33855573283978, -1.5314946299463499]}}, {"type": "Feature", "properties": {"norad_id": 27445, "name": "GALAXY 3C (G-3C)", "group": "intelsat", "lat": -2.5691018639539083, "lon": -52.970041974638136, "alt_km": 35791.71065454705, "timestamp": "2026-03-16T15:10:46.463893+00:00", "meta": {"OBJECT_NAME": "GALAXY 3C (G-3C)", "OBJECT_ID": "2002-030A", "EPOCH": "2026-03-16T04:33:27.476640", "MEAN_MOTION": 1.00271564, "ECCENTRICITY": 0.00013359, "INCLINATION": 3.4913, "RA_OF_ASC_NODE": 79.2851, "ARG_OF_PERICENTER": 25.8214, "MEAN_ANOMALY": 42.2071, "EPHEMERIS_TYPE": 0, "CLASSIFICATION_TYPE": "U", "NORAD_CAT_ID": 27445, "ELEMENT_SET_NO": 999, "REV_AT_EPOCH": 4556, "BSTAR": 0, "MEAN_MOTION_DOT": -1.51e-06, "MEAN_MOTION_DDOT": 0}, "tle": {"line1": "1 27445U 02030A   26075.18990135 -.00000151  00000+0  00000+0 0  9999", "line2": "2 27445   3.4913  79.2851 0001335  25.8214  42.2071  1.00271564 45562"}}, "geometry": {"type": "Point", "coordinates": [-52.970041974638136, -2.5691018639539083]}}, {"type": "Feature", "properties": {"norad_id": 27513, "name": "INTELSAT 906 (IS-906)", "group": "intelsat", "lat": 2.925488715215564, "lon": 105.9516067806027, "alt_km": 35790.4732700071, "timestamp": "2026-03-16T15:10:46.463905+00:00", "meta": {"OBJECT_NAME": "INTELSAT 906 (IS-906)", "OBJECT_ID": "2002-041A", "EPOCH": "2026-03-16T01:53:20.334048", "MEAN_MOTION": 1.00271783, "ECCENTRICITY": 0.00030385, "INCLINATION": 5.5668, "RA_OF_ASC_NODE": 74.0599, "ARG_OF_PERICENTER": 280.1602, "MEAN_ANOMALY": 271.9103, "EPHEMERIS_TYPE": 0, "CLASSIFICATION_TYPE": "U", "NORAD_CAT_ID": 27513, "ELEMENT_SET_NO": 999, "REV_AT_EPOCH": 8609, "BSTAR": 0, "MEAN_MOTION_DOT": 1.6e-07, "MEAN_MOTION_DDOT": 0}, "tle": {"line1": "1 27513U 02041A   26075.07870757  .00000016  00000+0  00000+0 0  9991", "line2": "2 27513   5.5668  74.0599 0003038 280.1602 271.9103  1.00271783 86092"}}, "geometry": {"type": "Point", "coordinates": [105.9516067806027, 2.925488715215564]}}, {"type": "Feature", "properties": {"norad_id": 27954, "name": "GALAXY 13 (HORIZONS-1)", "group": "intelsat", "lat": 0.2953704443317212, "lon": -108.12854638660129, "alt_km": 35788.14733976495, "timestamp": "2026-03-16T15:10:46.463917+00:00", "meta": {"OBJECT_NAME": "GALAXY 13 (HORIZONS-1)", "OBJECT_ID": "2003-044A", "EPOCH": "2026-03-16T06:00:19.147104", "MEAN_MOTION": 1.00272395, "ECCENTRICITY": 0.00022133, "INCLINATION": 1.1783, "RA_OF_ASC_NODE": 85.09, "ARG_OF_PERICENTER": 271.1646, "MEAN_ANOMALY": 117.6338, "EPHEMERIS_TYPE": 0, "CLASSIFICATION_TYPE": "U", "NORAD_CAT_ID": 27954, "ELEMENT_SET_NO": 999, "REV_AT_EPOCH": 4564, "BSTAR": 0, "MEAN_MOTION_DOT": 1.33e-06, "MEAN_MOTION_DDOT": 0}, "tle": {"line1": "1 27954U 03044A   26075.25022161  .00000133  00000+0  00000+0 0  9992", "line2": "2 27954   1.1783  85.0900 0002213 271.1646 117.6338  1.00272395 45643"}}, "geometry": {"type": "Point", "coordinates": [-108.12854638660129, 0.2953704443317212]}}, {"type": "Feature", "properties": {"norad_id": 28358, "name": "INTELSAT 10-02", "group": "intelsat", "lat": -0.044343438572942845, "lon": 40.923925677135486, "alt_km": 35781.14553406325, "timestamp": "2026-03-16T15:10:46.463929+00:00", "meta": {"OBJECT_NAME": "INTELSAT 10-02", "OBJECT_ID": "2004-022A", "EPOCH": "2026-03-15T22:09:19.315872", "MEAN_MOTION": 1.00270394, "ECCENTRICITY": 0.00012899, "INCLINATION": 0.0244, "RA_OF_ASC_NODE": 116.9479, "ARG_OF_PERICENTER": 296.0371, "MEAN_ANOMALY": 91.8682, "EPHEMERIS_TYPE": 0, "CLASSIFICATION_TYPE": "U", "NORAD_CAT_ID": 28358, "ELEMENT_SET_NO": 999, "REV_AT_EPOCH": 7962, "BSTAR": 0, "MEAN_MOTION_DOT": -1.2e-07, "MEAN_MOTION_DDOT": 0}, "tle": {"line1": "1 28358U 04022A   26074.92314023 -.00000012  00000+0  00000+0 0  9999", "line2": "2 28358   0.0244 116.9479 0001289 296.0371  91.8682  1.00270394 79627"}}, "geometry": {"type": "Point", "coordinates": [40.923925677135486, -0.044343438572942845]}}, {"type": "Feature", "properties": {"norad_id": 28659, "name": "DIRECTV 8", "group": "intelsat", "lat": 0.03777166807901179, "lon": -77.17223760966915, "alt_km": 35784.75579282727, "timestamp": "2026-03-16T15:10:46.463941+00:00", "meta": {"OBJECT_NAME": "DIRECTV 8", "OBJECT_ID": "2005-019A", "EPOCH": "2026-03-16T06:09:10.796544", "MEAN_MOTION": 1.0027262, "ECCENTRICITY": 0.00032351, "INCLINATION": 0.0195, "RA_OF_ASC_NODE": 156.8415, "ARG_OF_PERICENTER": 211.6954, "MEAN_ANOMALY": 138.5427, "EPHEMERIS_TYPE": 0, "CLASSIFICATION_TYPE": "U", "NORAD_CAT_ID": 28659, "ELEMENT_SET_NO": 999, "REV_AT_EPOCH": 7614, "BSTAR": 0, "MEAN_MOTION_DOT": 1e-08, "MEAN_MOTION_DDOT": 0}, "tle": {"line1": "1 28659U 05019A   26075.25637496  .00000001  00000+0  00000+0 0  9996", "line2": "2 28659   0.0195 156.8415 0003235 211.6954 138.5427  1.00272620 76146"}}, "geometry": {"type": "Point", "coordinates": [-77.17223760966915, 0.03777166807901179]}}, {"type": "Feature", "properties": {"norad_id": 28702, "name": "GALAXY 28 (G-28)", "group": "intelsat", "lat": -2.7902416875139537, "lon": 14.857762108373228, "alt_km": 35778.06349581295, "timestamp": "2026-03-16T15:10:46.463953+00:00", "meta": {"OBJECT_NAME": "GALAXY 28 (G-28)", "OBJECT_ID": "2005-022A", "EPOCH": "2026-03-16T06:37:10.748640", "MEAN_MOTION": 1.00272661, "ECCENTRICITY": 0.00020189, "INCLINATION": 3.0593, "RA_OF_ASC_NODE": 80.087, "ARG_OF_PERICENTER": 277.4945, "MEAN_ANOMALY": 248.4778, "EPHEMERIS_TYPE": 0, "CLASSIFICATION_TYPE": "U", "NORAD_CAT_ID": 28702, "ELEMENT_SET_NO": 999, "REV_AT_EPOCH": 5104, "BSTAR": 0, "MEAN_MOTION_DOT": -1.99e-06, "MEAN_MOTION_DDOT": 0}, "tle": {"line1": "1 28702U 05022A   26075.27581885 -.00000199  00000+0  00000+0 0  9990", "line2": "2 28702   3.0593  80.0870 0002018 277.4945 248.4778  1.00272661 51048"}}, "geometry": {"type": "Point", "coordinates": [14.857762108373228, -2.7902416875139537]}}, {"type": "Feature", "properties": {"norad_id": 29236, "name": "GALAXY 16 (G-16)", "group": "intelsat", "lat": 0.04301704298803035, "lon": -57.12175757156925, "alt_km": 35781.3288771175, "timestamp": "2026-03-16T15:10:46.463965+00:00", "meta": {"OBJECT_NAME": "GALAXY 16 (G-16)", "OBJECT_ID": "2006-023A", "EPOCH": "2026-03-16T04:20:38.870880", "MEAN_MOTION": 1.00271138, "ECCENTRICITY": 0.00027369, "INCLINATION": 0.0341, "RA_OF_ASC_NODE": 228.255, "ARG_OF_PERICENTER": 139.5571, "MEAN_ANOMALY": 132.1042, "EPHEMERIS_TYPE": 0, "CLASSIFICATION_TYPE": "U", "NORAD_CAT_ID": 29236, "ELEMENT_SET_NO": 999, "REV_AT_EPOCH": 7204, "BSTAR": 0, "MEAN_MOTION_DOT": -1.27e-06, "MEAN_MOTION_DDOT": 0}, "tle": {"line1": "1 29236U 06023A   26075.18100545 -.00000127  00000+0  00000+0 0  9996", "line2": "2 29236   0.0341 228.2550 0002736 139.5571 132.1042  1.00271138 72044"}}, "geometry": {"type": "Point", "coordinates": [-57.12175757156925, 0.04301704298803035]}}, {"type": "Feature", "properties": {"norad_id": 29494, "name": "DIRECTV 9S", "group": "intelsat", "lat": -1.3428757742462143, "lon": -59.330255795445034, "alt_km": 35781.080829272, "timestamp": "2026-03-16T15:10:46.463991+00:00", "meta": {"OBJECT_NAME": "DIRECTV 9S", "OBJECT_ID": "2006-043A", "EPOCH": "2026-03-16T06:14:17.805984", "MEAN_MOTION": 1.00271926, "ECCENTRICITY": 0.00032301, "INCLINATION": 2.1791, "RA_OF_ASC_NODE": 82.0375, "ARG_OF_PERICENTER": 286.7354, "MEAN_ANOMALY": 157.4528, "EPHEMERIS_TYPE": 0, "CLASSIFICATION_TYPE": "U", "NORAD_CAT_ID": 29494, "ELEMENT_SET_NO": 999, "REV_AT_EPOCH": 5045, "BSTAR": 0, "MEAN_MOTION_DOT": -1.13e-06, "MEAN_MOTION_DDOT": 0}, "tle": {"line1": "1 29494U 06043A   26075.25992831 -.00000113  00000+0  00000+0 0  9994", "line2": "2 29494   2.1791  82.0375 0003230 286.7354 157.4528  1.00271926 50452"}}, "geometry": {"type": "Point", "coordinates": [-59.330255795445034, -1.3428757742462143]}}, {"type": "Feature", "properties": {"norad_id": 31307, "name": "GALAXY 17 (G-17)", "group": "intelsat", "lat": -2.249632109760878, "lon": -43.13907200824786, "alt_km": 35776.17230174932, "timestamp": "2026-03-16T15:10:46.464006+00:00", "meta": {"OBJECT_NAME": "GALAXY 17 (G-17)", "OBJECT_ID": "2007-016B", "EPOCH": "2026-03-16T04:04:38.756064", "MEAN_MOTION": 1.00272631, "ECCENTRICITY": 0.00034843, "INCLINATION": 2.7347, "RA_OF_ASC_NODE": 81.0763, "ARG_OF_PERICENTER": 283.2942, "MEAN_ANOMALY": 145.5502, "EPHEMERIS_TYPE": 0, "CLASSIFICATION_TYPE": "U", "NORAD_CAT_ID": 31307, "ELEMENT_SET_NO": 999, "REV_AT_EPOCH": 6887, "BSTAR": 0, "MEAN_MOTION_DOT": -2.05e-06, "MEAN_MOTION_DDOT": 0}, "tle": {"line1": "1 31307U 07016B   26075.16989301 -.00000205  00000+0  00000+0 0  9991", "line2": "2 31307   2.7347  81.0763 0003484 283.2942 145.5502  1.00272631 68876"}}, "geometry": {"type": "Point", "coordinates": [-43.13907200824786, -2.249632109760878]}}, {"type": "Feature", "properties": {"norad_id": 31862, "name": "DIRECTV 10", "group": "intelsat", "lat": -0.17145443857852466, "lon": 6.468158187047948, "alt_km": 36308.430944734195, "timestamp": "2026-03-16T15:10:46.464018+00:00", "meta": {"OBJECT_NAME": "DIRECTV 10", "OBJECT_ID": "2007-032A", "EPOCH": "2026-03-16T06:21:30.030624", "MEAN_MOTION": 0.98339302, "ECCENTRICITY": 0.00067795, "INCLINATION": 0.161, "RA_OF_ASC_NODE": 97.8418, "ARG_OF_PERICENTER": 281.7298, "MEAN_ANOMALY": 216.7757, "EPHEMERIS_TYPE": 0, "CLASSIFICATION_TYPE": "U", "NORAD_CAT_ID": 31862, "ELEMENT_SET_NO": 999, "REV_AT_EPOCH": 4465, "BSTAR": 0, "MEAN_MOTION_DOT": -1.78e-06, "MEAN_MOTION_DDOT": 0}, "tle": {"line1": "1 31862U 07032A   26075.26493091 -.00000178  00000+0  00000+0 0  9991", "line2": "2 31862   0.1610  97.8418 0006779 281.7298 216.7757  0.98339302 44654"}}, "geometry": {"type": "Point", "coordinates": [6.468158187047948, -0.17145443857852466]}}, {"type": "Feature", "properties": {"norad_id": 32253, "name": "INTELSAT 11 (IS-11)", "group": "intelsat", "lat": 2.3733282547395085, "lon": -145.30417170260435, "alt_km": 36126.49675721639, "timestamp": "2026-03-16T15:10:46.464030+00:00", "meta": {"OBJECT_NAME": "INTELSAT 11 (IS-11)", "OBJECT_ID": "2007-044B", "EPOCH": "2026-03-16T06:22:38.623584", "MEAN_MOTION": 0.9905347, "ECCENTRICITY": 0.00041755, "INCLINATION": 3.3216, "RA_OF_ASC_NODE": 79.8015, "ARG_OF_PERICENTER": 210.5531, "MEAN_ANOMALY": 153.5434, "EPHEMERIS_TYPE": 0, "CLASSIFICATION_TYPE": "U", "NORAD_CAT_ID": 32253, "ELEMENT_SET_NO": 999, "REV_AT_EPOCH": 6753, "BSTAR": 0, "MEAN_MOTION_DOT": -1.89e-06, "MEAN_MOTION_DDOT": 0}, "tle": {"line1": "1 32253U 07044B   26075.26572481 -.00000189  00000+0  00000+0 0  9992", "line2": "2 32253   3.3216  79.8015 0004175 210.5531 153.5434  0.99053470 67539"}}, "geometry": {"type": "Point", "coordinates": [-145.30417170260435, 2.3733282547395085]}}, {"type": "Feature", "properties": {"norad_id": 32388, "name": "HORIZONS-2", "group": "intelsat", "lat": -2.1544134532872325, "lon": -31.902771301914587, "alt_km": 35777.80310769472, "timestamp": "2026-03-16T15:10:46.464042+00:00", "meta": {"OBJECT_NAME": "HORIZONS-2", "OBJECT_ID": "2007-063B", "EPOCH": "2026-03-16T06:22:09.551712", "MEAN_MOTION": 1.0027233, "ECCENTRICITY": 0.00023984, "INCLINATION": 2.3608, "RA_OF_ASC_NODE": 81.7885, "ARG_OF_PERICENTER": 280.2112, "MEAN_ANOMALY": 193.6036, "EPHEMERIS_TYPE": 0, "CLASSIFICATION_TYPE": "U", "NORAD_CAT_ID": 32388, "ELEMENT_SET_NO": 999, "REV_AT_EPOCH": 6688, "BSTAR": 0, "MEAN_MOTION_DOT": -2.52e-06, "MEAN_MOTION_DDOT": 0}, "tle": {"line1": "1 32388U 07063B   26075.26538833 -.00000252  00000+0  00000+0 0  9996", "line2": "2 32388   2.3608  81.7885 0002398 280.2112 193.6036  1.00272330 66884"}}, "geometry": {"type": "Point", "coordinates": [-31.902771301914587, -2.1544134532872325]}}, {"type": "Feature", "properties": {"norad_id": 32729, "name": "DIRECTV 11", "group": "intelsat", "lat": -0.003831003263111235, "lon": -57.27335462348833, "alt_km": 35785.97989705037, "timestamp": "2026-03-16T15:10:46.464054+00:00", "meta": {"OBJECT_NAME": "DIRECTV 11", "OBJECT_ID": "2008-013A", "EPOCH": "2026-03-16T04:20:38.870880", "MEAN_MOTION": 1.00271817, "ECCENTRICITY": 2.482e-05, "INCLINATION": 0.02, "RA_OF_ASC_NODE": 347.7366, "ARG_OF_PERICENTER": 39.4614, "MEAN_ANOMALY": 112.54, "EPHEMERIS_TYPE": 0, "CLASSIFICATION_TYPE": "U", "NORAD_CAT_ID": 32729, "ELEMENT_SET_NO": 999, "REV_AT_EPOCH": 4466, "BSTAR": 0, "MEAN_MOTION_DOT": -1.26e-06, "MEAN_MOTION_DDOT": 0}, "tle": {"line1": "1 32729U 08013A   26075.18100545 -.00000126  00000+0  00000+0 0  9997", "line2": "2 32729   0.0200 347.7366 0000248  39.4614 112.5400  1.00271817 44664"}}, "geometry": {"type": "Point", "coordinates": [-57.27335462348833, -0.003831003263111235]}}, {"type": "Feature", "properties": {"norad_id": 32951, "name": "GALAXY 18 (G-18)", "group": "intelsat", "lat": 0.01872362208772927, "lon": -81.14125781114208, "alt_km": 35786.143363179246, "timestamp": "2026-03-16T15:10:46.464065+00:00", "meta": {"OBJECT_NAME": "GALAXY 18 (G-18)", "OBJECT_ID": "2008-024A", "EPOCH": "2026-03-15T23:17:20.293728", "MEAN_MOTION": 1.0026779, "ECCENTRICITY": 0.00029075, "INCLINATION": 0.0226, "RA_OF_ASC_NODE": 105.8228, "ARG_OF_PERICENTER": 258.4499, "MEAN_ANOMALY": 35.6022, "EPHEMERIS_TYPE": 0, "CLASSIFICATION_TYPE": "U", "NORAD_CAT_ID": 32951, "ELEMENT_SET_NO": 999, "REV_AT_EPOCH": 4491, "BSTAR": 0, "MEAN_MOTION_DOT": 2.5e-07, "MEAN_MOTION_DDOT": 0}, "tle": {"line1": "1 32951U 08024A   26074.97037377  .00000025  00000+0  00000+0 0  9991", "line2": "2 32951   0.0226 105.8228 0002907 258.4499  35.6022  1.00267790 44915"}}, "geometry": {"type": "Point", "coordinates": [-81.14125781114208, 0.01872362208772927]}}, {"type": "Feature", "properties": {"norad_id": 33153, "name": "INTELSAT 25 (IS-25)", "group": "intelsat", "lat": -2.3425910897415188, "lon": 10.461777706655312, "alt_km": 35775.44224115881, "timestamp": "2026-03-16T15:10:46.464077+00:00", "meta": {"OBJECT_NAME": "INTELSAT 25 (IS-25)", "OBJECT_ID": "2008-034A", "EPOCH": "2026-03-16T06:34:08.404032", "MEAN_MOTION": 1.00273176, "ECCENTRICITY": 0.00032673, "INCLINATION": 2.4661, "RA_OF_ASC_NODE": 81.4548, "ARG_OF_PERICENTER": 248.7477, "MEAN_ANOMALY": 270.6947, "EPHEMERIS_TYPE": 0, "CLASSIFICATION_TYPE": "U", "NORAD_CAT_ID": 33153, "ELEMENT_SET_NO": 999, "REV_AT_EPOCH": 6476, "BSTAR": 0, "MEAN_MOTION_DOT": -2.23e-06, "MEAN_MOTION_DDOT": 0}, "tle": {"line1": "1 33153U 08034A   26075.27370838 -.00000223  00000+0  00000+0 0  9994", "line2": "2 33153   2.4661  81.4548 0003267 248.7477 270.6947  1.00273176 64768"}}, "geometry": {"type": "Point", "coordinates": [10.461777706655312, -2.3425910897415188]}}, {"type": "Feature", "properties": {"norad_id": 33376, "name": "GALAXY 19 (G-19)", "group": "intelsat", "lat": 0.03979940236988862, "lon": -55.11722536719998, "alt_km": 35780.72977569156, "timestamp": "2026-03-16T15:10:46.464093+00:00", "meta": {"OBJECT_NAME": "GALAXY 19 (G-19)", "OBJECT_ID": "2008-045A", "EPOCH": "2026-03-16T04:20:38.870880", "MEAN_MOTION": 1.00271432, "ECCENTRICITY": 0.0002782, "INCLINATION": 0.0445, "RA_OF_ASC_NODE": 258.4149, "ARG_OF_PERICENTER": 109.0249, "MEAN_ANOMALY": 134.4804, "EPHEMERIS_TYPE": 0, "CLASSIFICATION_TYPE": "U", "NORAD_CAT_ID": 33376, "ELEMENT_SET_NO": 999, "REV_AT_EPOCH": 6397, "BSTAR": 0, "MEAN_MOTION_DOT": -1.4e-06, "MEAN_MOTION_DDOT": 0}, "tle": {"line1": "1 33376U 08045A   26075.18100545 -.00000140  00000+0  00000+0 0  9997", "line2": "2 33376   0.0445 258.4149 0002782 109.0249 134.4804  1.00271432 63973"}}, "geometry": {"type": "Point", "coordinates": [-55.11722536719998, 0.03979940236988862]}}, {"type": "Feature", "properties": {"norad_id": 35493, "name": "FM-5", "group": "intelsat", "lat": 0.03202427325721623, "lon": -44.226672890198394, "alt_km": 35785.75579222492, "timestamp": "2026-03-16T15:10:46.464106+00:00", "meta": {"OBJECT_NAME": "FM-5", "OBJECT_ID": "2009-034A", "EPOCH": "2026-03-16T04:12:38.684736", "MEAN_MOTION": 1.00271854, "ECCENTRICITY": 4.877e-05, "INCLINATION": 0.0394, "RA_OF_ASC_NODE": 265.2068, "ARG_OF_PERICENTER": 330.1938, "MEAN_ANOMALY": 275.3694, "EPHEMERIS_TYPE": 0, "CLASSIFICATION_TYPE": "U", "NORAD_CAT_ID": 35493, "ELEMENT_SET_NO": 999, "REV_AT_EPOCH": 4571, "BSTAR": 0, "MEAN_MOTION_DOT": -2.01e-06, "MEAN_MOTION_DDOT": 0}, "tle": {"line1": "1 35493U 09034A   26075.17544774 -.00000201  00000+0  00000+0 0  9991", "line2": "2 35493   0.0394 265.2068 0000487 330.1938 275.3694  1.00271854 45718"}}, "geometry": {"type": "Point", "coordinates": [-44.226672890198394, 0.03202427325721623]}}, {"type": "Feature", "properties": {"norad_id": 36097, "name": "INTELSAT 14 (IS-14)", "group": "intelsat", "lat": -0.028853811079441117, "lon": -3.080862518830442, "alt_km": 35776.372280576514, "timestamp": "2026-03-16T15:10:46.464118+00:00", "meta": {"OBJECT_NAME": "INTELSAT 14 (IS-14)", "OBJECT_ID": "2009-064A", "EPOCH": "2026-03-16T06:30:16.274880", "MEAN_MOTION": 1.00271254, "ECCENTRICITY": 0.00023375, "INCLINATION": 0.0247, "RA_OF_ASC_NODE": 93.153, "ARG_OF_PERICENTER": 263.6418, "MEAN_ANOMALY": 229.6282, "EPHEMERIS_TYPE": 0, "CLASSIFICATION_TYPE": "U", "NORAD_CAT_ID": 36097, "ELEMENT_SET_NO": 999, "REV_AT_EPOCH": 5967, "BSTAR": 0, "MEAN_MOTION_DOT": -2.74e-06, "MEAN_MOTION_DDOT": 0}, "tle": {"line1": "1 36097U 09064A   26075.27102170 -.00000274  00000+0  00000+0 0  9996", "line2": "2 36097   0.0247  93.1530 0002337 263.6418 229.6282  1.00271254 59676"}}, "geometry": {"type": "Point", "coordinates": [-3.080862518830442, -0.028853811079441117]}}, {"type": "Feature", "properties": {"norad_id": 36106, "name": "INTELSAT 15 (IS-15)", "group": "intelsat", "lat": -0.001355959672142827, "lon": 127.08887947661047, "alt_km": 35792.191605348715, "timestamp": "2026-03-16T15:10:46.464130+00:00", "meta": {"OBJECT_NAME": "INTELSAT 15 (IS-15)", "OBJECT_ID": "2009-067A", "EPOCH": "2026-03-16T03:42:02.409120", "MEAN_MOTION": 1.0027125, "ECCENTRICITY": 0.00022372, "INCLINATION": 0.0176, "RA_OF_ASC_NODE": 104.5242, "ARG_OF_PERICENTER": 253.905, "MEAN_ANOMALY": 315.9708, "EPHEMERIS_TYPE": 0, "CLASSIFICATION_TYPE": "U", "NORAD_CAT_ID": 36106, "ELEMENT_SET_NO": 999, "REV_AT_EPOCH": 4029, "BSTAR": 0, "MEAN_MOTION_DOT": -1.85e-06, "MEAN_MOTION_DDOT": 0}, "tle": {"line1": "1 36106U 09067A   26075.15419455 -.00000185  00000+0  00000+0 0  9995", "line2": "2 36106   0.0176 104.5242 0002237 253.9050 315.9708  1.00271250 40294"}}, "geometry": {"type": "Point", "coordinates": [127.08887947661047, -0.001355959672142827]}}, {"type": "Feature", "properties": {"norad_id": 36131, "name": "DIRECTV 12", "group": "intelsat", "lat": 0.0028294177334972992, "lon": -60.80885013630591, "alt_km": 35787.0183569937, "timestamp": "2026-03-16T15:10:46.464141+00:00", "meta": {"OBJECT_NAME": "DIRECTV 12", "OBJECT_ID": "2009-075A", "EPOCH": "2026-03-16T06:13:55.341984", "MEAN_MOTION": 1.00270945, "ECCENTRICITY": 4.908e-05, "INCLINATION": 0.0171, "RA_OF_ASC_NODE": 43.5439, "ARG_OF_PERICENTER": 5.6203, "MEAN_ANOMALY": 115.4381, "EPHEMERIS_TYPE": 0, "CLASSIFICATION_TYPE": "U", "NORAD_CAT_ID": 36131, "ELEMENT_SET_NO": 999, "REV_AT_EPOCH": 4562, "BSTAR": 0, "MEAN_MOTION_DOT": -1.04e-06, "MEAN_MOTION_DDOT": 0}, "tle": {"line1": "1 36131U 09075A   26075.25966831 -.00000104  00000+0  00000+0 0  9999", "line2": "2 36131   0.0171  43.5439 0000490   5.6203 115.4381  1.00270945 45620"}}, "geometry": {"type": "Point", "coordinates": [-60.80885013630591, 0.0028294177334972992]}}, {"type": "Feature", "properties": {"norad_id": 36397, "name": "INTELSAT 16 (IS-16)", "group": "intelsat", "lat": 0.014847768090660867, "lon": -34.28987621396952, "alt_km": 35780.71302209038, "timestamp": "2026-03-16T15:10:46.464153+00:00", "meta": {"OBJECT_NAME": "INTELSAT 16 (IS-16)", "OBJECT_ID": "2010-006A", "EPOCH": "2026-03-16T06:21:24.623712", "MEAN_MOTION": 1.00271807, "ECCENTRICITY": 0.00017584, "INCLINATION": 0.024, "RA_OF_ASC_NODE": 262.306, "ARG_OF_PERICENTER": 107.1215, "MEAN_ANOMALY": 183.5784, "EPHEMERIS_TYPE": 0, "CLASSIFICATION_TYPE": "U", "NORAD_CAT_ID": 36397, "ELEMENT_SET_NO": 999, "REV_AT_EPOCH": 5872, "BSTAR": 0, "MEAN_MOTION_DOT": -2.45e-06, "MEAN_MOTION_DDOT": 0}, "tle": {"line1": "1 36397U 10006A   26075.26486833 -.00000245  00000+0  00000+0 0  9995", "line2": "2 36397   0.0240 262.3060 0001758 107.1215 183.5784  1.00271807 58727"}}, "geometry": {"type": "Point", "coordinates": [-34.28987621396952, 0.014847768090660867]}}, {"type": "Feature", "properties": {"norad_id": 37185, "name": "XM-5", "group": "intelsat", "lat": 0.03939209662034102, "lon": -73.24664949543994, "alt_km": 35793.528017696335, "timestamp": "2026-03-16T15:10:46.464165+00:00", "meta": {"OBJECT_NAME": "XM-5", "OBJECT_ID": "2010-053A", "EPOCH": "2026-03-16T04:27:35.540064", "MEAN_MOTION": 1.00270439, "ECCENTRICITY": 0.00036498, "INCLINATION": 0.07, "RA_OF_ASC_NODE": 271.2318, "ARG_OF_PERICENTER": 258.2184, "MEAN_ANOMALY": 316.0172, "EPHEMERIS_TYPE": 0, "CLASSIFICATION_TYPE": "U", "NORAD_CAT_ID": 37185, "ELEMENT_SET_NO": 999, "REV_AT_EPOCH": 5655, "BSTAR": 0, "MEAN_MOTION_DOT": -2.3e-07, "MEAN_MOTION_DDOT": 0}, "tle": {"line1": "1 37185U 10053A   26075.18582801 -.00000023  00000+0  00000+0 0  9990", "line2": "2 37185   0.0700 271.2318 0003649 258.2184 316.0172  1.00270439 56556"}}, "geometry": {"type": "Point", "coordinates": [-73.24664949543994, 0.03939209662034102]}}, {"type": "Feature", "properties": {"norad_id": 37238, "name": "INTELSAT 17 (IS-17)", "group": "intelsat", "lat": -0.0400111479616326, "lon": 107.9391167535294, "alt_km": 35786.29308980456, "timestamp": "2026-03-16T15:10:46.464176+00:00", "meta": {"OBJECT_NAME": "INTELSAT 17 (IS-17)", "OBJECT_ID": "2010-065B", "EPOCH": "2026-03-16T06:41:38.702688", "MEAN_MOTION": 1.0027164, "ECCENTRICITY": 0.00026852, "INCLINATION": 0.0215, "RA_OF_ASC_NODE": 202.3577, "ARG_OF_PERICENTER": 174.901, "MEAN_ANOMALY": 323.0041, "EPHEMERIS_TYPE": 0, "CLASSIFICATION_TYPE": "U", "NORAD_CAT_ID": 37238, "ELEMENT_SET_NO": 999, "REV_AT_EPOCH": 5231, "BSTAR": 0, "MEAN_MOTION_DOT": -2e-08, "MEAN_MOTION_DDOT": 0}, "tle": {"line1": "1 37238U 10065B   26075.27892017 -.00000002  00000+0  00000+0 0  9992", "line2": "2 37238   0.0215 202.3577 0002685 174.9010 323.0041  1.00271640 52317"}}, "geometry": {"type": "Point", "coordinates": [107.9391167535294, -0.0400111479616326]}}, {"type": "Feature", "properties": {"norad_id": 37392, "name": "INTELSAT 28 (IS-28)", "group": "intelsat", "lat": -1.511891416190681, "lon": 10.238974910412077, "alt_km": 35767.45074767036, "timestamp": "2026-03-16T15:10:46.464188+00:00", "meta": {"OBJECT_NAME": "INTELSAT 28 (IS-28)", "OBJECT_ID": "2011-016A", "EPOCH": "2026-03-16T06:34:08.404032", "MEAN_MOTION": 1.00271278, "ECCENTRICITY": 0.00045943, "INCLINATION": 1.5642, "RA_OF_ASC_NODE": 83.8067, "ARG_OF_PERICENTER": 273.9456, "MEAN_ANOMALY": 242.9461, "EPHEMERIS_TYPE": 0, "CLASSIFICATION_TYPE": "U", "NORAD_CAT_ID": 37392, "ELEMENT_SET_NO": 999, "REV_AT_EPOCH": 5235, "BSTAR": 0, "MEAN_MOTION_DOT": -2.24e-06, "MEAN_MOTION_DDOT": 0}, "tle": {"line1": "1 37392U 11016A   26075.27370838 -.00000224  00000+0  00000+0 0  9998", "line2": "2 37392   1.5642  83.8067 0004594 273.9456 242.9461  1.00271278 52355"}}, "geometry": {"type": "Point", "coordinates": [10.238974910412077, -1.511891416190681]}}, {"type": "Feature", "properties": {"norad_id": 37834, "name": "INTELSAT 18 (IS-18)", "group": "intelsat", "lat": 0.005008966845579313, "lon": -138.10532825193565, "alt_km": 35792.02541998961, "timestamp": "2026-03-16T15:10:46.464199+00:00", "meta": {"OBJECT_NAME": "INTELSAT 18 (IS-18)", "OBJECT_ID": "2011-056A", "EPOCH": "2026-03-16T05:13:38.745120", "MEAN_MOTION": 1.00270881, "ECCENTRICITY": 0.00017029, "INCLINATION": 0.0315, "RA_OF_ASC_NODE": 256.4018, "ARG_OF_PERICENTER": 108.1575, "MEAN_ANOMALY": 67.6428, "EPHEMERIS_TYPE": 0, "CLASSIFICATION_TYPE": "U", "NORAD_CAT_ID": 37834, "ELEMENT_SET_NO": 999, "REV_AT_EPOCH": 5287, "BSTAR": 0, "MEAN_MOTION_DOT": 5.2e-07, "MEAN_MOTION_DDOT": 0}, "tle": {"line1": "1 37834U 11056A   26075.21780955  .00000052  00000+0  00000+0 0  9990", "line2": "2 37834   0.0315 256.4018 0001702 108.1575  67.6428  1.00270881 52871"}}, "geometry": {"type": "Point", "coordinates": [-138.10532825193565, 0.005008966845579313]}}, {"type": "Feature", "properties": {"norad_id": 38098, "name": "INTELSAT 22 (IS-22)", "group": "intelsat", "lat": -0.010106391503461815, "lon": 114.01523561392197, "alt_km": 35789.91586195649, "timestamp": "2026-03-16T15:10:46.464211+00:00", "meta": {"OBJECT_NAME": "INTELSAT 22 (IS-22)", "OBJECT_ID": "2012-011A", "EPOCH": "2026-03-16T03:38:17.768256", "MEAN_MOTION": 1.00270815, "ECCENTRICITY": 0.00017413, "INCLINATION": 0.0266, "RA_OF_ASC_NODE": 107.8415, "ARG_OF_PERICENTER": 247.3128, "MEAN_ANOMALY": 305.2367, "EPHEMERIS_TYPE": 0, "CLASSIFICATION_TYPE": "U", "NORAD_CAT_ID": 38098, "ELEMENT_SET_NO": 999, "REV_AT_EPOCH": 625, "BSTAR": 0, "MEAN_MOTION_DOT": -5.9e-07, "MEAN_MOTION_DDOT": 0}, "tle": {"line1": "1 38098U 12011A   26075.15159454 -.00000059  00000+0  00000+0 0  9990", "line2": "2 38098   0.0266 107.8415 0001741 247.3128 305.2367  1.00270815  6253"}}, "geometry": {"type": "Point", "coordinates": [114.01523561392197, -0.010106391503461815]}}, {"type": "Feature", "properties": {"norad_id": 38356, "name": "INTELSAT 19 (IS-19)", "group": "intelsat", "lat": 0.03659257866097143, "lon": -152.09247122796756, "alt_km": 35797.10277267783, "timestamp": "2026-03-16T15:10:46.464223+00:00", "meta": {"OBJECT_NAME": "INTELSAT 19 (IS-19)", "OBJECT_ID": "2012-030A", "EPOCH": "2026-03-15T21:14:24.583200", "MEAN_MOTION": 1.00271702, "ECCENTRICITY": 0.00029245, "INCLINATION": 0.0167, "RA_OF_ASC_NODE": 133.1086, "ARG_OF_PERICENTER": 227.6547, "MEAN_ANOMALY": 297.317, "EPHEMERIS_TYPE": 0, "CLASSIFICATION_TYPE": "U", "NORAD_CAT_ID": 38356, "ELEMENT_SET_NO": 999, "REV_AT_EPOCH": 4951, "BSTAR": 0, "MEAN_MOTION_DOT": -5.7e-07, "MEAN_MOTION_DDOT": 0}, "tle": {"line1": "1 38356U 12030A   26074.88500675 -.00000057  00000+0  00000+0 0  9990", "line2": "2 38356   0.0167 133.1086 0002924 227.6547 297.3170  1.00271702 49511"}}, "geometry": {"type": "Point", "coordinates": [-152.09247122796756, 0.03659257866097143]}}, {"type": "Feature", "properties": {"norad_id": 38740, "name": "INTELSAT 20 (IS-20)", "group": "intelsat", "lat": -0.02076465000542673, "lon": 110.37949793544799, "alt_km": 35779.88658069323, "timestamp": "2026-03-16T15:10:46.464235+00:00", "meta": {"OBJECT_NAME": "INTELSAT 20 (IS-20)", "OBJECT_ID": "2012-043A", "EPOCH": "2026-03-16T06:33:38.756736", "MEAN_MOTION": 1.00272272, "ECCENTRICITY": 0.00024973, "INCLINATION": 0.0182, "RA_OF_ASC_NODE": 128.248, "ARG_OF_PERICENTER": 37.2123, "MEAN_ANOMALY": 175.2913, "EPHEMERIS_TYPE": 0, "CLASSIFICATION_TYPE": "U", "NORAD_CAT_ID": 38740, "ELEMENT_SET_NO": 999, "REV_AT_EPOCH": 4981, "BSTAR": 0, "MEAN_MOTION_DOT": -2.5e-07, "MEAN_MOTION_DDOT": 0}, "tle": {"line1": "1 38740U 12043A   26075.27336524 -.00000025  00000+0  00000+0 0  9990", "line2": "2 38740   0.0182 128.2480 0002497  37.2123 175.2913  1.00272272 49813"}}, "geometry": {"type": "Point", "coordinates": [110.37949793544799, -0.02076465000542673]}}, {"type": "Feature", "properties": {"norad_id": 38749, "name": "INTELSAT 21 (IS-21)", "group": "intelsat", "lat": -0.008934885928593083, "lon": -16.08837853466158, "alt_km": 35779.04493240144, "timestamp": "2026-03-16T15:10:46.464246+00:00", "meta": {"OBJECT_NAME": "INTELSAT 21 (IS-21)", "OBJECT_ID": "2012-045A", "EPOCH": "2026-03-16T05:38:13.276032", "MEAN_MOTION": 1.00271421, "ECCENTRICITY": 0.00018924, "INCLINATION": 0.02, "RA_OF_ASC_NODE": 147.4968, "ARG_OF_PERICENTER": 222.793, "MEAN_ANOMALY": 190.0871, "EPHEMERIS_TYPE": 0, "CLASSIFICATION_TYPE": "U", "NORAD_CAT_ID": 38749, "ELEMENT_SET_NO": 999, "REV_AT_EPOCH": 4959, "BSTAR": 0, "MEAN_MOTION_DOT": -2.85e-06, "MEAN_MOTION_DDOT": 0}, "tle": {"line1": "1 38749U 12045A   26075.23487588 -.00000285  00000+0  00000+0 0  9992", "line2": "2 38749   0.0200 147.4968 0001892 222.7930 190.0871  1.00271421 49590"}}, "geometry": {"type": "Point", "coordinates": [-16.08837853466158, -0.008934885928593083]}}, {"type": "Feature", "properties": {"norad_id": 38867, "name": "INTELSAT 23 (IS-23)", "group": "intelsat", "lat": 0.024039893551183484, "lon": -11.086531394833962, "alt_km": 35782.716834976025, "timestamp": "2026-03-16T15:10:46.464257+00:00", "meta": {"OBJECT_NAME": "INTELSAT 23 (IS-23)", "OBJECT_ID": "2012-057A", "EPOCH": "2026-03-16T05:28:03.959904", "MEAN_MOTION": 1.00275682, "ECCENTRICITY": 6.169e-05, "INCLINATION": 0.0348, "RA_OF_ASC_NODE": 251.325, "ARG_OF_PERICENTER": 125.0329, "MEAN_ANOMALY": 186.4624, "EPHEMERIS_TYPE": 0, "CLASSIFICATION_TYPE": "U", "NORAD_CAT_ID": 38867, "ELEMENT_SET_NO": 999, "REV_AT_EPOCH": 4902, "BSTAR": 0, "MEAN_MOTION_DOT": -2.85e-06, "MEAN_MOTION_DDOT": 0}, "tle": {"line1": "1 38867U 12057A   26075.22782361 -.00000285  00000+0  00000+0 0  9992", "line2": "2 38867   0.0348 251.3250 0000616 125.0329 186.4624  1.00275682 49029"}}, "geometry": {"type": "Point", "coordinates": [-11.086531394833962, 0.024039893551183484]}}, {"type": "Feature", "properties": {"norad_id": 39360, "name": "FM-6", "group": "intelsat", "lat": 0.03159539083572046, "lon": -74.28165418199306, "alt_km": 35790.10749086096, "timestamp": "2026-03-16T15:10:46.464269+00:00", "meta": {"OBJECT_NAME": "FM-6", "OBJECT_ID": "2013-058A", "EPOCH": "2026-03-16T06:10:03.212832", "MEAN_MOTION": 1.00264633, "ECCENTRICITY": 0.00032231, "INCLINATION": 0.0152, "RA_OF_ASC_NODE": 152.1206, "ARG_OF_PERICENTER": 35.1638, "MEAN_ANOMALY": 322.8418, "EPHEMERIS_TYPE": 0, "CLASSIFICATION_TYPE": "U", "NORAD_CAT_ID": 39360, "ELEMENT_SET_NO": 999, "REV_AT_EPOCH": 4514, "BSTAR": 0, "MEAN_MOTION_DOT": -1.6e-07, "MEAN_MOTION_DDOT": 0}, "tle": {"line1": "1 39360U 13058A   26075.25698163 -.00000016  00000+0  00000+0 0  9994", "line2": "2 39360   0.0152 152.1206 0003223  35.1638 322.8418  1.00264633 45141"}}, "geometry": {"type": "Point", "coordinates": [-74.28165418199306, 0.03159539083572046]}}, {"type": "Feature", "properties": {"norad_id": 40271, "name": "INTELSAT 30 (IS-30)", "group": "intelsat", "lat": -0.0031937297841442155, "lon": -53.123587094230565, "alt_km": 35792.78556160533, "timestamp": "2026-03-16T15:10:46.464280+00:00", "meta": {"OBJECT_NAME": "INTELSAT 30 (IS-30)", "OBJECT_ID": "2014-062A", "EPOCH": "2026-03-13T15:55:04.361952", "MEAN_MOTION": 1.00272886, "ECCENTRICITY": 0.00016928, "INCLINATION": 0.0155, "RA_OF_ASC_NODE": 82.4752, "ARG_OF_PERICENTER": 30.1295, "MEAN_ANOMALY": 202.3988, "EPHEMERIS_TYPE": 0, "CLASSIFICATION_TYPE": "U", "NORAD_CAT_ID": 40271, "ELEMENT_SET_NO": 999, "REV_AT_EPOCH": 583, "BSTAR": 0, "MEAN_MOTION_DOT": -1.51e-06, "MEAN_MOTION_DDOT": 0}, "tle": {"line1": "1 40271U 14062A   26072.66324493 -.00000151  00000+0  00000+0 0  9997", "line2": "2 40271   0.0155  82.4752 0001692  30.1295 202.3988  1.00272886  5835"}}, "geometry": {"type": "Point", "coordinates": [-53.123587094230565, -0.0031937297841442155]}}, {"type": "Feature", "properties": {"norad_id": 40333, "name": "DIRECTV 14", "group": "intelsat", "lat": 0.014670073384639876, "lon": -57.32552088097213, "alt_km": 35788.03094646472, "timestamp": "2026-03-16T15:10:46.464292+00:00", "meta": {"OBJECT_NAME": "DIRECTV 14", "OBJECT_ID": "2014-078B", "EPOCH": "2026-03-16T04:32:12.597216", "MEAN_MOTION": 1.00272394, "ECCENTRICITY": 5.046e-05, "INCLINATION": 0.0207, "RA_OF_ASC_NODE": 130.875, "ARG_OF_PERICENTER": 358.8161, "MEAN_ANOMALY": 12.8887, "EPHEMERIS_TYPE": 0, "CLASSIFICATION_TYPE": "U", "NORAD_CAT_ID": 40333, "ELEMENT_SET_NO": 999, "REV_AT_EPOCH": 4111, "BSTAR": 0, "MEAN_MOTION_DOT": -1.26e-06, "MEAN_MOTION_DDOT": 0}, "tle": {"line1": "1 40333U 14078B   26075.18903469 -.00000126  00000+0  00000+0 0  9991", "line2": "2 40333   0.0207 130.8750 0000504 358.8161  12.8887  1.00272394 41118"}}, "geometry": {"type": "Point", "coordinates": [-57.32552088097213, 0.014670073384639876]}}, {"type": "Feature", "properties": {"norad_id": 40663, "name": "DIRECTV 15", "group": "intelsat", "lat": 0.00560298179519043, "lon": -60.94675550202391, "alt_km": 35787.37821344101, "timestamp": "2026-03-16T15:10:46.464304+00:00", "meta": {"OBJECT_NAME": "DIRECTV 15", "OBJECT_ID": "2015-026A", "EPOCH": "2026-03-16T01:05:47.393088", "MEAN_MOTION": 1.00272836, "ECCENTRICITY": 6.471e-05, "INCLINATION": 0.0226, "RA_OF_ASC_NODE": 105.0694, "ARG_OF_PERICENTER": 68.723, "MEAN_ANOMALY": 273.4132, "EPHEMERIS_TYPE": 0, "CLASSIFICATION_TYPE": "U", "NORAD_CAT_ID": 40663, "ELEMENT_SET_NO": 999, "REV_AT_EPOCH": 3952, "BSTAR": 0, "MEAN_MOTION_DOT": -1.03e-06, "MEAN_MOTION_DDOT": 0}, "tle": {"line1": "1 40663U 15026A   26075.04568742 -.00000103  00000+0  00000+0 0  9992", "line2": "2 40663   0.0226 105.0694 0000647  68.7230 273.4132  1.00272836 39529"}}, "geometry": {"type": "Point", "coordinates": [-60.94675550202391, 0.00560298179519043]}}, {"type": "Feature", "properties": {"norad_id": 40664, "name": "SKY MEXICO-1", "group": "intelsat", "lat": 0.02071392546109643, "lon": -36.88855687113198, "alt_km": 35781.64922576112, "timestamp": "2026-03-16T15:10:46.464315+00:00", "meta": {"OBJECT_NAME": "SKY MEXICO-1", "OBJECT_ID": "2015-026B", "EPOCH": "2026-03-16T06:20:39.695712", "MEAN_MOTION": 1.00268737, "ECCENTRICITY": 0.00022023, "INCLINATION": 0.0252, "RA_OF_ASC_NODE": 169.8133, "ARG_OF_PERICENTER": 208.7279, "MEAN_ANOMALY": 171.6893, "EPHEMERIS_TYPE": 0, "CLASSIFICATION_TYPE": "U", "NORAD_CAT_ID": 40664, "ELEMENT_SET_NO": 999, "REV_AT_EPOCH": 3952, "BSTAR": 0, "MEAN_MOTION_DOT": 0, "MEAN_MOTION_DDOT": 0}, "tle": {"line1": "1 40664U 15026B   26075.26434833  .00000000  00000+0  00000+0 0  9995", "line2": "2 40664   0.0252 169.8133 0002202 208.7279 171.6893  1.00268737 39521"}}, "geometry": {"type": "Point", "coordinates": [-36.88855687113198, 0.02071392546109643]}}, {"type": "Feature", "properties": {"norad_id": 40874, "name": "INTELSAT 34 (IS-34)", "group": "intelsat", "lat": 0.01146416016471839, "lon": -13.553644668936919, "alt_km": 35784.62654963072, "timestamp": "2026-03-16T15:10:46.464327+00:00", "meta": {"OBJECT_NAME": "INTELSAT 34 (IS-34)", "OBJECT_ID": "2015-039A", "EPOCH": "2026-03-16T01:19:16.099680", "MEAN_MOTION": 1.00276845, "ECCENTRICITY": 2.004e-05, "INCLINATION": 0.0265, "RA_OF_ASC_NODE": 264.1746, "ARG_OF_PERICENTER": 359.2377, "MEAN_ANOMALY": 234.5609, "EPHEMERIS_TYPE": 0, "CLASSIFICATION_TYPE": "U", "NORAD_CAT_ID": 40874, "ELEMENT_SET_NO": 999, "REV_AT_EPOCH": 3869, "BSTAR": 0, "MEAN_MOTION_DOT": -2.86e-06, "MEAN_MOTION_DDOT": 0}, "tle": {"line1": "1 40874U 15039A   26075.05504745 -.00000286  00000+0  00000+0 0  9996", "line2": "2 40874   0.0265 264.1746 0000200 359.2377 234.5609  1.00276845 38694"}}, "geometry": {"type": "Point", "coordinates": [-13.553644668936919, 0.01146416016471839]}}, {"type": "Feature", "properties": {"norad_id": 41581, "name": "INTELSAT 31 (IS-31)", "group": "intelsat", "lat": 0.03820843865536421, "lon": -53.11084643426912, "alt_km": 35783.88741383836, "timestamp": "2026-03-16T15:10:46.464355+00:00", "meta": {"OBJECT_NAME": "INTELSAT 31 (IS-31)", "OBJECT_ID": "2016-035A", "EPOCH": "2026-03-16T01:08:02.177952", "MEAN_MOTION": 1.00271405, "ECCENTRICITY": 0.00016397, "INCLINATION": 0.0381, "RA_OF_ASC_NODE": 248.2031, "ARG_OF_PERICENTER": 348.5759, "MEAN_ANOMALY": 218.8171, "EPHEMERIS_TYPE": 0, "CLASSIFICATION_TYPE": "U", "NORAD_CAT_ID": 41581, "ELEMENT_SET_NO": 999, "REV_AT_EPOCH": 3574, "BSTAR": 0, "MEAN_MOTION_DOT": -1.51e-06, "MEAN_MOTION_DDOT": 0}, "tle": {"line1": "1 41581U 16035A   26075.04724743 -.00000151  00000+0  00000+0 0  9991", "line2": "2 41581   0.0381 248.2031 0001639 348.5759 218.8171  1.00271405 35740"}}, "geometry": {"type": "Point", "coordinates": [-53.11084643426912, 0.03820843865536421]}}, {"type": "Feature", "properties": {"norad_id": 41747, "name": "INTELSAT 36 (IS-36)", "group": "intelsat", "lat": -0.03226634109403565, "lon": 110.4342371434109, "alt_km": 35791.05611303554, "timestamp": "2026-03-16T15:10:46.464371+00:00", "meta": {"OBJECT_NAME": "INTELSAT 36 (IS-36)", "OBJECT_ID": "2016-053A", "EPOCH": "2026-03-15T22:29:17.401344", "MEAN_MOTION": 1.0026586, "ECCENTRICITY": 8.593e-05, "INCLINATION": 0.0164, "RA_OF_ASC_NODE": 157.8085, "ARG_OF_PERICENTER": 155.652, "MEAN_ANOMALY": 265.9131, "EPHEMERIS_TYPE": 0, "CLASSIFICATION_TYPE": "U", "NORAD_CAT_ID": 41747, "ELEMENT_SET_NO": 999, "REV_AT_EPOCH": 3502, "BSTAR": 0, "MEAN_MOTION_DOT": 0, "MEAN_MOTION_DDOT": 0}, "tle": {"line1": "1 41747U 16053A   26074.93700696  .00000000  00000+0  00000+0 0  9995", "line2": "2 41747   0.0164 157.8085 0000859 155.6520 265.9131  1.00265860 35021"}}, "geometry": {"type": "Point", "coordinates": [110.4342371434109, -0.03226634109403565]}}, {"type": "Feature", "properties": {"norad_id": 41945, "name": "INTELSAT 32E (IS-32E)", "group": "intelsat", "lat": -0.019159675346985976, "lon": -1.2432454155106452, "alt_km": 35784.19737645908, "timestamp": "2026-03-16T15:10:46.464383+00:00", "meta": {"OBJECT_NAME": "INTELSAT 32E (IS-32E)", "OBJECT_ID": "2017-007B", "EPOCH": "2026-03-16T01:29:38.854464", "MEAN_MOTION": 1.00276804, "ECCENTRICITY": 4.803e-05, "INCLINATION": 0.0203, "RA_OF_ASC_NODE": 150.284, "ARG_OF_PERICENTER": 133.8099, "MEAN_ANOMALY": 228.7889, "EPHEMERIS_TYPE": 0, "CLASSIFICATION_TYPE": "U", "NORAD_CAT_ID": 41945, "ELEMENT_SET_NO": 999, "REV_AT_EPOCH": 3329, "BSTAR": 0, "MEAN_MOTION_DOT": -2.69e-06, "MEAN_MOTION_DDOT": 0}, "tle": {"line1": "1 41945U 17007B   26075.06225526 -.00000269  00000+0  00000+0 0  9992", "line2": "2 41945   0.0203 150.2840 0000480 133.8099 228.7889  1.00276804 33294"}}, "geometry": {"type": "Point", "coordinates": [-1.2432454155106452, -0.019159675346985976]}}, {"type": "Feature", "properties": {"norad_id": 42818, "name": "INTELSAT 35E (IS-35E)", "group": "intelsat", "lat": -0.0020985444868684916, "lon": 7.409870657608854, "alt_km": 35777.7170564465, "timestamp": "2026-03-16T15:10:46.464396+00:00", "meta": {"OBJECT_NAME": "INTELSAT 35E (IS-35E)", "OBJECT_ID": "2017-041A", "EPOCH": "2026-03-15T23:42:32.876064", "MEAN_MOTION": 1.00270846, "ECCENTRICITY": 0.00020704, "INCLINATION": 0.0167, "RA_OF_ASC_NODE": 199.9086, "ARG_OF_PERICENTER": 159.5994, "MEAN_ANOMALY": 135.1941, "EPHEMERIS_TYPE": 0, "CLASSIFICATION_TYPE": "U", "NORAD_CAT_ID": 42818, "ELEMENT_SET_NO": 999, "REV_AT_EPOCH": 3188, "BSTAR": 0, "MEAN_MOTION_DOT": -2.39e-06, "MEAN_MOTION_DDOT": 0}, "tle": {"line1": "1 42818U 17041A   26074.98788051 -.00000239  00000+0  00000+0 0  9994", "line2": "2 42818   0.0167 199.9086 0002070 159.5994 135.1941  1.00270846 31884"}}, "geometry": {"type": "Point", "coordinates": [7.409870657608854, -0.0020985444868684916]}}, {"type": "Feature", "properties": {"norad_id": 42950, "name": "INTELSAT 37E (IS-37E)", "group": "intelsat", "lat": -0.024974839181132597, "lon": 23.933095554568837, "alt_km": 35778.01588471431, "timestamp": "2026-03-16T15:10:46.464408+00:00", "meta": {"OBJECT_NAME": "INTELSAT 37E (IS-37E)", "OBJECT_ID": "2017-059A", "EPOCH": "2026-03-16T06:38:00.533184", "MEAN_MOTION": 1.0027252, "ECCENTRICITY": 0.00020197, "INCLINATION": 0.0172, "RA_OF_ASC_NODE": 172.2026, "ARG_OF_PERICENTER": 188.8937, "MEAN_ANOMALY": 254.2697, "EPHEMERIS_TYPE": 0, "CLASSIFICATION_TYPE": "U", "NORAD_CAT_ID": 42950, "ELEMENT_SET_NO": 999, "REV_AT_EPOCH": 3113, "BSTAR": 0, "MEAN_MOTION_DOT": -1.41e-06, "MEAN_MOTION_DDOT": 0}, "tle": {"line1": "1 42950U 17059A   26075.27639506 -.00000141  00000+0  00000+0 0  9995", "line2": "2 42950   0.0172 172.2026 0002019 188.8937 254.2697  1.00272520 31130"}}, "geometry": {"type": "Point", "coordinates": [23.933095554568837, -0.024974839181132597]}}, {"type": "Feature", "properties": {"norad_id": 43632, "name": "AZERSPACE 2 (IS-38)", "group": "intelsat", "lat": -0.040444320565034775, "lon": 87.0393009945365, "alt_km": 35786.33296083959, "timestamp": "2026-03-16T15:10:46.464420+00:00", "meta": {"OBJECT_NAME": "AZERSPACE 2 (IS-38)", "OBJECT_ID": "2018-074A", "EPOCH": "2026-03-16T05:13:23.647584", "MEAN_MOTION": 1.00270448, "ECCENTRICITY": 0.0001311, "INCLINATION": 0.0217, "RA_OF_ASC_NODE": 202.0757, "ARG_OF_PERICENTER": 155.8581, "MEAN_ANOMALY": 299.3235, "EPHEMERIS_TYPE": 0, "CLASSIFICATION_TYPE": "U", "NORAD_CAT_ID": 43632, "ELEMENT_SET_NO": 999, "REV_AT_EPOCH": 2751, "BSTAR": 0, "MEAN_MOTION_DOT": 1.36e-06, "MEAN_MOTION_DDOT": 0}, "tle": {"line1": "1 43632U 18074A   26075.21763481  .00000136  00000+0  00000+0 0  9998", "line2": "2 43632   0.0217 202.0757 0001311 155.8581 299.3235  1.00270448 27516"}}, "geometry": {"type": "Point", "coordinates": [87.0393009945365, -0.040444320565034775]}}, {"type": "Feature", "properties": {"norad_id": 43633, "name": "HORIZONS-3E", "group": "intelsat", "lat": -0.006362236898230456, "lon": -149.09956458464907, "alt_km": 35788.47735745142, "timestamp": "2026-03-16T15:10:46.464431+00:00", "meta": {"OBJECT_NAME": "HORIZONS-3E", "OBJECT_ID": "2018-074B", "EPOCH": "2026-03-16T06:22:38.623584", "MEAN_MOTION": 1.00271247, "ECCENTRICITY": 7.001e-05, "INCLINATION": 0.0103, "RA_OF_ASC_NODE": 18.607, "ARG_OF_PERICENTER": 331.6992, "MEAN_ANOMALY": 88.1912, "EPHEMERIS_TYPE": 0, "CLASSIFICATION_TYPE": "U", "NORAD_CAT_ID": 43633, "ELEMENT_SET_NO": 999, "REV_AT_EPOCH": 2740, "BSTAR": 0, "MEAN_MOTION_DOT": -3.1e-07, "MEAN_MOTION_DDOT": 0}, "tle": {"line1": "1 43633U 18074B   26075.26572481 -.00000031  00000+0  00000+0 0  9997", "line2": "2 43633   0.0103  18.6070 0000700 331.6992  88.1912  1.00271247 27403"}}, "geometry": {"type": "Point", "coordinates": [-149.09956458464907, -0.006362236898230456]}}, {"type": "Feature", "properties": {"norad_id": 44333, "name": "AT&T T-16", "group": "intelsat", "lat": 0.007769723767812956, "lon": -58.938258192695905, "alt_km": 35789.17791680222, "timestamp": "2026-03-16T15:10:46.464443+00:00", "meta": {"OBJECT_NAME": "AT&T T-16", "OBJECT_ID": "2019-034A", "EPOCH": "2026-03-16T04:31:42.644928", "MEAN_MOTION": 1.0026873, "ECCENTRICITY": 8.573e-05, "INCLINATION": 0.0154, "RA_OF_ASC_NODE": 113.7212, "ARG_OF_PERICENTER": 59.4722, "MEAN_ANOMALY": 327.6473, "EPHEMERIS_TYPE": 0, "CLASSIFICATION_TYPE": "U", "NORAD_CAT_ID": 44333, "ELEMENT_SET_NO": 999, "REV_AT_EPOCH": 2470, "BSTAR": 0, "MEAN_MOTION_DOT": -1.15e-06, "MEAN_MOTION_DDOT": 0}, "tle": {"line1": "1 44333U 19034A   26075.18868802 -.00000115  00000+0  00000+0 0  9991", "line2": "2 44333   0.0154 113.7212 0000857  59.4722 327.6473  1.00268730 24707"}}, "geometry": {"type": "Point", "coordinates": [-58.938258192695905, 0.007769723767812956]}}, {"type": "Feature", "properties": {"norad_id": 44476, "name": "INTELSAT 39 (IS-39)", "group": "intelsat", "lat": -0.0458326282578802, "lon": 103.87388376523192, "alt_km": 35785.33242305512, "timestamp": "2026-03-16T15:10:46.464454+00:00", "meta": {"OBJECT_NAME": "INTELSAT 39 (IS-39)", "OBJECT_ID": "2019-049B", "EPOCH": "2026-03-16T04:38:38.532192", "MEAN_MOTION": 1.00269381, "ECCENTRICITY": 6.252e-05, "INCLINATION": 0.0266, "RA_OF_ASC_NODE": 165.5227, "ARG_OF_PERICENTER": 356.2905, "MEAN_ANOMALY": 143.59, "EPHEMERIS_TYPE": 0, "CLASSIFICATION_TYPE": "U", "NORAD_CAT_ID": 44476, "ELEMENT_SET_NO": 999, "REV_AT_EPOCH": 2419, "BSTAR": 0, "MEAN_MOTION_DOT": 0, "MEAN_MOTION_DDOT": 0}, "tle": {"line1": "1 44476U 19049B   26075.19350153  .00000000  00000+0  00000+0 0  9993", "line2": "2 44476   0.0266 165.5227 0000625 356.2905 143.5900  1.00269381 24190"}}, "geometry": {"type": "Point", "coordinates": [103.87388376523192, -0.0458326282578802]}}, {"type": "Feature", "properties": {"norad_id": 46114, "name": "GALAXY 30 (G-30)", "group": "intelsat", "lat": 0.03767022952220564, "lon": -83.10817314470901, "alt_km": 35785.960202145674, "timestamp": "2026-03-16T15:10:46.464466+00:00", "meta": {"OBJECT_NAME": "GALAXY 30 (G-30)", "OBJECT_ID": "2020-056C", "EPOCH": "2026-03-16T00:59:25.504224", "MEAN_MOTION": 1.00271884, "ECCENTRICITY": 0.00020122, "INCLINATION": 0.0199, "RA_OF_ASC_NODE": 147.024, "ARG_OF_PERICENTER": 219.6973, "MEAN_ANOMALY": 56.7584, "EPHEMERIS_TYPE": 0, "CLASSIFICATION_TYPE": "U", "NORAD_CAT_ID": 46114, "ELEMENT_SET_NO": 999, "REV_AT_EPOCH": 2035, "BSTAR": 0, "MEAN_MOTION_DOT": 3.6e-07, "MEAN_MOTION_DDOT": 0}, "tle": {"line1": "1 46114U 20056C   26075.04126741  .00000036  00000+0  00000+0 0  9991", "line2": "2 46114   0.0199 147.0240 0002012 219.6973  56.7584  1.00271884 20353"}}, "geometry": {"type": "Point", "coordinates": [-83.10817314470901, 0.03767022952220564]}}, {"type": "Feature", "properties": {"norad_id": 54026, "name": "GALAXY 33 (G-33)", "group": "intelsat", "lat": 0.017406382147241283, "lon": -91.09933967983939, "alt_km": 35786.52899593043, "timestamp": "2026-03-16T15:10:46.464477+00:00", "meta": {"OBJECT_NAME": "GALAXY 33 (G-33)", "OBJECT_ID": "2022-128A", "EPOCH": "2026-03-16T06:05:11.179968", "MEAN_MOTION": 1.00271698, "ECCENTRICITY": 0.00017944, "INCLINATION": 0.0207, "RA_OF_ASC_NODE": 254.5937, "ARG_OF_PERICENTER": 107.8913, "MEAN_ANOMALY": 129.651, "EPHEMERIS_TYPE": 0, "CLASSIFICATION_TYPE": "U", "NORAD_CAT_ID": 54026, "ELEMENT_SET_NO": 999, "REV_AT_EPOCH": 1281, "BSTAR": 0, "MEAN_MOTION_DOT": 7.8e-07, "MEAN_MOTION_DDOT": 0}, "tle": {"line1": "1 54026U 22128A   26075.25360162  .00000078  00000+0  00000+0 0  9990", "line2": "2 54026   0.0207 254.5937 0001794 107.8913 129.6510  1.00271698 12813"}}, "geometry": {"type": "Point", "coordinates": [-91.09933967983939, 0.017406382147241283]}}, {"type": "Feature", "properties": {"norad_id": 54027, "name": "GALAXY 34 (G-34)", "group": "intelsat", "lat": 0.0440040730845502, "lon": -87.01956764948443, "alt_km": 35786.15109471395, "timestamp": "2026-03-16T15:10:46.464488+00:00", "meta": {"OBJECT_NAME": "GALAXY 34 (G-34)", "OBJECT_ID": "2022-128B", "EPOCH": "2026-03-16T06:06:26.060256", "MEAN_MOTION": 1.00270423, "ECCENTRICITY": 0.00014236, "INCLINATION": 0.0207, "RA_OF_ASC_NODE": 185.7249, "ARG_OF_PERICENTER": 174.7164, "MEAN_ANOMALY": 136.0849, "EPHEMERIS_TYPE": 0, "CLASSIFICATION_TYPE": "U", "NORAD_CAT_ID": 54027, "ELEMENT_SET_NO": 999, "REV_AT_EPOCH": 1298, "BSTAR": 0, "MEAN_MOTION_DOT": 0, "MEAN_MOTION_DDOT": 0}, "tle": {"line1": "1 54027U 22128B   26075.25446829  .00000000  00000+0  00000+0 0  9991", "line2": "2 54027   0.0207 185.7249 0001423 174.7164 136.0849  1.00270423 12985"}}, "geometry": {"type": "Point", "coordinates": [-87.01956764948443, 0.0440040730845502]}}, {"type": "Feature", "properties": {"norad_id": 54243, "name": "GALAXY 31 (G-31)", "group": "intelsat", "lat": 0.03321550694454858, "lon": -79.0997488856581, "alt_km": 35785.90095596868, "timestamp": "2026-03-16T15:10:46.464500+00:00", "meta": {"OBJECT_NAME": "GALAXY 31 (G-31)", "OBJECT_ID": "2022-153A", "EPOCH": "2026-03-16T06:08:40.845120", "MEAN_MOTION": 1.00271671, "ECCENTRICITY": 0.00014464, "INCLINATION": 0.023, "RA_OF_ASC_NODE": 226.0105, "ARG_OF_PERICENTER": 143.3003, "MEAN_ANOMALY": 135.6969, "EPHEMERIS_TYPE": 0, "CLASSIFICATION_TYPE": "U", "NORAD_CAT_ID": 54243, "ELEMENT_SET_NO": 999, "REV_AT_EPOCH": 620, "BSTAR": 0, "MEAN_MOTION_DOT": 1.3e-07, "MEAN_MOTION_DDOT": 0}, "tle": {"line1": "1 54243U 22153A   26075.25602830  .00000013  00000+0  00000+0 0  9999", "line2": "2 54243   0.0230 226.0105 0001446 143.3003 135.6969  1.00271671  6202"}}, "geometry": {"type": "Point", "coordinates": [-79.0997488856581, 0.03321550694454858]}}, {"type": "Feature", "properties": {"norad_id": 54244, "name": "GALAXY 32 (G-32)", "group": "intelsat", "lat": 0.026146741146514208, "lon": -49.096365482841975, "alt_km": 35779.12066964859, "timestamp": "2026-03-16T15:10:46.464512+00:00", "meta": {"OBJECT_NAME": "GALAXY 32 (G-32)", "OBJECT_ID": "2022-153B", "EPOCH": "2026-03-16T06:47:55.150944", "MEAN_MOTION": 1.00268201, "ECCENTRICITY": 0.00029273, "INCLINATION": 0.0192, "RA_OF_ASC_NODE": 169.0826, "ARG_OF_PERICENTER": 191.8734, "MEAN_ANOMALY": 183.9052, "EPHEMERIS_TYPE": 0, "CLASSIFICATION_TYPE": "U", "NORAD_CAT_ID": 54244, "ELEMENT_SET_NO": 999, "REV_AT_EPOCH": 1221, "BSTAR": 0, "MEAN_MOTION_DOT": 0, "MEAN_MOTION_DDOT": 0}, "tle": {"line1": "1 54244U 22153B   26075.28327721  .00000000  00000+0  00000+0 0  9992", "line2": "2 54244   0.0192 169.0826 0002927 191.8734 183.9052  1.00268201 12212"}}, "geometry": {"type": "Point", "coordinates": [-49.096365482841975, 0.026146741146514208]}}, {"type": "Feature", "properties": {"norad_id": 54741, "name": "GALAXY 35 (G-35)", "group": "intelsat", "lat": 0.008183141311351434, "lon": -51.21077452015916, "alt_km": 35780.511165243166, "timestamp": "2026-03-16T15:10:46.464523+00:00", "meta": {"OBJECT_NAME": "GALAXY 35 (G-35)", "OBJECT_ID": "2022-170A", "EPOCH": "2026-03-16T04:12:38.684736", "MEAN_MOTION": 1.00271759, "ECCENTRICITY": 0.00019417, "INCLINATION": 0.0192, "RA_OF_ASC_NODE": 126.9153, "ARG_OF_PERICENTER": 229.0407, "MEAN_ANOMALY": 147.852, "EPHEMERIS_TYPE": 0, "CLASSIFICATION_TYPE": "U", "NORAD_CAT_ID": 54741, "ELEMENT_SET_NO": 999, "REV_AT_EPOCH": 1196, "BSTAR": 0, "MEAN_MOTION_DOT": -1.63e-06, "MEAN_MOTION_DDOT": 0}, "tle": {"line1": "1 54741U 22170A   26075.17544774 -.00000163  00000+0  00000+0 0  9991", "line2": "2 54741   0.0192 126.9153 0001941 229.0407 147.8520  1.00271759 11967"}}, "geometry": {"type": "Point", "coordinates": [-51.21077452015916, 0.008183141311351434]}}, {"type": "Feature", "properties": {"norad_id": 54742, "name": "GALAXY 36 (G-36)", "group": "intelsat", "lat": 0.021689126766965227, "lon": -47.107380387976804, "alt_km": 35786.90683239758, "timestamp": "2026-03-16T15:10:46.464535+00:00", "meta": {"OBJECT_NAME": "GALAXY 36 (G-36)", "OBJECT_ID": "2022-170B", "EPOCH": "2026-03-15T23:27:04.360320", "MEAN_MOTION": 1.0027161, "ECCENTRICITY": 0.00022612, "INCLINATION": 0.0125, "RA_OF_ASC_NODE": 171.3906, "ARG_OF_PERICENTER": 236.2436, "MEAN_ANOMALY": 28.6985, "EPHEMERIS_TYPE": 0, "CLASSIFICATION_TYPE": "U", "NORAD_CAT_ID": 54742, "ELEMENT_SET_NO": 999, "REV_AT_EPOCH": 1183, "BSTAR": 0, "MEAN_MOTION_DOT": -1.86e-06, "MEAN_MOTION_DDOT": 0}, "tle": {"line1": "1 54742U 22170B   26074.97713380 -.00000186  00000+0  00000+0 0  9995", "line2": "2 54742   0.0125 171.3906 0002261 236.2436  28.6985  1.00271610 11835"}}, "geometry": {"type": "Point", "coordinates": [-47.107380387976804, 0.021689126766965227]}}, {"type": "Feature", "properties": {"norad_id": 57493, "name": "GALAXY 37 (G-37)", "group": "intelsat", "lat": 0.04647381576281981, "lon": -85.09345812354043, "alt_km": 35786.02864937874, "timestamp": "2026-03-16T15:10:46.464547+00:00", "meta": {"OBJECT_NAME": "GALAXY 37 (G-37)", "OBJECT_ID": "2023-112A", "EPOCH": "2026-03-16T06:06:56.011680", "MEAN_MOTION": 1.00270823, "ECCENTRICITY": 0.00020211, "INCLINATION": 0.024, "RA_OF_ASC_NODE": 163.3309, "ARG_OF_PERICENTER": 199.7676, "MEAN_ANOMALY": 135.4853, "EPHEMERIS_TYPE": 0, "CLASSIFICATION_TYPE": "U", "NORAD_CAT_ID": 57493, "ELEMENT_SET_NO": 999, "REV_AT_EPOCH": 961, "BSTAR": 0, "MEAN_MOTION_DOT": 0, "MEAN_MOTION_DDOT": 0}, "tle": {"line1": "1 57493U 23112A   26075.25481495  .00000000  00000+0  00000+0 0  9993", "line2": "2 57493   0.0240 163.3309 0002021 199.7676 135.4853  1.00270823  9619"}}, "geometry": {"type": "Point", "coordinates": [-85.09345812354043, 0.04647381576281981]}}]}