{"type": "FeatureCollection", "features": [{"type": "Feature", "properties": {"norad_id": 25590, "name": "COSMOS 2361", "group": "musson", "lat": -37.03216465440039, "lon": -38.03654315318198, "alt_km": 1006.3957739374309, "timestamp": "2026-01-04T09:27:47.776296+00:00", "meta": {"OBJECT_NAME": "COSMOS 2361", "OBJECT_ID": "1998-076A", "EPOCH": "2026-01-03T23:27:48.845952", "MEAN_MOTION": 13.73220205, "ECCENTRICITY": 0.00308458, "INCLINATION": 82.9354, "RA_OF_ASC_NODE": 327.6395, "ARG_OF_PERICENTER": 201.7433, "MEAN_ANOMALY": 222.08, "EPHEMERIS_TYPE": 0, "CLASSIFICATION_TYPE": "U", "NORAD_CAT_ID": 25590, "ELEMENT_SET_NO": 999, "REV_AT_EPOCH": 35416, "BSTAR": 5.9917708e-05, "MEAN_MOTION_DOT": 7.1e-07, "MEAN_MOTION_DDOT": 0}, "tle": {"line1": "1 25590U 98076A   26003.97764868  .00000071  00000+0  59918-4 0  9990", "line2": "2 25590  82.9354 327.6395 0030845 201.7433 222.0800 13.73220205354167"}}, "geometry": {"type": "Point", "coordinates": [-38.03654315318198, -37.03216465440039]}}, {"type": "Feature", "properties": {"norad_id": 26818, "name": "COSMOS 2378", "group": "musson", "lat": 68.66434359588419, "lon": 144.3955648309727, "alt_km": 956.959361716994, "timestamp": "2026-01-04T09:27:47.776317+00:00", "meta": {"OBJECT_NAME": "COSMOS 2378", "OBJECT_ID": "2001-023A", "EPOCH": "2026-01-03T22:31:43.038912", "MEAN_MOTION": 13.74144247, "ECCENTRICITY": 0.00337344, "INCLINATION": 82.9279, "RA_OF_ASC_NODE": 343.2639, "ARG_OF_PERICENTER": 143.3333, "MEAN_ANOMALY": 234.4153, "EPHEMERIS_TYPE": 0, "CLASSIFICATION_TYPE": "U", "NORAD_CAT_ID": 26818, "ELEMENT_SET_NO": 999, "REV_AT_EPOCH": 23228, "BSTAR": 5.5200633e-05, "MEAN_MOTION_DOT": 6.8e-07, "MEAN_MOTION_DDOT": 0}, "tle": {"line1": "1 26818U 01023A   26003.93869258  .00000068  00000+0  55201-4 0  9992", "line2": "2 26818  82.9279 343.2639 0033734 143.3333 234.4153 13.74144247232280"}}, "geometry": {"type": "Point", "coordinates": [144.3955648309727, 68.66434359588419]}}, {"type": "Feature", "properties": {"norad_id": 27436, "name": "COSMOS 2389", "group": "musson", "lat": 39.64367445635195, "lon": -63.90017710709975, "alt_km": 952.4285051713296, "timestamp": "2026-01-04T09:27:47.776331+00:00", "meta": {"OBJECT_NAME": "COSMOS 2389", "OBJECT_ID": "2002-026A", "EPOCH": "2026-01-03T21:21:35.339904", "MEAN_MOTION": 13.75157572, "ECCENTRICITY": 0.00464649, "INCLINATION": 82.9517, "RA_OF_ASC_NODE": 290.5895, "ARG_OF_PERICENTER": 359.7694, "MEAN_ANOMALY": 64.7507, "EPHEMERIS_TYPE": 0, "CLASSIFICATION_TYPE": "U", "NORAD_CAT_ID": 27436, "ELEMENT_SET_NO": 999, "REV_AT_EPOCH": 18453, "BSTAR": 8.7396582e-05, "MEAN_MOTION_DOT": 9.9e-07, "MEAN_MOTION_DDOT": 0}, "tle": {"line1": "1 27436U 02026A   26003.88999236  .00000099  00000+0  87397-4 0  9992", "line2": "2 27436  82.9517 290.5895 0046464 359.7694  64.7507 13.75157572184534"}}, "geometry": {"type": "Point", "coordinates": [-63.90017710709975, 39.64367445635195]}}, {"type": "Feature", "properties": {"norad_id": 27818, "name": "COSMOS 2398", "group": "musson", "lat": 52.12845259994096, "lon": 66.84627433496091, "alt_km": 980.2919196214871, "timestamp": "2026-01-04T09:27:47.776342+00:00", "meta": {"OBJECT_NAME": "COSMOS 2398", "OBJECT_ID": "2003-023A", "EPOCH": "2026-01-03T22:24:05.326272", "MEAN_MOTION": 13.72388455, "ECCENTRICITY": 0.00324127, "INCLINATION": 82.9478, "RA_OF_ASC_NODE": 256.3447, "ARG_OF_PERICENTER": 52.5104, "MEAN_ANOMALY": 318.4896, "EPHEMERIS_TYPE": 0, "CLASSIFICATION_TYPE": "U", "NORAD_CAT_ID": 27818, "ELEMENT_SET_NO": 999, "REV_AT_EPOCH": 13121, "BSTAR": 8.3409447e-05, "MEAN_MOTION_DOT": 9.2e-07, "MEAN_MOTION_DDOT": 0}, "tle": {"line1": "1 27818U 03023A   26003.93339498  .00000092  00000+0  83409-4 0  9991", "line2": "2 27818  82.9478 256.3447 0032412  52.5104 318.4896 13.72388455131219"}}, "geometry": {"type": "Point", "coordinates": [66.84627433496091, 52.12845259994096]}}, {"type": "Feature", "properties": {"norad_id": 28380, "name": "COSMOS 2407", "group": "musson", "lat": -76.04305190279509, "lon": 166.30127337553188, "alt_km": 974.5082922310239, "timestamp": "2026-01-04T09:27:47.776353+00:00", "meta": {"OBJECT_NAME": "COSMOS 2407", "OBJECT_ID": "2004-028A", "EPOCH": "2026-01-03T23:55:02.282016", "MEAN_MOTION": 13.76316717, "ECCENTRICITY": 0.00390842, "INCLINATION": 82.9595, "RA_OF_ASC_NODE": 196.413, "ARG_OF_PERICENTER": 353.4545, "MEAN_ANOMALY": 119.443, "EPHEMERIS_TYPE": 0, "CLASSIFICATION_TYPE": "U", "NORAD_CAT_ID": 28380, "ELEMENT_SET_NO": 999, "REV_AT_EPOCH": 7729, "BSTAR": 9.1507168e-05, "MEAN_MOTION_DOT": 1.05e-06, "MEAN_MOTION_DDOT": 0}, "tle": {"line1": "1 28380U 04028A   26003.99655419  .00000105  00000+0  91507-4 0  9995", "line2": "2 28380  82.9595 196.4130 0039084 353.4545 119.4430 13.76316717 77297"}}, "geometry": {"type": "Point", "coordinates": [166.30127337553188, -76.04305190279509]}}, {"type": "Feature", "properties": {"norad_id": 28521, "name": "COSMOS 2414", "group": "musson", "lat": 49.145790917054114, "lon": 175.75612586617817, "alt_km": 904.6255942048247, "timestamp": "2026-01-04T09:27:47.776364+00:00", "meta": {"OBJECT_NAME": "COSMOS 2414", "OBJECT_ID": "2005-002A", "EPOCH": "2026-01-03T22:50:41.191296", "MEAN_MOTION": 13.87906453, "ECCENTRICITY": 0.00412822, "INCLINATION": 82.95, "RA_OF_ASC_NODE": 167.8641, "ARG_OF_PERICENTER": 78.1667, "MEAN_ANOMALY": 282.4121, "EPHEMERIS_TYPE": 0, "CLASSIFICATION_TYPE": "U", "NORAD_CAT_ID": 28521, "ELEMENT_SET_NO": 999, "REV_AT_EPOCH": 6103, "BSTAR": 7.557889e-05, "MEAN_MOTION_DOT": 1.07e-06, "MEAN_MOTION_DDOT": 0}, "tle": {"line1": "1 28521U 05002A   26003.95186564  .00000107  00000+0  75579-4 0  9994", "line2": "2 28521  82.9500 167.8641 0041282  78.1667 282.4121 13.87906453 61035"}}, "geometry": {"type": "Point", "coordinates": [175.75612586617817, 49.145790917054114]}}, {"type": "Feature", "properties": {"norad_id": 32052, "name": "COSMOS 2429", "group": "musson", "lat": -44.366059909529746, "lon": 153.52879046985362, "alt_km": 997.3211980528058, "timestamp": "2026-01-04T09:27:47.776374+00:00", "meta": {"OBJECT_NAME": "COSMOS 2429", "OBJECT_ID": "2007-038A", "EPOCH": "2026-01-03T23:38:23.273376", "MEAN_MOTION": 13.75151994, "ECCENTRICITY": 0.00378727, "INCLINATION": 82.9818, "RA_OF_ASC_NODE": 326.9102, "ARG_OF_PERICENTER": 336.0096, "MEAN_ANOMALY": 23.9295, "EPHEMERIS_TYPE": 0, "CLASSIFICATION_TYPE": "U", "NORAD_CAT_ID": 32052, "ELEMENT_SET_NO": 999, "REV_AT_EPOCH": 91908, "BSTAR": 5.8171034e-05, "MEAN_MOTION_DOT": 7.1e-07, "MEAN_MOTION_DDOT": 0}, "tle": {"line1": "1 32052U 07038A   26003.98499159  .00000071  00000+0  58171-4 0  9998", "line2": "2 32052  82.9818 326.9102 0037872 336.0096  23.9295 13.75151994919089"}}, "geometry": {"type": "Point", "coordinates": [153.52879046985362, -44.366059909529746]}}, {"type": "Feature", "properties": {"norad_id": 35635, "name": "COSMOS 2454", "group": "musson", "lat": -81.31586074100348, "lon": 25.505583044924, "alt_km": 940.2387408232253, "timestamp": "2026-01-04T09:27:47.776385+00:00", "meta": {"OBJECT_NAME": "COSMOS 2454", "OBJECT_ID": "2009-039A", "EPOCH": "2026-01-03T22:22:34.847328", "MEAN_MOTION": 13.89931969, "ECCENTRICITY": 0.00193621, "INCLINATION": 82.9572, "RA_OF_ASC_NODE": 151.8228, "ARG_OF_PERICENTER": 12.7079, "MEAN_ANOMALY": 102.2174, "EPHEMERIS_TYPE": 0, "CLASSIFICATION_TYPE": "U", "NORAD_CAT_ID": 35635, "ELEMENT_SET_NO": 999, "REV_AT_EPOCH": 83458, "BSTAR": 7.0381168e-05, "MEAN_MOTION_DOT": 1.03e-06, "MEAN_MOTION_DDOT": 0}, "tle": {"line1": "1 35635U 09039A   26003.93234777  .00000103  00000+0  70381-4 0  9992", "line2": "2 35635  82.9572 151.8228 0019362  12.7079 102.2174 13.89931969834584"}}, "geometry": {"type": "Point", "coordinates": [25.505583044924, -81.31586074100348]}}, {"type": "Feature", "properties": {"norad_id": 36519, "name": "COSMOS 2463", "group": "musson", "lat": -74.99521321886422, "lon": -142.48638397737656, "alt_km": 979.3752888575182, "timestamp": "2026-01-04T09:27:47.776395+00:00", "meta": {"OBJECT_NAME": "COSMOS 2463", "OBJECT_ID": "2010-017A", "EPOCH": "2026-01-03T23:36:04.275648", "MEAN_MOTION": 13.71651278, "ECCENTRICITY": 0.00351464, "INCLINATION": 82.9603, "RA_OF_ASC_NODE": 10.3645, "ARG_OF_PERICENTER": 224.2415, "MEAN_ANOMALY": 164.2642, "EPHEMERIS_TYPE": 0, "CLASSIFICATION_TYPE": "U", "NORAD_CAT_ID": 36519, "ELEMENT_SET_NO": 999, "REV_AT_EPOCH": 78542, "BSTAR": 5.8225581e-05, "MEAN_MOTION_DOT": 6.8e-07, "MEAN_MOTION_DDOT": 0}, "tle": {"line1": "1 36519U 10017A   26003.98338282  .00000068  00000+0  58226-4 0  9997", "line2": "2 36519  82.9603  10.3645 0035146 224.2415 164.2642 13.71651278785424"}}, "geometry": {"type": "Point", "coordinates": [-142.48638397737656, -74.99521321886422]}}]}