{"type": "FeatureCollection", "features": [{"type": "Feature", "properties": {"norad_id": 2807, "name": "OPS 7218 (TRANSIT 16)", "group": "nnss", "lat": -52.306582951758266, "lon": -7.386274678824497, "alt_km": 1075.7290467794573, "timestamp": "2026-01-11T08:36:46.713120+00:00", "meta": {"OBJECT_NAME": "OPS 7218 (TRANSIT 16)", "OBJECT_ID": "1967-048A", "EPOCH": "2026-01-10T17:43:39.999360", "MEAN_MOTION": 13.50729084, "ECCENTRICITY": 0.00214535, "INCLINATION": 89.6748, "RA_OF_ASC_NODE": 353.0552, "ARG_OF_PERICENTER": 36.5422, "MEAN_ANOMALY": 137.3855, "EPHEMERIS_TYPE": 0, "CLASSIFICATION_TYPE": "U", "NORAD_CAT_ID": 2807, "ELEMENT_SET_NO": 999, "REV_AT_EPOCH": 88667, "BSTAR": 0.00014648892, "MEAN_MOTION_DOT": 1.05e-06, "MEAN_MOTION_DDOT": 0}, "tle": {"line1": "1 02807U 67048A   26010.73865740  .00000105  00000+0  14649-3 0  9993", "line2": "2 02807  89.6748 353.0552 0021453  36.5422 137.3855 13.50729084886677"}}, "geometry": {"type": "Point", "coordinates": [-7.386274678824497, -52.306582951758266]}}, {"type": "Feature", "properties": {"norad_id": 2965, "name": "OPS 4947 (TRANSIT 17)", "group": "nnss", "lat": -56.3648569304343, "lon": 21.042633030398687, "alt_km": 1099.611349673145, "timestamp": "2026-01-11T08:36:46.713142+00:00", "meta": {"OBJECT_NAME": "OPS 4947 (TRANSIT 17)", "OBJECT_ID": "1967-092A", "EPOCH": "2026-01-11T00:16:56.557344", "MEAN_MOTION": 13.53461684, "ECCENTRICITY": 0.00486127, "INCLINATION": 89.2483, "RA_OF_ASC_NODE": 22.1998, "ARG_OF_PERICENTER": 149.0322, "MEAN_ANOMALY": 264.1708, "EPHEMERIS_TYPE": 0, "CLASSIFICATION_TYPE": "U", "NORAD_CAT_ID": 2965, "ELEMENT_SET_NO": 999, "REV_AT_EPOCH": 87493, "BSTAR": 0.00015068899, "MEAN_MOTION_DOT": 1.14e-06, "MEAN_MOTION_DDOT": 0}, "tle": {"line1": "1 02965U 67092A   26011.01176571  .00000114  00000+0  15069-3 0  9993", "line2": "2 02965  89.2483  22.1998 0048612 149.0322 264.1708 13.53461684874931"}}, "geometry": {"type": "Point", "coordinates": [21.042633030398687, -56.3648569304343]}}, {"type": "Feature", "properties": {"norad_id": 3133, "name": "OPS 7034 (TRANSIT 18)", "group": "nnss", "lat": -71.75141238798633, "lon": 93.6395388102438, "alt_km": 1128.7549244630072, "timestamp": "2026-01-11T08:36:46.713157+00:00", "meta": {"OBJECT_NAME": "OPS 7034 (TRANSIT 18)", "OBJECT_ID": "1968-012A", "EPOCH": "2026-01-10T17:14:46.055904", "MEAN_MOTION": 13.51573585, "ECCENTRICITY": 0.00756627, "INCLINATION": 90.0279, "RA_OF_ASC_NODE": 273.7224, "ARG_OF_PERICENTER": 86.5352, "MEAN_ANOMALY": 291.4229, "EPHEMERIS_TYPE": 0, "CLASSIFICATION_TYPE": "U", "NORAD_CAT_ID": 3133, "ELEMENT_SET_NO": 999, "REV_AT_EPOCH": 57310, "BSTAR": 0.00020516769, "MEAN_MOTION_DOT": 1.46e-06, "MEAN_MOTION_DDOT": 0}, "tle": {"line1": "1 03133U 68012A   26010.71858861  .00000146  00000+0  20517-3 0  9998", "line2": "2 03133  90.0279 273.7224 0075662  86.5352 291.4229 13.51573585573109"}}, "geometry": {"type": "Point", "coordinates": [93.6395388102438, -71.75141238798633]}}, {"type": "Feature", "properties": {"norad_id": 4507, "name": "NNSS 19 (TRANSIT 19)", "group": "nnss", "lat": -15.95672923493435, "lon": 54.551322759624455, "alt_km": 947.1121029997112, "timestamp": "2026-01-11T08:36:46.713169+00:00", "meta": {"OBJECT_NAME": "NNSS 19 (TRANSIT 19)", "OBJECT_ID": "1970-067A", "EPOCH": "2026-01-10T20:58:40.099872", "MEAN_MOTION": 13.5132181, "ECCENTRICITY": 0.01709315, "INCLINATION": 90.0037, "RA_OF_ASC_NODE": 234.5522, "ARG_OF_PERICENTER": 208.1333, "MEAN_ANOMALY": 151.0504, "EPHEMERIS_TYPE": 0, "CLASSIFICATION_TYPE": "U", "NORAD_CAT_ID": 4507, "ELEMENT_SET_NO": 999, "REV_AT_EPOCH": 72615, "BSTAR": 0.00011525377, "MEAN_MOTION_DOT": 9.1e-07, "MEAN_MOTION_DDOT": 0}, "tle": {"line1": "1 04507U 70067A   26010.87407523  .00000091  00000+0  11525-3 0  9997", "line2": "2 04507  90.0037 234.5522 0170931 208.1333 151.0504 13.51321810726153"}}, "geometry": {"type": "Point", "coordinates": [54.551322759624455, -15.95672923493435]}}, {"type": "Feature", "properties": {"norad_id": 6909, "name": "NNSS 20 (TRANSIT 20)", "group": "nnss", "lat": -69.97662958602903, "lon": 75.00853260767278, "alt_km": 1020.2682160765335, "timestamp": "2026-01-11T08:36:46.713180+00:00", "meta": {"OBJECT_NAME": "NNSS 20 (TRANSIT 20)", "OBJECT_ID": "1973-081A", "EPOCH": "2026-01-10T17:22:47.608896", "MEAN_MOTION": 13.71450537, "ECCENTRICITY": 0.01546338, "INCLINATION": 89.8548, "RA_OF_ASC_NODE": 254.6195, "ARG_OF_PERICENTER": 352.0554, "MEAN_ANOMALY": 7.8162, "EPHEMERIS_TYPE": 0, "CLASSIFICATION_TYPE": "U", "NORAD_CAT_ID": 6909, "ELEMENT_SET_NO": 999, "REV_AT_EPOCH": 80758, "BSTAR": 0.00019692717, "MEAN_MOTION_DOT": 2.02e-06, "MEAN_MOTION_DDOT": 0}, "tle": {"line1": "1 06909U 73081A   26010.72416214  .00000202  00000+0  19693-3 0  9993", "line2": "2 06909  89.8548 254.6195 0154633 352.0554   7.8162 13.71450537807584"}}, "geometry": {"type": "Point", "coordinates": [75.00853260767278, -69.97662958602903]}}, {"type": "Feature", "properties": {"norad_id": 10457, "name": "TRANSAT", "group": "nnss", "lat": -51.53590586400928, "lon": 77.09827897075972, "alt_km": 1102.1817606510685, "timestamp": "2026-01-11T08:36:46.713191+00:00", "meta": {"OBJECT_NAME": "TRANSAT", "OBJECT_ID": "1977-106A", "EPOCH": "2026-01-10T15:37:54.225984", "MEAN_MOTION": 13.48948759, "ECCENTRICITY": 0.00274208, "INCLINATION": 89.6456, "RA_OF_ASC_NODE": 77.5699, "ARG_OF_PERICENTER": 109.3557, "MEAN_ANOMALY": 5.3143, "EPHEMERIS_TYPE": 0, "CLASSIFICATION_TYPE": "U", "NORAD_CAT_ID": 10457, "ELEMENT_SET_NO": 999, "REV_AT_EPOCH": 37133, "BSTAR": 0.00011135162, "MEAN_MOTION_DOT": 8e-07, "MEAN_MOTION_DDOT": 0}, "tle": {"line1": "1 10457U 77106A   26010.65132206  .00000080  00000+0  11135-3 0  9993", "line2": "2 10457  89.6456  77.5699 0027420 109.3557   5.3143 13.48948759371336"}}, "geometry": {"type": "Point", "coordinates": [77.09827897075972, -51.53590586400928]}}, {"type": "Feature", "properties": {"norad_id": 12458, "name": "NOVA 1", "group": "nnss", "lat": -3.0157207367077477, "lon": 90.95662609642302, "alt_km": 1166.1162743759633, "timestamp": "2026-01-11T08:36:46.713202+00:00", "meta": {"OBJECT_NAME": "NOVA 1", "OBJECT_ID": "1981-044A", "EPOCH": "2026-01-10T18:42:08.413056", "MEAN_MOTION": 13.23281897, "ECCENTRICITY": 0.00147398, "INCLINATION": 89.8509, "RA_OF_ASC_NODE": 90.9728, "ARG_OF_PERICENTER": 31.1804, "MEAN_ANOMALY": 86.453, "EPHEMERIS_TYPE": 0, "CLASSIFICATION_TYPE": "U", "NORAD_CAT_ID": 12458, "ELEMENT_SET_NO": 999, "REV_AT_EPOCH": 15570, "BSTAR": 6.0506888e-05, "MEAN_MOTION_DOT": 3.5e-07, "MEAN_MOTION_DDOT": 0}, "tle": {"line1": "1 12458U 81044A   26010.77926404  .00000035  00000+0  60507-4 0  9994", "line2": "2 12458  89.8509  90.9728 0014739  31.1804  86.4530 13.23281897155705"}}, "geometry": {"type": "Point", "coordinates": [90.95662609642302, -3.0157207367077477]}}, {"type": "Feature", "properties": {"norad_id": 15362, "name": "NOVA 3", "group": "nnss", "lat": -24.869866754088623, "lon": -99.1752373908687, "alt_km": 1161.5731034063083, "timestamp": "2026-01-11T08:36:46.713213+00:00", "meta": {"OBJECT_NAME": "NOVA 3", "OBJECT_ID": "1984-110A", "EPOCH": "2026-01-10T23:23:22.918848", "MEAN_MOTION": 13.23048664, "ECCENTRICITY": 0.00300469, "INCLINATION": 90.1198, "RA_OF_ASC_NODE": 80.8759, "ARG_OF_PERICENTER": 247.1504, "MEAN_ANOMALY": 288.4724, "EPHEMERIS_TYPE": 0, "CLASSIFICATION_TYPE": "U", "NORAD_CAT_ID": 15362, "ELEMENT_SET_NO": 999, "REV_AT_EPOCH": 99085, "BSTAR": 9.4677054e-05, "MEAN_MOTION_DOT": 4.8e-07, "MEAN_MOTION_DDOT": 0}, "tle": {"line1": "1 15362U 84110A   26010.97457082  .00000048  00000+0  94677-4 0  9990", "line2": "2 15362  90.1198  80.8759 0030046 247.1504 288.4724 13.23048664990853"}}, "geometry": {"type": "Point", "coordinates": [-99.1752373908687, -24.869866754088623]}}, {"type": "Feature", "properties": {"norad_id": 15935, "name": "OSCAR 30", "group": "nnss", "lat": -52.23246938699606, "lon": -79.88176013350585, "alt_km": 1208.089722582973, "timestamp": "2026-01-11T08:36:46.713223+00:00", "meta": {"OBJECT_NAME": "OSCAR 30", "OBJECT_ID": "1985-066A", "EPOCH": "2026-01-10T21:19:52.426272", "MEAN_MOTION": 13.3608374, "ECCENTRICITY": 0.01674266, "INCLINATION": 90.1642, "RA_OF_ASC_NODE": 100.3227, "ARG_OF_PERICENTER": 2.1351, "MEAN_ANOMALY": 131.8559, "EPHEMERIS_TYPE": 0, "CLASSIFICATION_TYPE": "U", "NORAD_CAT_ID": 15935, "ELEMENT_SET_NO": 999, "REV_AT_EPOCH": 96842, "BSTAR": 0.00016015164, "MEAN_MOTION_DOT": 9.7e-07, "MEAN_MOTION_DDOT": 0}, "tle": {"line1": "1 15935U 85066A   26010.88880123  .00000097  00000+0  16015-3 0  9996", "line2": "2 15935  90.1642 100.3227 0167426   2.1351 131.8559 13.36083740968426"}}, "geometry": {"type": "Point", "coordinates": [-79.88176013350585, -52.23246938699606]}}, {"type": "Feature", "properties": {"norad_id": 15936, "name": "OSCAR 24", "group": "nnss", "lat": -68.08702223631568, "lon": 93.26856498194213, "alt_km": 1097.81343935751, "timestamp": "2026-01-11T08:36:46.713233+00:00", "meta": {"OBJECT_NAME": "OSCAR 24", "OBJECT_ID": "1985-066B", "EPOCH": "2026-01-10T19:09:10.302624", "MEAN_MOTION": 13.35941165, "ECCENTRICITY": 0.01686651, "INCLINATION": 90.1774, "RA_OF_ASC_NODE": 92.8175, "ARG_OF_PERICENTER": 8.9015, "MEAN_ANOMALY": 109.2161, "EPHEMERIS_TYPE": 0, "CLASSIFICATION_TYPE": "U", "NORAD_CAT_ID": 15936, "ELEMENT_SET_NO": 999, "REV_AT_EPOCH": 97031, "BSTAR": 0.00015058329, "MEAN_MOTION_DOT": 9.2e-07, "MEAN_MOTION_DDOT": 0}, "tle": {"line1": "1 15936U 85066B   26010.79803591  .00000092  00000+0  15058-3 0  9992", "line2": "2 15936  90.1774  92.8175 0168665   8.9015 109.2161 13.35941165970319"}}, "geometry": {"type": "Point", "coordinates": [93.26856498194213, -68.08702223631568]}}, {"type": "Feature", "properties": {"norad_id": 17070, "name": "POLAR BEAR", "group": "nnss", "lat": -4.113748321576984, "lon": -177.4390650442006, "alt_km": 960.6871521151479, "timestamp": "2026-01-11T08:36:46.713243+00:00", "meta": {"OBJECT_NAME": "POLAR BEAR", "OBJECT_ID": "1986-088A", "EPOCH": "2026-01-10T11:57:55.661760", "MEAN_MOTION": 13.75257794, "ECCENTRICITY": 0.00403744, "INCLINATION": 89.6181, "RA_OF_ASC_NODE": 182.623, "ARG_OF_PERICENTER": 36.2305, "MEAN_ANOMALY": 23.3023, "EPHEMERIS_TYPE": 0, "CLASSIFICATION_TYPE": "U", "NORAD_CAT_ID": 17070, "ELEMENT_SET_NO": 999, "REV_AT_EPOCH": 96374, "BSTAR": 0.00011372426, "MEAN_MOTION_DOT": 1.21e-06, "MEAN_MOTION_DDOT": 0}, "tle": {"line1": "1 17070U 86088A   26010.49856090  .00000121  00000+0  11372-3 0  9995", "line2": "2 17070  89.6181 182.6230 0040374  36.2305  23.3023 13.75257794963741"}}, "geometry": {"type": "Point", "coordinates": [-177.4390650442006, -4.113748321576984]}}, {"type": "Feature", "properties": {"norad_id": 18361, "name": "OSCAR 27", "group": "nnss", "lat": -83.6805875333289, "lon": -102.98363395760765, "alt_km": 1142.5419799672563, "timestamp": "2026-01-11T08:36:46.713254+00:00", "meta": {"OBJECT_NAME": "OSCAR 27", "OBJECT_ID": "1987-080A", "EPOCH": "2026-01-10T17:01:48.062784", "MEAN_MOTION": 13.44913405, "ECCENTRICITY": 0.01052843, "INCLINATION": 90.3717, "RA_OF_ASC_NODE": 80.3526, "ARG_OF_PERICENTER": 140.9948, "MEAN_ANOMALY": 219.8854, "EPHEMERIS_TYPE": 0, "CLASSIFICATION_TYPE": "U", "NORAD_CAT_ID": 18361, "ELEMENT_SET_NO": 999, "REV_AT_EPOCH": 87946, "BSTAR": 0.00012917097, "MEAN_MOTION_DOT": 8.7e-07, "MEAN_MOTION_DDOT": 0}, "tle": {"line1": "1 18361U 87080A   26010.70958406  .00000087  00000+0  12917-3 0  9997", "line2": "2 18361  90.3717  80.3526 0105284 140.9948 219.8854 13.44913405879462"}}, "geometry": {"type": "Point", "coordinates": [-102.98363395760765, -83.6805875333289]}}, {"type": "Feature", "properties": {"norad_id": 18362, "name": "OSCAR 29", "group": "nnss", "lat": -47.22614618501025, "lon": -99.56512015405438, "alt_km": 1065.503947066225, "timestamp": "2026-01-11T08:36:46.713264+00:00", "meta": {"OBJECT_NAME": "OSCAR 29", "OBJECT_ID": "1987-080B", "EPOCH": "2026-01-10T17:47:38.976576", "MEAN_MOTION": 13.44454561, "ECCENTRICITY": 0.01062253, "INCLINATION": 90.3729, "RA_OF_ASC_NODE": 80.8152, "ARG_OF_PERICENTER": 163.7864, "MEAN_ANOMALY": 315.5406, "EPHEMERIS_TYPE": 0, "CLASSIFICATION_TYPE": "U", "NORAD_CAT_ID": 18362, "ELEMENT_SET_NO": 999, "REV_AT_EPOCH": 87899, "BSTAR": 0.00011917782, "MEAN_MOTION_DOT": 8.1e-07, "MEAN_MOTION_DDOT": 0}, "tle": {"line1": "1 18362U 87080B   26010.74142334  .00000081  00000+0  11918-3 0  9991", "line2": "2 18362  90.3729  80.8152 0106225 163.7864 315.5406 13.44454561878999"}}, "geometry": {"type": "Point", "coordinates": [-99.56512015405438, -47.22614618501025]}}, {"type": "Feature", "properties": {"norad_id": 19070, "name": "OSCAR 23", "group": "nnss", "lat": 24.987544451340195, "lon": 17.158729300474214, "alt_km": 1109.4827905934953, "timestamp": "2026-01-11T08:36:46.713274+00:00", "meta": {"OBJECT_NAME": "OSCAR 23", "OBJECT_ID": "1988-033A", "EPOCH": "2026-01-10T23:47:02.709312", "MEAN_MOTION": 13.27792474, "ECCENTRICITY": 0.01912338, "INCLINATION": 90.3204, "RA_OF_ASC_NODE": 17.2967, "ARG_OF_PERICENTER": 99.0152, "MEAN_ANOMALY": 330.7411, "EPHEMERIS_TYPE": 0, "CLASSIFICATION_TYPE": "U", "NORAD_CAT_ID": 19070, "ELEMENT_SET_NO": 999, "REV_AT_EPOCH": 82641, "BSTAR": 0.00015587338, "MEAN_MOTION_DOT": 8.8e-07, "MEAN_MOTION_DDOT": 0}, "tle": {"line1": "1 19070U 88033A   26010.99100358  .00000088  00000+0  15587-3 0  9997", "line2": "2 19070  90.3204  17.2967 0191233  99.0152 330.7411 13.27792474826410"}}, "geometry": {"type": "Point", "coordinates": [17.158729300474214, 24.987544451340195]}}, {"type": "Feature", "properties": {"norad_id": 19071, "name": "OSCAR 32", "group": "nnss", "lat": 22.606374374184533, "lon": -162.42474848800774, "alt_km": 1108.2767754812912, "timestamp": "2026-01-11T08:36:46.713299+00:00", "meta": {"OBJECT_NAME": "OSCAR 32", "OBJECT_ID": "1988-033B", "EPOCH": "2026-01-10T23:05:45.428640", "MEAN_MOTION": 13.27958766, "ECCENTRICITY": 0.01896722, "INCLINATION": 90.3209, "RA_OF_ASC_NODE": 17.4292, "ARG_OF_PERICENTER": 86.06, "MEAN_ANOMALY": 334.5412, "EPHEMERIS_TYPE": 0, "CLASSIFICATION_TYPE": "U", "NORAD_CAT_ID": 19071, "ELEMENT_SET_NO": 999, "REV_AT_EPOCH": 82653, "BSTAR": 0.00013522405, "MEAN_MOTION_DOT": 7.7e-07, "MEAN_MOTION_DDOT": 0}, "tle": {"line1": "1 19071U 88033B   26010.96233135  .00000077  00000+0  13522-3 0  9990", "line2": "2 19071  90.3209  17.4292 0189672  86.0600 334.5412 13.27958766826531"}}, "geometry": {"type": "Point", "coordinates": [-162.42474848800774, 22.606374374184533]}}, {"type": "Feature", "properties": {"norad_id": 19223, "name": "NOVA 2", "group": "nnss", "lat": 2.0793951128907397, "lon": -101.76839111875006, "alt_km": 1185.291395952714, "timestamp": "2026-01-11T08:36:46.713311+00:00", "meta": {"OBJECT_NAME": "NOVA 2", "OBJECT_ID": "1988-052A", "EPOCH": "2026-01-10T17:49:21.097056", "MEAN_MOTION": 13.22940004, "ECCENTRICITY": 0.00286395, "INCLINATION": 89.9844, "RA_OF_ASC_NODE": 78.2331, "ARG_OF_PERICENTER": 294.6547, "MEAN_ANOMALY": 190.1179, "EPHEMERIS_TYPE": 0, "CLASSIFICATION_TYPE": "U", "NORAD_CAT_ID": 19223, "ELEMENT_SET_NO": 999, "REV_AT_EPOCH": 81331, "BSTAR": 9.188065e-05, "MEAN_MOTION_DOT": 4.7e-07, "MEAN_MOTION_DDOT": 0}, "tle": {"line1": "1 19223U 88052A   26010.74260529  .00000047  00000+0  91881-4 0  9995", "line2": "2 19223  89.9844  78.2331 0028639 294.6547 190.1179 13.22940004813319"}}, "geometry": {"type": "Point", "coordinates": [-101.76839111875006, 2.0793951128907397]}}, {"type": "Feature", "properties": {"norad_id": 19419, "name": "OSCAR 25", "group": "nnss", "lat": -11.451673481231555, "lon": -159.66870958290494, "alt_km": 1041.3869877408088, "timestamp": "2026-01-11T08:36:46.713321+00:00", "meta": {"OBJECT_NAME": "OSCAR 25", "OBJECT_ID": "1988-074A", "EPOCH": "2026-01-10T12:35:57.609312", "MEAN_MOTION": 13.42629146, "ECCENTRICITY": 0.00966356, "INCLINATION": 90.0335, "RA_OF_ASC_NODE": 20.3353, "ARG_OF_PERICENTER": 163.1749, "MEAN_ANOMALY": 319.3481, "EPHEMERIS_TYPE": 0, "CLASSIFICATION_TYPE": "U", "NORAD_CAT_ID": 19419, "ELEMENT_SET_NO": 999, "REV_AT_EPOCH": 83026, "BSTAR": 0.00013681304, "MEAN_MOTION_DOT": 8.9e-07, "MEAN_MOTION_DDOT": 0}, "tle": {"line1": "1 19419U 88074A   26010.52497233  .00000089  00000+0  13681-3 0  9993", "line2": "2 19419  90.0335  20.3353 0096635 163.1749 319.3481 13.42629146830268"}}, "geometry": {"type": "Point", "coordinates": [-159.66870958290494, -11.451673481231555]}}, {"type": "Feature", "properties": {"norad_id": 19420, "name": "OSCAR 31", "group": "nnss", "lat": 69.25630531698904, "lon": 20.600179951455665, "alt_km": 1087.0824794893406, "timestamp": "2026-01-11T08:36:46.713332+00:00", "meta": {"OBJECT_NAME": "OSCAR 31", "OBJECT_ID": "1988-074B", "EPOCH": "2026-01-10T23:36:37.335744", "MEAN_MOTION": 13.42589324, "ECCENTRICITY": 0.00950751, "INCLINATION": 90.0351, "RA_OF_ASC_NODE": 20.6916, "ARG_OF_PERICENTER": 156.1129, "MEAN_ANOMALY": 262.3166, "EPHEMERIS_TYPE": 0, "CLASSIFICATION_TYPE": "U", "NORAD_CAT_ID": 19420, "ELEMENT_SET_NO": 999, "REV_AT_EPOCH": 83043, "BSTAR": 8.5162216e-05, "MEAN_MOTION_DOT": 5.9e-07, "MEAN_MOTION_DDOT": 0}, "tle": {"line1": "1 19420U 88074B   26010.98376546  .00000059  00000+0  85162-4 0  9999", "line2": "2 19420  90.0351  20.6916 0095075 156.1129 262.3166 13.42589324830436"}}, "geometry": {"type": "Point", "coordinates": [20.600179951455665, 69.25630531698904]}}]}