{"type": "FeatureCollection", "features": [{"type": "Feature", "properties": {"norad_id": 25544, "name": "ISS (ZARYA)", "group": "stations", "lat": -14.934780621016486, "lon": -141.39269122281968, "alt_km": 425.90947296921604, "timestamp": "2026-01-05T04:20:58.556247+00:00", "meta": {"OBJECT_NAME": "ISS (ZARYA)", "OBJECT_ID": "1998-067A", "EPOCH": "2026-01-04T18:12:13.764960", "MEAN_MOTION": 15.49095636, "ECCENTRICITY": 0.0007565, "INCLINATION": 51.6325, "RA_OF_ASC_NODE": 28.5008, "ARG_OF_PERICENTER": 340.7123, "MEAN_ANOMALY": 19.3578, "EPHEMERIS_TYPE": 0, "CLASSIFICATION_TYPE": "U", "NORAD_CAT_ID": 25544, "ELEMENT_SET_NO": 999, "REV_AT_EPOCH": 54642, "BSTAR": 0.00019661877, "MEAN_MOTION_DOT": 0.00010439, "MEAN_MOTION_DDOT": 0}, "tle": {"line1": "1 25544U 98067A   26004.75849265  .00010439  00000+0  19662-3 0  9991", "line2": "2 25544  51.6325  28.5008 0007565 340.7123  19.3578 15.49095636546422"}}, "geometry": {"type": "Point", "coordinates": [-141.39269122281968, -14.934780621016486]}}, {"type": "Feature", "properties": {"norad_id": 48274, "name": "CSS (TIANHE)", "group": "stations", "lat": 5.41296981234821, "lon": 48.12954692122696, "alt_km": 381.46059242762476, "timestamp": "2026-01-05T04:20:58.556272+00:00", "meta": {"OBJECT_NAME": "CSS (TIANHE)", "OBJECT_ID": "2021-035A", "EPOCH": "2026-01-04T23:00:27.190656", "MEAN_MOTION": 15.60180608, "ECCENTRICITY": 0.00107175, "INCLINATION": 41.4651, "RA_OF_ASC_NODE": 235.6438, "ARG_OF_PERICENTER": 221.5522, "MEAN_ANOMALY": 138.4503, "EPHEMERIS_TYPE": 0, "CLASSIFICATION_TYPE": "U", "NORAD_CAT_ID": 48274, "ELEMENT_SET_NO": 999, "REV_AT_EPOCH": 26765, "BSTAR": 0.00017783547, "MEAN_MOTION_DOT": 0.00014618, "MEAN_MOTION_DDOT": 0}, "tle": {"line1": "1 48274U 21035A   26004.95864804  .00014618  00000+0  17784-3 0  9991", "line2": "2 48274  41.4651 235.6438 0010717 221.5522 138.4503 15.60180608267659"}}, "geometry": {"type": "Point", "coordinates": [48.12954692122696, 5.41296981234821]}}, {"type": "Feature", "properties": {"norad_id": 49044, "name": "ISS (NAUKA)", "group": "stations", "lat": -14.934782597066409, "lon": -141.3926895095022, "alt_km": 425.9094730239731, "timestamp": "2026-01-05T04:20:58.556287+00:00", "meta": {"OBJECT_NAME": "ISS (NAUKA)", "OBJECT_ID": "2021-066A", "EPOCH": "2026-01-04T18:12:13.764960", "MEAN_MOTION": 15.49095636, "ECCENTRICITY": 0.0007565, "INCLINATION": 51.6325, "RA_OF_ASC_NODE": 28.5008, "ARG_OF_PERICENTER": 340.7123, "MEAN_ANOMALY": 19.3578, "EPHEMERIS_TYPE": 0, "CLASSIFICATION_TYPE": "U", "NORAD_CAT_ID": 49044, "ELEMENT_SET_NO": 999, "REV_AT_EPOCH": 23044, "BSTAR": 0.00019661877, "MEAN_MOTION_DOT": 0.00010439, "MEAN_MOTION_DDOT": 0}, "tle": {"line1": "1 49044U 21066A   26004.75849265  .00010439  00000+0  19662-3 0  9997", "line2": "2 49044  51.6325  28.5008 0007565 340.7123  19.3578 15.49095636230445"}}, "geometry": {"type": "Point", "coordinates": [-141.3926895095022, -14.934782597066409]}}, {"type": "Feature", "properties": {"norad_id": 49271, "name": "FREGAT DEB", "group": "stations", "lat": -26.90294534582793, "lon": -26.188635817812372, "alt_km": 1142.8358767954442, "timestamp": "2026-01-05T04:20:58.556304+00:00", "meta": {"OBJECT_NAME": "FREGAT DEB", "OBJECT_ID": "2011-037PF", "EPOCH": "2026-01-04T15:26:11.045760", "MEAN_MOTION": 12.35042644, "ECCENTRICITY": 0.0876295, "INCLINATION": 51.6484, "RA_OF_ASC_NODE": 131.7222, "ARG_OF_PERICENTER": 274.1689, "MEAN_ANOMALY": 75.9608, "EPHEMERIS_TYPE": 0, "CLASSIFICATION_TYPE": "U", "NORAD_CAT_ID": 49271, "ELEMENT_SET_NO": 999, "REV_AT_EPOCH": 20476, "BSTAR": 0.061383, "MEAN_MOTION_DOT": 0.00028978, "MEAN_MOTION_DDOT": 0}, "tle": {"line1": "1 49271U 11037PF  26004.64318340  .00028978  00000+0  61383-1 0  9991", "line2": "2 49271  51.6484 131.7222 0876295 274.1689  75.9608 12.35042644204760"}}, "geometry": {"type": "Point", "coordinates": [-26.188635817812372, -26.90294534582793]}}, {"type": "Feature", "properties": {"norad_id": 53239, "name": "CSS (WENTIAN)", "group": "stations", "lat": 5.412967838659931, "lon": 48.12954918635779, "alt_km": 381.4605924091011, "timestamp": "2026-01-05T04:20:58.556318+00:00", "meta": {"OBJECT_NAME": "CSS (WENTIAN)", "OBJECT_ID": "2022-085A", "EPOCH": "2026-01-04T23:00:27.190656", "MEAN_MOTION": 15.60180608, "ECCENTRICITY": 0.00107175, "INCLINATION": 41.4651, "RA_OF_ASC_NODE": 235.6438, "ARG_OF_PERICENTER": 221.5522, "MEAN_ANOMALY": 138.4503, "EPHEMERIS_TYPE": 0, "CLASSIFICATION_TYPE": "U", "NORAD_CAT_ID": 53239, "ELEMENT_SET_NO": 999, "REV_AT_EPOCH": 17384, "BSTAR": 0.00017783547, "MEAN_MOTION_DOT": 0.00014618, "MEAN_MOTION_DDOT": 0}, "tle": {"line1": "1 53239U 22085A   26004.95864804  .00014618  00000+0  17784-3 0  9994", "line2": "2 53239  41.4651 235.6438 0010717 221.5522 138.4503 15.60180608173843"}}, "geometry": {"type": "Point", "coordinates": [48.12954918635779, 5.412967838659931]}}, {"type": "Feature", "properties": {"norad_id": 54216, "name": "CSS (MENGTIAN)", "group": "stations", "lat": 5.412966808908913, "lon": 48.129550368165894, "alt_km": 381.460592399435, "timestamp": "2026-01-05T04:20:58.556342+00:00", "meta": {"OBJECT_NAME": "CSS (MENGTIAN)", "OBJECT_ID": "2022-143A", "EPOCH": "2026-01-04T23:00:27.190656", "MEAN_MOTION": 15.60180608, "ECCENTRICITY": 0.00107175, "INCLINATION": 41.4651, "RA_OF_ASC_NODE": 235.6438, "ARG_OF_PERICENTER": 221.5522, "MEAN_ANOMALY": 138.4503, "EPHEMERIS_TYPE": 0, "CLASSIFICATION_TYPE": "U", "NORAD_CAT_ID": 54216, "ELEMENT_SET_NO": 999, "REV_AT_EPOCH": 15864, "BSTAR": 0.00017783547, "MEAN_MOTION_DOT": 0.00014618, "MEAN_MOTION_DDOT": 0}, "tle": {"line1": "1 54216U 22143A   26004.95864804  .00014618  00000+0  17784-3 0  9995", "line2": "2 54216  41.4651 235.6438 0010717 221.5522 138.4503 15.60180608158640"}}, "geometry": {"type": "Point", "coordinates": [48.129550368165894, 5.412966808908913]}}, {"type": "Feature", "properties": {"norad_id": 63632, "name": "SHENZHOU-20 (SZ-20)", "group": "stations", "lat": 5.4129662511273215, "lon": 48.12955100831163, "alt_km": 381.4605923941999, "timestamp": "2026-01-05T04:20:58.556355+00:00", "meta": {"OBJECT_NAME": "SHENZHOU-20 (SZ-20)", "OBJECT_ID": "2025-082A", "EPOCH": "2026-01-04T23:00:27.190656", "MEAN_MOTION": 15.60180608, "ECCENTRICITY": 0.00107175, "INCLINATION": 41.4651, "RA_OF_ASC_NODE": 235.6438, "ARG_OF_PERICENTER": 221.5522, "MEAN_ANOMALY": 138.4503, "EPHEMERIS_TYPE": 0, "CLASSIFICATION_TYPE": "U", "NORAD_CAT_ID": 63632, "ELEMENT_SET_NO": 999, "REV_AT_EPOCH": 25530, "BSTAR": 0.00017783547, "MEAN_MOTION_DOT": 0.00014618, "MEAN_MOTION_DDOT": 0}, "tle": {"line1": "1 63632U 25082A   26004.95864804  .00014618  00000+0  17784-3 0  9992", "line2": "2 63632  41.4651 235.6438 0010717 221.5522 138.4503 15.60180608255303"}}, "geometry": {"type": "Point", "coordinates": [48.12955100831163, 5.4129662511273215]}}, {"type": "Feature", "properties": {"norad_id": 64751, "name": "PROGRESS-MS 31", "group": "stations", "lat": -14.934786499764561, "lon": -141.39268612570044, "alt_km": 425.9094731321238, "timestamp": "2026-01-05T04:20:58.556366+00:00", "meta": {"OBJECT_NAME": "PROGRESS-MS 31", "OBJECT_ID": "2025-146A", "EPOCH": "2026-01-04T18:12:13.764960", "MEAN_MOTION": 15.49095636, "ECCENTRICITY": 0.0007565, "INCLINATION": 51.6325, "RA_OF_ASC_NODE": 28.5008, "ARG_OF_PERICENTER": 340.7123, "MEAN_ANOMALY": 19.3578, "EPHEMERIS_TYPE": 0, "CLASSIFICATION_TYPE": "U", "NORAD_CAT_ID": 64751, "ELEMENT_SET_NO": 999, "REV_AT_EPOCH": 675, "BSTAR": 0.00019661877, "MEAN_MOTION_DOT": 0.00010439, "MEAN_MOTION_DDOT": 0}, "tle": {"line1": "1 64751U 25146A   26004.75849265  .00010439  00000+0  19662-3 0  9992", "line2": "2 64751  51.6325  28.5008 0007565 340.7123  19.3578 15.49095636  6752"}}, "geometry": {"type": "Point", "coordinates": [-141.39268612570044, -14.934786499764561]}}, {"type": "Feature", "properties": {"norad_id": 64786, "name": "TIANZHOU-9", "group": "stations", "lat": 5.412965307189264, "lon": 48.129552091635276, "alt_km": 381.4605923853387, "timestamp": "2026-01-05T04:20:58.556377+00:00", "meta": {"OBJECT_NAME": "TIANZHOU-9", "OBJECT_ID": "2025-149A", "EPOCH": "2026-01-04T23:00:27.190656", "MEAN_MOTION": 15.60180608, "ECCENTRICITY": 0.00107175, "INCLINATION": 41.4651, "RA_OF_ASC_NODE": 235.6438, "ARG_OF_PERICENTER": 221.5522, "MEAN_ANOMALY": 138.4503, "EPHEMERIS_TYPE": 0, "CLASSIFICATION_TYPE": "U", "NORAD_CAT_ID": 64786, "ELEMENT_SET_NO": 999, "REV_AT_EPOCH": 25530, "BSTAR": 0.00017783547, "MEAN_MOTION_DOT": 0.00014618, "MEAN_MOTION_DDOT": 0}, "tle": {"line1": "1 64786U 25149A   26004.95864804  .00014618  00000+0  17784-3 0  9997", "line2": "2 64786  41.4651 235.6438 0010717 221.5522 138.4503 15.60180608255304"}}, "geometry": {"type": "Point", "coordinates": [48.129552091635276, 5.412965307189264]}}, {"type": "Feature", "properties": {"norad_id": 65077, "name": "CREW DRAGON 11", "group": "stations", "lat": -14.934787537191676, "lon": -141.3926852262079, "alt_km": 425.90947316087204, "timestamp": "2026-01-05T04:20:58.556387+00:00", "meta": {"OBJECT_NAME": "CREW DRAGON 11", "OBJECT_ID": "2025-166A", "EPOCH": "2026-01-04T18:12:13.764960", "MEAN_MOTION": 15.49095636, "ECCENTRICITY": 0.0007565, "INCLINATION": 51.6325, "RA_OF_ASC_NODE": 28.5008, "ARG_OF_PERICENTER": 340.7123, "MEAN_ANOMALY": 19.3578, "EPHEMERIS_TYPE": 0, "CLASSIFICATION_TYPE": "U", "NORAD_CAT_ID": 65077, "ELEMENT_SET_NO": 999, "REV_AT_EPOCH": 214, "BSTAR": 0.00019661877, "MEAN_MOTION_DOT": 0.00010439, "MEAN_MOTION_DDOT": 0}, "tle": {"line1": "1 65077U 25166A   26004.75849265  .00010439  00000+0  19662-3 0  9996", "line2": "2 65077  51.6325  28.5008 0007565 340.7123  19.3578 15.49095636  2143"}}, "geometry": {"type": "Point", "coordinates": [-141.3926852262079, -14.934787537191676]}}, {"type": "Feature", "properties": {"norad_id": 65304, "name": "DRAGON CRS-33", "group": "stations", "lat": -14.934788080604964, "lon": -141.39268475504596, "alt_km": 425.9094731759287, "timestamp": "2026-01-05T04:20:58.556398+00:00", "meta": {"OBJECT_NAME": "DRAGON CRS-33", "OBJECT_ID": "2025-186A", "EPOCH": "2026-01-04T18:12:13.764960", "MEAN_MOTION": 15.49095636, "ECCENTRICITY": 0.0007565, "INCLINATION": 51.6325, "RA_OF_ASC_NODE": 28.5008, "ARG_OF_PERICENTER": 340.7123, "MEAN_ANOMALY": 19.3578, "EPHEMERIS_TYPE": 0, "CLASSIFICATION_TYPE": "U", "NORAD_CAT_ID": 65304, "ELEMENT_SET_NO": 999, "REV_AT_EPOCH": 11, "BSTAR": 0.00019661877, "MEAN_MOTION_DOT": 0.00010439, "MEAN_MOTION_DDOT": 0}, "tle": {"line1": "1 65304U 25186A   26004.75849265  .00010439  00000+0  19662-3 0  9991", "line2": "2 65304  51.6325  28.5008 0007565 340.7123  19.3578 15.49095636   111"}}, "geometry": {"type": "Point", "coordinates": [-141.39268475504596, -14.934788080604964]}}, {"type": "Feature", "properties": {"norad_id": 65586, "name": "PROGRESS-MS 32", "group": "stations", "lat": -14.93478867341995, "lon": -141.39268424105063, "alt_km": 425.90947319235875, "timestamp": "2026-01-05T04:20:58.556410+00:00", "meta": {"OBJECT_NAME": "PROGRESS-MS 32", "OBJECT_ID": "2025-204A", "EPOCH": "2026-01-04T18:12:13.764960", "MEAN_MOTION": 15.49095636, "ECCENTRICITY": 0.0007565, "INCLINATION": 51.6325, "RA_OF_ASC_NODE": 28.5008, "ARG_OF_PERICENTER": 340.7123, "MEAN_ANOMALY": 19.3578, "EPHEMERIS_TYPE": 0, "CLASSIFICATION_TYPE": "U", "NORAD_CAT_ID": 65586, "ELEMENT_SET_NO": 999, "REV_AT_EPOCH": 27, "BSTAR": 0.00019661877, "MEAN_MOTION_DOT": 0.00010439, "MEAN_MOTION_DDOT": 0}, "tle": {"line1": "1 65586U 25204A   26004.75849265  .00010439  00000+0  19662-3 0  9994", "line2": "2 65586  51.6325  28.5008 0007565 340.7123  19.3578 15.49095636   270"}}, "geometry": {"type": "Point", "coordinates": [-141.39268424105063, -14.93478867341995]}}, {"type": "Feature", "properties": {"norad_id": 65616, "name": "CYGNUS NG-23", "group": "stations", "lat": -14.934789167432193, "lon": -141.39268381272146, "alt_km": 425.90947320604573, "timestamp": "2026-01-05T04:20:58.556420+00:00", "meta": {"OBJECT_NAME": "CYGNUS NG-23", "OBJECT_ID": "2025-208A", "EPOCH": "2026-01-04T18:12:13.764960", "MEAN_MOTION": 15.49095636, "ECCENTRICITY": 0.0007565, "INCLINATION": 51.6325, "RA_OF_ASC_NODE": 28.5008, "ARG_OF_PERICENTER": 340.7123, "MEAN_ANOMALY": 19.3578, "EPHEMERIS_TYPE": 0, "CLASSIFICATION_TYPE": "U", "NORAD_CAT_ID": 65616, "ELEMENT_SET_NO": 999, "REV_AT_EPOCH": 22, "BSTAR": 0.00019661877, "MEAN_MOTION_DOT": 0.00010439, "MEAN_MOTION_DDOT": 0}, "tle": {"line1": "1 65616U 25208A   26004.75849265  .00010439  00000+0  19662-3 0  9992", "line2": "2 65616  51.6325  28.5008 0007565 340.7123  19.3578 15.49095636   229"}}, "geometry": {"type": "Point", "coordinates": [-141.39268381272146, -14.934789167432193]}}, {"type": "Feature", "properties": {"norad_id": 65729, "name": "DRAGONFLY", "group": "stations", "lat": -46.02292938312598, "lon": -40.30885039376594, "alt_km": 329.898990528226, "timestamp": "2026-01-05T04:20:58.556431+00:00", "meta": {"OBJECT_NAME": "DRAGONFLY", "OBJECT_ID": "1998-067XH", "EPOCH": "2026-01-04T07:24:41.080320", "MEAN_MOTION": 15.82138824, "ECCENTRICITY": 0.0008663, "INCLINATION": 51.6225, "RA_OF_ASC_NODE": 19.451, "ARG_OF_PERICENTER": 47.6135, "MEAN_ANOMALY": 312.56, "EPHEMERIS_TYPE": 0, "CLASSIFICATION_TYPE": "U", "NORAD_CAT_ID": 65729, "ELEMENT_SET_NO": 999, "REV_AT_EPOCH": 1672, "BSTAR": 0.0014452, "MEAN_MOTION_DOT": 0.00314171, "MEAN_MOTION_DDOT": 0}, "tle": {"line1": "1 65729U 98067XH  26004.30880880  .00314171  00000+0  14452-2 0  9990", "line2": "2 65729  51.6225  19.4510 0008663  47.6135 312.5600 15.82138824 16726"}}, "geometry": {"type": "Point", "coordinates": [-40.30885039376594, -46.02292938312598]}}, {"type": "Feature", "properties": {"norad_id": 65731, "name": "1998-067XK", "group": "stations", "lat": -16.872945720956107, "lon": 3.959858991292457, "alt_km": 355.50316366794505, "timestamp": "2026-01-05T04:20:58.556441+00:00", "meta": {"OBJECT_NAME": "1998-067XK", "OBJECT_ID": "1998-067XK", "EPOCH": "2026-01-04T07:04:13.363104", "MEAN_MOTION": 15.71025189, "ECCENTRICITY": 0.0005326, "INCLINATION": 51.6285, "RA_OF_ASC_NODE": 22.4025, "ARG_OF_PERICENTER": 22.382, "MEAN_ANOMALY": 337.7409, "EPHEMERIS_TYPE": 0, "CLASSIFICATION_TYPE": "U", "NORAD_CAT_ID": 65731, "ELEMENT_SET_NO": 999, "REV_AT_EPOCH": 1668, "BSTAR": 0.0010273, "MEAN_MOTION_DOT": 0.00133296, "MEAN_MOTION_DDOT": 0}, "tle": {"line1": "1 65731U 98067XK  26004.29459911  .00133296  00000+0  10273-2 0  9992", "line2": "2 65731  51.6285  22.4025 0005326  22.3820 337.7409 15.71025189 16682"}}, "geometry": {"type": "Point", "coordinates": [3.959858991292457, -16.872945720956107]}}, {"type": "Feature", "properties": {"norad_id": 65732, "name": "RSP-03", "group": "stations", "lat": -51.55658000139074, "lon": -76.88761742744066, "alt_km": 348.2041256606826, "timestamp": "2026-01-05T04:20:58.556452+00:00", "meta": {"OBJECT_NAME": "RSP-03", "OBJECT_ID": "1998-067XL", "EPOCH": "2026-01-04T22:39:09.940320", "MEAN_MOTION": 15.76153601, "ECCENTRICITY": 0.00064033, "INCLINATION": 51.6255, "RA_OF_ASC_NODE": 17.7146, "ARG_OF_PERICENTER": 33.2879, "MEAN_ANOMALY": 326.8523, "EPHEMERIS_TYPE": 0, "CLASSIFICATION_TYPE": "U", "NORAD_CAT_ID": 65732, "ELEMENT_SET_NO": 999, "REV_AT_EPOCH": 1681, "BSTAR": 0.0012308303, "MEAN_MOTION_DOT": 0.00200991, "MEAN_MOTION_DDOT": 0}, "tle": {"line1": "1 65732U 98067XL  26004.94386505  .00200991  00000+0  12308-2 0  9991", "line2": "2 65732  51.6255  17.7146 0006403  33.2879 326.8523 15.76153601 16810"}}, "geometry": {"type": "Point", "coordinates": [-76.88761742744066, -51.55658000139074]}}, {"type": "Feature", "properties": {"norad_id": 65733, "name": "GHS-01", "group": "stations", "lat": -34.0632681507341, "lon": -134.04532076633453, "alt_km": 312.64646840928253, "timestamp": "2026-01-05T04:20:58.556462+00:00", "meta": {"OBJECT_NAME": "GHS-01", "OBJECT_ID": "1998-067XM", "EPOCH": "2026-01-04T21:22:14.511936", "MEAN_MOTION": 15.8959444, "ECCENTRICITY": 0.00094353, "INCLINATION": 51.6258, "RA_OF_ASC_NODE": 15.087, "ARG_OF_PERICENTER": 55.8265, "MEAN_ANOMALY": 304.3634, "EPHEMERIS_TYPE": 0, "CLASSIFICATION_TYPE": "U", "NORAD_CAT_ID": 65733, "ELEMENT_SET_NO": 999, "REV_AT_EPOCH": 1684, "BSTAR": 0.0015917857, "MEAN_MOTION_DOT": 0.0047744, "MEAN_MOTION_DDOT": 9.6700991e-05}, "tle": {"line1": "1 65733U 98067XM  26004.89044574  .00477440  96701-4  15918-2 0  9996", "line2": "2 65733  51.6258  15.0870 0009435  55.8265 304.3634 15.89594440 16847"}}, "geometry": {"type": "Point", "coordinates": [-134.04532076633453, -34.0632681507341]}}, {"type": "Feature", "properties": {"norad_id": 65941, "name": "YOTSUBA-KULOVER", "group": "stations", "lat": -33.14188339375192, "lon": -126.98661001653346, "alt_km": 384.52014901980874, "timestamp": "2026-01-05T04:20:58.556473+00:00", "meta": {"OBJECT_NAME": "YOTSUBA-KULOVER", "OBJECT_ID": "1998-067XN", "EPOCH": "2026-01-04T10:31:03.086688", "MEAN_MOTION": 15.63114387, "ECCENTRICITY": 0.00036144, "INCLINATION": 51.629, "RA_OF_ASC_NODE": 25.616, "ARG_OF_PERICENTER": 53.1676, "MEAN_ANOMALY": 306.9649, "EPHEMERIS_TYPE": 0, "CLASSIFICATION_TYPE": "U", "NORAD_CAT_ID": 65941, "ELEMENT_SET_NO": 999, "REV_AT_EPOCH": 1340, "BSTAR": 0.00096586849, "MEAN_MOTION_DOT": 0.00090302, "MEAN_MOTION_DDOT": 0}, "tle": {"line1": "1 65941U 98067XN  26004.43823017  .00090302  00000+0  96587-3 0  9996", "line2": "2 65941  51.6290  25.6160 0003614  53.1676 306.9649 15.63114387 13406"}}, "geometry": {"type": "Point", "coordinates": [-126.98661001653346, -33.14188339375192]}}, {"type": "Feature", "properties": {"norad_id": 65942, "name": "BOTAN", "group": "stations", "lat": -20.175094205163, "lon": -142.68280916250953, "alt_km": 367.6043571044547, "timestamp": "2026-01-05T04:20:58.556483+00:00", "meta": {"OBJECT_NAME": "BOTAN", "OBJECT_ID": "1998-067XP", "EPOCH": "2026-01-04T07:36:04.811040", "MEAN_MOTION": 15.68701576, "ECCENTRICITY": 0.00044387, "INCLINATION": 51.6276, "RA_OF_ASC_NODE": 24.7989, "ARG_OF_PERICENTER": 42.1697, "MEAN_ANOMALY": 317.964, "EPHEMERIS_TYPE": 0, "CLASSIFICATION_TYPE": "U", "NORAD_CAT_ID": 65942, "ELEMENT_SET_NO": 999, "REV_AT_EPOCH": 1340, "BSTAR": 0.0012885973, "MEAN_MOTION_DOT": 0.00152239, "MEAN_MOTION_DDOT": 0}, "tle": {"line1": "1 65942U 98067XP  26004.31672235  .00152239  00000+0  12886-2 0  9995", "line2": "2 65942  51.6276  24.7989 0004438  42.1697 317.9640 15.68701576 13406"}}, "geometry": {"type": "Point", "coordinates": [-142.68280916250953, -20.175094205163]}}, {"type": "Feature", "properties": {"norad_id": 65943, "name": "E-KAGAKU-1", "group": "stations", "lat": -33.506944810658936, "lon": -126.49861880409699, "alt_km": 383.5932206021598, "timestamp": "2026-01-05T04:20:58.556495+00:00", "meta": {"OBJECT_NAME": "E-KAGAKU-1", "OBJECT_ID": "1998-067XQ", "EPOCH": "2026-01-04T10:30:55.001376", "MEAN_MOTION": 15.63131105, "ECCENTRICITY": 0.00021958, "INCLINATION": 51.6302, "RA_OF_ASC_NODE": 25.6206, "ARG_OF_PERICENTER": 46.6951, "MEAN_ANOMALY": 313.4227, "EPHEMERIS_TYPE": 0, "CLASSIFICATION_TYPE": "U", "NORAD_CAT_ID": 65943, "ELEMENT_SET_NO": 999, "REV_AT_EPOCH": 1340, "BSTAR": 0.00093835626, "MEAN_MOTION_DOT": 0.00087731, "MEAN_MOTION_DDOT": 0}, "tle": {"line1": "1 65943U 98067XQ  26004.43813659  .00087731  00000+0  93836-3 0  9995", "line2": "2 65943  51.6302  25.6206 0002195  46.6951 313.4227 15.63131105 13401"}}, "geometry": {"type": "Point", "coordinates": [-126.49861880409699, -33.506944810658936]}}, {"type": "Feature", "properties": {"norad_id": 66052, "name": "HRC MONOBLOCK CAMERA", "group": "stations", "lat": 35.49863788567091, "lon": 58.88412979770836, "alt_km": 394.76343508816626, "timestamp": "2026-01-05T04:20:58.556506+00:00", "meta": {"OBJECT_NAME": "HRC MONOBLOCK CAMERA", "OBJECT_ID": "1998-067XR", "EPOCH": "2026-01-04T09:38:51.576576", "MEAN_MOTION": 15.55907384, "ECCENTRICITY": 0.00014258, "INCLINATION": 51.6308, "RA_OF_ASC_NODE": 28.3723, "ARG_OF_PERICENTER": 307.8103, "MEAN_ANOMALY": 52.2759, "EPHEMERIS_TYPE": 0, "CLASSIFICATION_TYPE": "U", "NORAD_CAT_ID": 66052, "ELEMENT_SET_NO": 999, "REV_AT_EPOCH": 1236, "BSTAR": 0.00057326546, "MEAN_MOTION_DOT": 0.00040227, "MEAN_MOTION_DDOT": 0}, "tle": {"line1": "1 66052U 98067XR  26004.40198584  .00040227  00000+0  57327-3 0  9991", "line2": "2 66052  51.6308  28.3723 0001425 307.8103  52.2759 15.55907384 12362"}}, "geometry": {"type": "Point", "coordinates": [58.88412979770836, 35.49863788567091]}}, {"type": "Feature", "properties": {"norad_id": 66174, "name": "HTV-X1", "group": "stations", "lat": -14.934793909951818, "lon": -141.39267970075915, "alt_km": 425.9094733374686, "timestamp": "2026-01-05T04:20:58.556516+00:00", "meta": {"OBJECT_NAME": "HTV-X1", "OBJECT_ID": "2025-241A", "EPOCH": "2026-01-04T18:12:13.764960", "MEAN_MOTION": 15.49095636, "ECCENTRICITY": 0.0007565, "INCLINATION": 51.6325, "RA_OF_ASC_NODE": 28.5008, "ARG_OF_PERICENTER": 340.7123, "MEAN_ANOMALY": 19.3578, "EPHEMERIS_TYPE": 0, "CLASSIFICATION_TYPE": "U", "NORAD_CAT_ID": 66174, "ELEMENT_SET_NO": 999, "REV_AT_EPOCH": 51, "BSTAR": 0.00019661877, "MEAN_MOTION_DOT": 0.00010439, "MEAN_MOTION_DDOT": 0}, "tle": {"line1": "1 66174U 25241A   26004.75849265  .00010439  00000+0  19662-3 0  9999", "line2": "2 66174  51.6325  28.5008 0007565 340.7123  19.3578 15.49095636   511"}}, "geometry": {"type": "Point", "coordinates": [-141.39267970075915, -14.934793909951818]}}, {"type": "Feature", "properties": {"norad_id": 66515, "name": "SZ-21 MODULE", "group": "stations", "lat": 9.579432724095527, "lon": -116.07849297459913, "alt_km": 373.46294187349304, "timestamp": "2026-01-05T04:20:58.556526+00:00", "meta": {"OBJECT_NAME": "SZ-21 MODULE", "OBJECT_ID": "2025-246C", "EPOCH": "2026-01-04T22:09:26.387712", "MEAN_MOTION": 15.63931215, "ECCENTRICITY": 0.00018644, "INCLINATION": 41.4747, "RA_OF_ASC_NODE": 234.4845, "ARG_OF_PERICENTER": 44.4258, "MEAN_ANOMALY": 315.6731, "EPHEMERIS_TYPE": 0, "CLASSIFICATION_TYPE": "U", "NORAD_CAT_ID": 66515, "ELEMENT_SET_NO": 999, "REV_AT_EPOCH": 807, "BSTAR": 0.00032708311, "MEAN_MOTION_DOT": 0.00031475, "MEAN_MOTION_DDOT": 0}, "tle": {"line1": "1 66515U 25246C   26004.92322208  .00031475  00000+0  32708-3 0  9994", "line2": "2 66515  41.4747 234.4845 0001864  44.4258 315.6731 15.63931215  8075"}}, "geometry": {"type": "Point", "coordinates": [-116.07849297459913, 9.579432724095527]}}, {"type": "Feature", "properties": {"norad_id": 66645, "name": "SHENZHOU-22", "group": "stations", "lat": 5.412958485090571, "lon": 48.12955992111146, "alt_km": 381.4605923213039, "timestamp": "2026-01-05T04:20:58.556536+00:00", "meta": {"OBJECT_NAME": "SHENZHOU-22", "OBJECT_ID": "2025-272A", "EPOCH": "2026-01-04T23:00:27.190656", "MEAN_MOTION": 15.60180608, "ECCENTRICITY": 0.00107175, "INCLINATION": 41.4651, "RA_OF_ASC_NODE": 235.6438, "ARG_OF_PERICENTER": 221.5522, "MEAN_ANOMALY": 138.4503, "EPHEMERIS_TYPE": 0, "CLASSIFICATION_TYPE": "U", "NORAD_CAT_ID": 66645, "ELEMENT_SET_NO": 999, "REV_AT_EPOCH": 26749, "BSTAR": 0.00017783547, "MEAN_MOTION_DOT": 0.00014618, "MEAN_MOTION_DDOT": 0}, "tle": {"line1": "1 66645U 25272A   26004.95864804  .00014618  00000+0  17784-3 0  9990", "line2": "2 66645  41.4651 235.6438 0010717 221.5522 138.4503 15.60180608267493"}}, "geometry": {"type": "Point", "coordinates": [48.12955992111146, 5.412958485090571]}}, {"type": "Feature", "properties": {"norad_id": 66664, "name": "SOYUZ-MS 28", "group": "stations", "lat": -14.934795391989418, "lon": -141.39267841577066, "alt_km": 425.90947337853686, "timestamp": "2026-01-05T04:20:58.556546+00:00", "meta": {"OBJECT_NAME": "SOYUZ-MS 28", "OBJECT_ID": "2025-275A", "EPOCH": "2026-01-04T18:12:13.764960", "MEAN_MOTION": 15.49095636, "ECCENTRICITY": 0.0007565, "INCLINATION": 51.6325, "RA_OF_ASC_NODE": 28.5008, "ARG_OF_PERICENTER": 340.7123, "MEAN_ANOMALY": 19.3578, "EPHEMERIS_TYPE": 0, "CLASSIFICATION_TYPE": "U", "NORAD_CAT_ID": 66664, "ELEMENT_SET_NO": 999, "REV_AT_EPOCH": 128, "BSTAR": 0.00019661877, "MEAN_MOTION_DOT": 0.00010439, "MEAN_MOTION_DDOT": 0}, "tle": {"line1": "1 66664U 25275A   26004.75849265  .00010439  00000+0  19662-3 0  9990", "line2": "2 66664  51.6325  28.5008 0007565 340.7123  19.3578 15.49095636  1280"}}, "geometry": {"type": "Point", "coordinates": [-141.39267841577066, -14.934795391989418]}}, {"type": "Feature", "properties": {"norad_id": 66906, "name": "1998-067XS", "group": "stations", "lat": 9.905135660523417, "lon": 33.99946634365231, "alt_km": 409.18815284058655, "timestamp": "2026-01-05T04:20:58.556556+00:00", "meta": {"OBJECT_NAME": "1998-067XS", "OBJECT_ID": "1998-067XS", "EPOCH": "2026-01-04T14:23:11.664384", "MEAN_MOTION": 15.51948769, "ECCENTRICITY": 0.0002453, "INCLINATION": 51.6316, "RA_OF_ASC_NODE": 28.94, "ARG_OF_PERICENTER": 323.1367, "MEAN_ANOMALY": 36.9454, "EPHEMERIS_TYPE": 0, "CLASSIFICATION_TYPE": "U", "NORAD_CAT_ID": 66906, "ELEMENT_SET_NO": 999, "REV_AT_EPOCH": 516, "BSTAR": 0.00040723, "MEAN_MOTION_DOT": 0.00024524, "MEAN_MOTION_DDOT": 0}, "tle": {"line1": "1 66906U 98067XS  26004.59944056  .00024524  00000+0  40723-3 0  9996", "line2": "2 66906  51.6316  28.9400 0002453 323.1367  36.9454 15.51948769  5161"}}, "geometry": {"type": "Point", "coordinates": [33.99946634365231, 9.905135660523417]}}, {"type": "Feature", "properties": {"norad_id": 66907, "name": "1998-067XT", "group": "stations", "lat": 1.0916211751040663, "lon": -155.1632809442608, "alt_km": 405.5473278986983, "timestamp": "2026-01-05T04:20:58.556569+00:00", "meta": {"OBJECT_NAME": "1998-067XT", "OBJECT_ID": "1998-067XT", "EPOCH": "2026-01-04T05:59:24.295200", "MEAN_MOTION": 15.54802766, "ECCENTRICITY": 0.0003955, "INCLINATION": 51.6312, "RA_OF_ASC_NODE": 30.3541, "ARG_OF_PERICENTER": 4.313, "MEAN_ANOMALY": 355.7894, "EPHEMERIS_TYPE": 0, "CLASSIFICATION_TYPE": "U", "NORAD_CAT_ID": 66907, "ELEMENT_SET_NO": 999, "REV_AT_EPOCH": 511, "BSTAR": 0.0011247, "MEAN_MOTION_DOT": 0.00076582, "MEAN_MOTION_DDOT": 0}, "tle": {"line1": "1 66907U 98067XT  26004.24958675  .00076582  00000+0  11247-2 0  9990", "line2": "2 66907  51.6312  30.3541 0003955   4.3130 355.7894 15.54802766  5119"}}, "geometry": {"type": "Point", "coordinates": [-155.1632809442608, 1.0916211751040663]}}, {"type": "Feature", "properties": {"norad_id": 66908, "name": "1998-067XU", "group": "stations", "lat": -3.509008318162702, "lon": -151.52666781005448, "alt_km": 406.1490678021928, "timestamp": "2026-01-05T04:20:58.556579+00:00", "meta": {"OBJECT_NAME": "1998-067XU", "OBJECT_ID": "1998-067XU", "EPOCH": "2026-01-04T07:30:26.205984", "MEAN_MOTION": 15.54794755, "ECCENTRICITY": 0.0003885, "INCLINATION": 51.6309, "RA_OF_ASC_NODE": 30.0253, "ARG_OF_PERICENTER": 1.5182, "MEAN_ANOMALY": 358.5819, "EPHEMERIS_TYPE": 0, "CLASSIFICATION_TYPE": "U", "NORAD_CAT_ID": 66908, "ELEMENT_SET_NO": 999, "REV_AT_EPOCH": 512, "BSTAR": 0.0011949, "MEAN_MOTION_DOT": 0.00081416, "MEAN_MOTION_DDOT": 0}, "tle": {"line1": "1 66908U 98067XU  26004.31280331  .00081416  00000+0  11949-2 0  9997", "line2": "2 66908  51.6309  30.0253 0003885   1.5182 358.5819 15.54794755  5128"}}, "geometry": {"type": "Point", "coordinates": [-151.52666781005448, -3.509008318162702]}}, {"type": "Feature", "properties": {"norad_id": 66909, "name": "SILVERSAT", "group": "stations", "lat": -23.312642859605514, "lon": -134.40138630198382, "alt_km": 406.5369510500568, "timestamp": "2026-01-05T04:20:58.556592+00:00", "meta": {"OBJECT_NAME": "SILVERSAT", "OBJECT_ID": "1998-067XV", "EPOCH": "2026-01-04T10:29:15.936864", "MEAN_MOTION": 15.55345299, "ECCENTRICITY": 0.0003993, "INCLINATION": 51.6312, "RA_OF_ASC_NODE": 29.3551, "ARG_OF_PERICENTER": 10.2921, "MEAN_ANOMALY": 349.8151, "EPHEMERIS_TYPE": 0, "CLASSIFICATION_TYPE": "U", "NORAD_CAT_ID": 66909, "ELEMENT_SET_NO": 999, "REV_AT_EPOCH": 514, "BSTAR": 0.0012537343, "MEAN_MOTION_DOT": 0.00087269, "MEAN_MOTION_DDOT": 0}, "tle": {"line1": "1 66909U 98067XV  26004.43699001  .00087269  00000+0  12537-2 0  9995", "line2": "2 66909  51.6312  29.3551 0003993  10.2921 349.8151 15.55345299  5143"}}, "geometry": {"type": "Point", "coordinates": [-134.40138630198382, -23.312642859605514]}}, {"type": "Feature", "properties": {"norad_id": 66910, "name": "1998-067XW", "group": "stations", "lat": -25.14782926975843, "lon": -132.53533332452952, "alt_km": 406.2663737153698, "timestamp": "2026-01-05T04:20:58.556602+00:00", "meta": {"OBJECT_NAME": "1998-067XW", "OBJECT_ID": "1998-067XW", "EPOCH": "2026-01-04T10:28:26.467680", "MEAN_MOTION": 15.55100222, "ECCENTRICITY": 0.00030983, "INCLINATION": 51.63, "RA_OF_ASC_NODE": 29.3498, "ARG_OF_PERICENTER": 343.2651, "MEAN_ANOMALY": 16.8237, "EPHEMERIS_TYPE": 0, "CLASSIFICATION_TYPE": "U", "NORAD_CAT_ID": 66910, "ELEMENT_SET_NO": 999, "REV_AT_EPOCH": 514, "BSTAR": 0.0011863609, "MEAN_MOTION_DOT": 0.00081743, "MEAN_MOTION_DDOT": 0}, "tle": {"line1": "1 66910U 98067XW  26004.43641745  .00081743  00000+0  11864-2 0  9992", "line2": "2 66910  51.6300  29.3498 0003098 343.2651  16.8237 15.55100222  5148"}}, "geometry": {"type": "Point", "coordinates": [-132.53533332452952, -25.14782926975843]}}, {"type": "Feature", "properties": {"norad_id": 66911, "name": "1998-067XX", "group": "stations", "lat": -51.01338045617338, "lon": -76.27567559567302, "alt_km": 403.7537747718525, "timestamp": "2026-01-05T04:20:58.556621+00:00", "meta": {"OBJECT_NAME": "1998-067XX", "OBJECT_ID": "1998-067XX", "EPOCH": "2026-01-04T08:43:45.630912", "MEAN_MOTION": 15.5596305, "ECCENTRICITY": 0.00030598, "INCLINATION": 51.6307, "RA_OF_ASC_NODE": 29.6157, "ARG_OF_PERICENTER": 357.0626, "MEAN_ANOMALY": 3.0347, "EPHEMERIS_TYPE": 0, "CLASSIFICATION_TYPE": "U", "NORAD_CAT_ID": 66911, "ELEMENT_SET_NO": 999, "REV_AT_EPOCH": 512, "BSTAR": 0.0013229944, "MEAN_MOTION_DOT": 0.00094322, "MEAN_MOTION_DDOT": 0}, "tle": {"line1": "1 66911U 98067XX  26004.36372258  .00094322  00000+0  13230-2 0  9991", "line2": "2 66911  51.6307  29.6157 0003059 357.0626   3.0347 15.55963050  5127"}}, "geometry": {"type": "Point", "coordinates": [-76.27567559567302, -51.01338045617338]}}, {"type": "Feature", "properties": {"norad_id": 66912, "name": "1998-067XY", "group": "stations", "lat": 43.7443613068421, "lon": 156.51726607914298, "alt_km": 400.8453013629669, "timestamp": "2026-01-05T04:20:58.556641+00:00", "meta": {"OBJECT_NAME": "1998-067XY", "OBJECT_ID": "1998-067XY", "EPOCH": "2026-01-04T18:34:57.850752", "MEAN_MOTION": 15.53809565, "ECCENTRICITY": 0.00037664, "INCLINATION": 51.6318, "RA_OF_ASC_NODE": 27.8582, "ARG_OF_PERICENTER": 354.7054, "MEAN_ANOMALY": 5.3896, "EPHEMERIS_TYPE": 0, "CLASSIFICATION_TYPE": "U", "NORAD_CAT_ID": 66912, "ELEMENT_SET_NO": 999, "REV_AT_EPOCH": 518, "BSTAR": 0.00092208253, "MEAN_MOTION_DOT": 0.00060327, "MEAN_MOTION_DDOT": 0}, "tle": {"line1": "1 66912U 98067XY  26004.77428068  .00060327  00000+0  92208-3 0  9999", "line2": "2 66912  51.6318  27.8582 0003766 354.7054   5.3896 15.53809565  5184"}}, "geometry": {"type": "Point", "coordinates": [156.51726607914298, 43.7443613068421]}}]}