{"type": "FeatureCollection", "features": [{"type": "Feature", "properties": {"norad_id": 28054, "name": "DMSP 5D-3 F16 (USA 172)", "group": "weather", "lat": 4.460041860225318, "lon": -139.75259315147034, "alt_km": 842.4492951027478, "timestamp": "2026-01-16T19:25:17.167858+00:00", "meta": {"OBJECT_NAME": "DMSP 5D-3 F16 (USA 172)", "OBJECT_ID": "2003-048A", "EPOCH": "2026-01-16T14:01:43.761792", "MEAN_MOTION": 14.14438238, "ECCENTRICITY": 0.00067671, "INCLINATION": 99.0026, "RA_OF_ASC_NODE": 39.3125, "ARG_OF_PERICENTER": 209.6269, "MEAN_ANOMALY": 262.2922, "EPHEMERIS_TYPE": 0, "CLASSIFICATION_TYPE": "U", "NORAD_CAT_ID": 28054, "ELEMENT_SET_NO": 999, "REV_AT_EPOCH": 14805, "BSTAR": 6.1871141e-05, "MEAN_MOTION_DOT": 7.3e-07, "MEAN_MOTION_DDOT": 0}, "tle": {"line1": "1 28054U 03048A   26016.58453428  .00000073  00000+0  61871-4 0  9994", "line2": "2 28054  99.0026  39.3125 0006767 209.6269 262.2922 14.14438238148051"}}, "geometry": {"type": "Point", "coordinates": [-139.75259315147034, 4.460041860225318]}}, {"type": "Feature", "properties": {"norad_id": 28912, "name": "METEOSAT-9 (MSG-2)", "group": "weather", "lat": 5.472716919726786, "lon": 92.79568930753724, "alt_km": 35895.216686203545, "timestamp": "2026-01-16T19:25:17.167906+00:00", "meta": {"OBJECT_NAME": "METEOSAT-9 (MSG-2)", "OBJECT_ID": "2005-049B", "EPOCH": "2026-01-16T03:59:46.888224", "MEAN_MOTION": 1.00267147, "ECCENTRICITY": 0.00312644, "INCLINATION": 8.9973, "RA_OF_ASC_NODE": 55.6514, "ARG_OF_PERICENTER": 182.9247, "MEAN_ANOMALY": 342.7564, "EPHEMERIS_TYPE": 0, "CLASSIFICATION_TYPE": "U", "NORAD_CAT_ID": 28912, "ELEMENT_SET_NO": 999, "REV_AT_EPOCH": 547, "BSTAR": 0, "MEAN_MOTION_DOT": 1.35e-06, "MEAN_MOTION_DDOT": 0}, "tle": {"line1": "1 28912U 05049B   26016.16651491  .00000135  00000+0  00000+0 0  9995", "line2": "2 28912   8.9973  55.6514 0031264 182.9247 342.7564  1.00267147  5470"}}, "geometry": {"type": "Point", "coordinates": [92.79568930753724, 5.472716919726786]}}, {"type": "Feature", "properties": {"norad_id": 29522, "name": "DMSP 5D-3 F17 (USA 191)", "group": "weather", "lat": 2.1136388456690915, "lon": -153.20586734056366, "alt_km": 840.3166197866194, "timestamp": "2026-01-16T19:25:17.167923+00:00", "meta": {"OBJECT_NAME": "DMSP 5D-3 F17 (USA 191)", "OBJECT_ID": "2006-050A", "EPOCH": "2026-01-16T13:29:36.867264", "MEAN_MOTION": 14.14936487, "ECCENTRICITY": 0.0010926, "INCLINATION": 98.7395, "RA_OF_ASC_NODE": 26.227, "ARG_OF_PERICENTER": 126.2134, "MEAN_ANOMALY": 234.0051, "EPHEMERIS_TYPE": 0, "CLASSIFICATION_TYPE": "U", "NORAD_CAT_ID": 29522, "ELEMENT_SET_NO": 999, "REV_AT_EPOCH": 99097, "BSTAR": 8.0952598e-05, "MEAN_MOTION_DOT": 1.13e-06, "MEAN_MOTION_DDOT": 0}, "tle": {"line1": "1 29522U 06050A   26016.56223226  .00000113  00000+0  80953-4 0  9997", "line2": "2 29522  98.7395  26.2270 0010926 126.2134 234.0051 14.14936487990975"}}, "geometry": {"type": "Point", "coordinates": [-153.20586734056366, 2.1136388456690915]}}, {"type": "Feature", "properties": {"norad_id": 32958, "name": "FENGYUN 3A", "group": "weather", "lat": 67.83420799742065, "lon": 162.61027202881306, "alt_km": 820.0311830392066, "timestamp": "2026-01-16T19:25:17.167936+00:00", "meta": {"OBJECT_NAME": "FENGYUN 3A", "OBJECT_ID": "2008-026A", "EPOCH": "2026-01-16T13:49:38.924544", "MEAN_MOTION": 14.19526879, "ECCENTRICITY": 0.00082291, "INCLINATION": 98.6736, "RA_OF_ASC_NODE": 320.3769, "ARG_OF_PERICENTER": 198.3391, "MEAN_ANOMALY": 161.7489, "EPHEMERIS_TYPE": 0, "CLASSIFICATION_TYPE": "U", "NORAD_CAT_ID": 32958, "ELEMENT_SET_NO": 999, "REV_AT_EPOCH": 91389, "BSTAR": 4.1573712e-05, "MEAN_MOTION_DOT": 4.4e-07, "MEAN_MOTION_DDOT": 0}, "tle": {"line1": "1 32958U 08026A   26016.57614496  .00000044  00000+0  41574-4 0  9992", "line2": "2 32958  98.6736 320.3769 0008229 198.3391 161.7489 14.19526879913891"}}, "geometry": {"type": "Point", "coordinates": [162.61027202881306, 67.83420799742065]}}, {"type": "Feature", "properties": {"norad_id": 35491, "name": "GOES 14", "group": "weather", "lat": -0.2655615286836353, "lon": -84.0471843577988, "alt_km": 35831.7286963929, "timestamp": "2026-01-16T19:25:17.167951+00:00", "meta": {"OBJECT_NAME": "GOES 14", "OBJECT_ID": "2009-033A", "EPOCH": "2026-01-16T12:55:42.600000", "MEAN_MOTION": 1.00103174, "ECCENTRICITY": 9.647e-05, "INCLINATION": 1.2932, "RA_OF_ASC_NODE": 85.015, "ARG_OF_PERICENTER": 256.5019, "MEAN_ANOMALY": 196.9367, "EPHEMERIS_TYPE": 0, "CLASSIFICATION_TYPE": "U", "NORAD_CAT_ID": 35491, "ELEMENT_SET_NO": 999, "REV_AT_EPOCH": 507, "BSTAR": 0, "MEAN_MOTION_DOT": 1.04e-06, "MEAN_MOTION_DDOT": 0}, "tle": {"line1": "1 35491U 09033A   26016.53868750  .00000104  00000+0  00000+0 0  9997", "line2": "2 35491   1.2932  85.0150 0000964 256.5019 196.9367  1.00103174  5077"}}, "geometry": {"type": "Point", "coordinates": [-84.0471843577988, -0.2655615286836353]}}, {"type": "Feature", "properties": {"norad_id": 35951, "name": "DMSP 5D-3 F18 (USA 210)", "group": "weather", "lat": 26.74394382029964, "lon": -6.4794870153674955, "alt_km": 838.1979238361218, "timestamp": "2026-01-16T19:25:17.167965+00:00", "meta": {"OBJECT_NAME": "DMSP 5D-3 F18 (USA 210)", "OBJECT_ID": "2009-057A", "EPOCH": "2026-01-16T14:12:07.350336", "MEAN_MOTION": 14.14795434, "ECCENTRICITY": 0.00106012, "INCLINATION": 98.8876, "RA_OF_ASC_NODE": 357.8264, "ARG_OF_PERICENTER": 326.9012, "MEAN_ANOMALY": 33.1497, "EPHEMERIS_TYPE": 0, "CLASSIFICATION_TYPE": "U", "NORAD_CAT_ID": 35951, "ELEMENT_SET_NO": 999, "REV_AT_EPOCH": 83815, "BSTAR": 0.00014089112, "MEAN_MOTION_DOT": 2.27e-06, "MEAN_MOTION_DDOT": 0}, "tle": {"line1": "1 35951U 09057A   26016.59175174  .00000227  00000+0  14089-3 0  9993", "line2": "2 35951  98.8876 357.8264 0010601 326.9012  33.1497 14.14795434838151"}}, "geometry": {"type": "Point", "coordinates": [-6.4794870153674955, 26.74394382029964]}}, {"type": "Feature", "properties": {"norad_id": 36411, "name": "EWS-G2 (GOES 15)", "group": "weather", "lat": 0.3740115508789684, "lon": 108.94877612470835, "alt_km": 35806.468760304255, "timestamp": "2026-01-16T19:25:17.167978+00:00", "meta": {"OBJECT_NAME": "EWS-G2 (GOES 15)", "OBJECT_ID": "2010-008A", "EPOCH": "2026-01-16T14:20:28.093632", "MEAN_MOTION": 1.00273916, "ECCENTRICITY": 0.00050844, "INCLINATION": 0.8973, "RA_OF_ASC_NODE": 85.9438, "ARG_OF_PERICENTER": 190.6468, "MEAN_ANOMALY": 115.9438, "EPHEMERIS_TYPE": 0, "CLASSIFICATION_TYPE": "U", "NORAD_CAT_ID": 36411, "ELEMENT_SET_NO": 999, "REV_AT_EPOCH": 5811, "BSTAR": 0, "MEAN_MOTION_DOT": 5.4e-07, "MEAN_MOTION_DDOT": 0}, "tle": {"line1": "1 36411U 10008A   26016.59754738  .00000054  00000+0  00000+0 0  9994", "line2": "2 36411   0.8973  85.9438 0005084 190.6468 115.9438  1.00273916 58117"}}, "geometry": {"type": "Point", "coordinates": [108.94877612470835, 0.3740115508789684]}}, {"type": "Feature", "properties": {"norad_id": 36744, "name": "COMS 1", "group": "weather", "lat": 4.398033332503023, "lon": 175.770879999382, "alt_km": 35787.74515685074, "timestamp": "2026-01-16T19:25:17.167991+00:00", "meta": {"OBJECT_NAME": "COMS 1", "OBJECT_ID": "2010-032A", "EPOCH": "2026-01-16T14:39:33.765408", "MEAN_MOTION": 1.00273069, "ECCENTRICITY": 8.1e-05, "INCLINATION": 4.4222, "RA_OF_ASC_NODE": 77.5685, "ARG_OF_PERICENTER": 236.7502, "MEAN_ANOMALY": 149.7904, "EPHEMERIS_TYPE": 0, "CLASSIFICATION_TYPE": "U", "NORAD_CAT_ID": 36744, "ELEMENT_SET_NO": 999, "REV_AT_EPOCH": 4957, "BSTAR": 0, "MEAN_MOTION_DOT": -3.31e-06, "MEAN_MOTION_DDOT": 0}, "tle": {"line1": "1 36744U 10032A   26016.61080747 -.00000331  00000+0  00000+0 0  9994", "line2": "2 36744   4.4222  77.5685 0000810 236.7502 149.7904  1.00273069 49579"}}, "geometry": {"type": "Point", "coordinates": [175.770879999382, 4.398033332503023]}}, {"type": "Feature", "properties": {"norad_id": 37214, "name": "FENGYUN 3B", "group": "weather", "lat": -6.20630023193049, "lon": 63.01086095838555, "alt_km": 848.9058838460487, "timestamp": "2026-01-16T19:25:17.168003+00:00", "meta": {"OBJECT_NAME": "FENGYUN 3B", "OBJECT_ID": "2010-059A", "EPOCH": "2026-01-16T15:10:19.362720", "MEAN_MOTION": 14.14802221, "ECCENTRICITY": 0.00211315, "INCLINATION": 98.9869, "RA_OF_ASC_NODE": 61.8466, "ARG_OF_PERICENTER": 255.7384, "MEAN_ANOMALY": 276.5505, "EPHEMERIS_TYPE": 0, "CLASSIFICATION_TYPE": "U", "NORAD_CAT_ID": 37214, "ELEMENT_SET_NO": 999, "REV_AT_EPOCH": 78599, "BSTAR": 0.00025088471, "MEAN_MOTION_DOT": 4.39e-06, "MEAN_MOTION_DDOT": 0}, "tle": {"line1": "1 37214U 10059A   26016.63216855  .00000439  00000+0  25088-3 0  9994", "line2": "2 37214  98.9869  61.8466 0021131 255.7384 276.5505 14.14802221785994"}}, "geometry": {"type": "Point", "coordinates": [63.01086095838555, -6.20630023193049]}}, {"type": "Feature", "properties": {"norad_id": 37849, "name": "SUOMI NPP", "group": "weather", "lat": 67.71077372608016, "lon": -63.310904555687486, "alt_km": 818.611620218895, "timestamp": "2026-01-16T19:25:17.168014+00:00", "meta": {"OBJECT_NAME": "SUOMI NPP", "OBJECT_ID": "2011-061A", "EPOCH": "2026-01-16T14:01:14.532672", "MEAN_MOTION": 14.1952558, "ECCENTRICITY": 0.00024225, "INCLINATION": 98.7812, "RA_OF_ASC_NODE": 318.6192, "ARG_OF_PERICENTER": 60.8544, "MEAN_ANOMALY": 299.2874, "EPHEMERIS_TYPE": 0, "CLASSIFICATION_TYPE": "U", "NORAD_CAT_ID": 37849, "ELEMENT_SET_NO": 999, "REV_AT_EPOCH": 73693, "BSTAR": 4.8256892e-05, "MEAN_MOTION_DOT": 5.8e-07, "MEAN_MOTION_DDOT": 0}, "tle": {"line1": "1 37849U 11061A   26016.58419598  .00000058  00000+0  48257-4 0  9996", "line2": "2 37849  98.7812 318.6192 0002422  60.8544 299.2874 14.19525580736934"}}, "geometry": {"type": "Point", "coordinates": [-63.310904555687486, 67.71077372608016]}}, {"type": "Feature", "properties": {"norad_id": 38552, "name": "METEOSAT-10 (MSG-3)", "group": "weather", "lat": -1.0433110580269613, "lon": 47.667444117018576, "alt_km": 35782.7340891951, "timestamp": "2026-01-16T19:25:17.168027+00:00", "meta": {"OBJECT_NAME": "METEOSAT-10 (MSG-3)", "OBJECT_ID": "2012-035B", "EPOCH": "2026-01-16T07:12:09.041760", "MEAN_MOTION": 1.00271175, "ECCENTRICITY": 0.00018502, "INCLINATION": 4.309, "RA_OF_ASC_NODE": 61.6286, "ARG_OF_PERICENTER": 284.1484, "MEAN_ANOMALY": 238.0359, "EPHEMERIS_TYPE": 0, "CLASSIFICATION_TYPE": "U", "NORAD_CAT_ID": 38552, "ELEMENT_SET_NO": 999, "REV_AT_EPOCH": 4933, "BSTAR": 0, "MEAN_MOTION_DOT": 7e-08, "MEAN_MOTION_DDOT": 0}, "tle": {"line1": "1 38552U 12035B   26016.30010465  .00000007  00000+0  00000+0 0  9993", "line2": "2 38552   4.3090  61.6286 0001850 284.1484 238.0359  1.00271175 49338"}}, "geometry": {"type": "Point", "coordinates": [47.667444117018576, -1.0433110580269613]}}, {"type": "Feature", "properties": {"norad_id": 38771, "name": "METOP-B", "group": "weather", "lat": 19.199741420261446, "lon": -105.78753696943717, "alt_km": 820.5689928521588, "timestamp": "2026-01-16T19:25:17.168038+00:00", "meta": {"OBJECT_NAME": "METOP-B", "OBJECT_ID": "2012-049A", "EPOCH": "2026-01-16T13:36:03.989376", "MEAN_MOTION": 14.21422866, "ECCENTRICITY": 0.00032455, "INCLINATION": 98.6748, "RA_OF_ASC_NODE": 70.9267, "ARG_OF_PERICENTER": 73.6608, "MEAN_ANOMALY": 286.4926, "EPHEMERIS_TYPE": 0, "CLASSIFICATION_TYPE": "U", "NORAD_CAT_ID": 38771, "ELEMENT_SET_NO": 999, "REV_AT_EPOCH": 69172, "BSTAR": 6.3334275e-05, "MEAN_MOTION_DOT": 9.5e-07, "MEAN_MOTION_DDOT": 0}, "tle": {"line1": "1 38771U 12049A   26016.56671284  .00000095  00000+0  63334-4 0  9992", "line2": "2 38771  98.6748  70.9267 0003245  73.6608 286.4926 14.21422866691723"}}, "geometry": {"type": "Point", "coordinates": [-105.78753696943717, 19.199741420261446]}}, {"type": "Feature", "properties": {"norad_id": 39216, "name": "INSAT-3D", "group": "weather", "lat": 1.5518732209339383, "lon": 177.05479409776765, "alt_km": 35784.79803963617, "timestamp": "2026-01-16T19:25:17.168050+00:00", "meta": {"OBJECT_NAME": "INSAT-3D", "OBJECT_ID": "2013-038B", "EPOCH": "2026-01-16T14:39:48.741120", "MEAN_MOTION": 1.00269108, "ECCENTRICITY": 0.00016809, "INCLINATION": 1.5342, "RA_OF_ASC_NODE": 84.5826, "ARG_OF_PERICENTER": 166.9543, "MEAN_ANOMALY": 213.9581, "EPHEMERIS_TYPE": 0, "CLASSIFICATION_TYPE": "U", "NORAD_CAT_ID": 39216, "ELEMENT_SET_NO": 999, "REV_AT_EPOCH": 4556, "BSTAR": 0, "MEAN_MOTION_DOT": -3.23e-06, "MEAN_MOTION_DDOT": 0}, "tle": {"line1": "1 39216U 13038B   26016.61098080 -.00000323  00000+0  00000+0 0  9990", "line2": "2 39216   1.5342  84.5826 0001680 166.9543 213.9581  1.00269108 45566"}}, "geometry": {"type": "Point", "coordinates": [177.05479409776765, 1.5518732209339383]}}, {"type": "Feature", "properties": {"norad_id": 39260, "name": "FENGYUN 3C", "group": "weather", "lat": 45.61511445600381, "lon": -10.984434052698035, "alt_km": 828.8862826072645, "timestamp": "2026-01-16T19:25:17.168061+00:00", "meta": {"OBJECT_NAME": "FENGYUN 3C", "OBJECT_ID": "2013-052A", "EPOCH": "2026-01-16T14:06:54.506304", "MEAN_MOTION": 14.15708371, "ECCENTRICITY": 0.00158064, "INCLINATION": 98.4805, "RA_OF_ASC_NODE": 357.5733, "ARG_OF_PERICENTER": 99.0145, "MEAN_ANOMALY": 261.282, "EPHEMERIS_TYPE": 0, "CLASSIFICATION_TYPE": "U", "NORAD_CAT_ID": 39260, "ELEMENT_SET_NO": 999, "REV_AT_EPOCH": 63711, "BSTAR": 5.0281137e-05, "MEAN_MOTION_DOT": 5.8e-07, "MEAN_MOTION_DDOT": 0}, "tle": {"line1": "1 39260U 13052A   26016.58813086  .00000058  00000+0  50281-4 0  9997", "line2": "2 39260  98.4805 357.5733 0015806  99.0145 261.2820 14.15708371637113"}}, "geometry": {"type": "Point", "coordinates": [-10.984434052698035, 45.61511445600381]}}, {"type": "Feature", "properties": {"norad_id": 40069, "name": "METEOR-M 2", "group": "weather", "lat": 25.07303614913995, "lon": -5.952430089877283, "alt_km": 819.4198346160856, "timestamp": "2026-01-16T19:25:17.168072+00:00", "meta": {"OBJECT_NAME": "METEOR-M 2", "OBJECT_ID": "2014-037A", "EPOCH": "2026-01-16T14:14:02.835168", "MEAN_MOTION": 14.21400836, "ECCENTRICITY": 0.00067531, "INCLINATION": 98.4937, "RA_OF_ASC_NODE": 357.8487, "ARG_OF_PERICENTER": 111.3692, "MEAN_ANOMALY": 248.8207, "EPHEMERIS_TYPE": 0, "CLASSIFICATION_TYPE": "U", "NORAD_CAT_ID": 40069, "ELEMENT_SET_NO": 999, "REV_AT_EPOCH": 59778, "BSTAR": -0.00011948132, "MEAN_MOTION_DOT": -3.03e-06, "MEAN_MOTION_DDOT": 0}, "tle": {"line1": "1 40069U 14037A   26016.59308837 -.00000303  00000+0 -11948-3 0  9995", "line2": "2 40069  98.4937 357.8487 0006753 111.3692 248.8207 14.21400836597783"}}, "geometry": {"type": "Point", "coordinates": [-5.952430089877283, 25.07303614913995]}}, {"type": "Feature", "properties": {"norad_id": 40267, "name": "HIMAWARI-8", "group": "weather", "lat": 0.01608563271476298, "lon": -171.802097953699, "alt_km": 35788.312253305965, "timestamp": "2026-01-16T19:25:17.168084+00:00", "meta": {"OBJECT_NAME": "HIMAWARI-8", "OBJECT_ID": "2014-060A", "EPOCH": "2026-01-16T14:43:03.429696", "MEAN_MOTION": 1.00270901, "ECCENTRICITY": 8.995e-05, "INCLINATION": 0.0101, "RA_OF_ASC_NODE": 112.7564, "ARG_OF_PERICENTER": 196.628, "MEAN_ANOMALY": 168.0581, "EPHEMERIS_TYPE": 0, "CLASSIFICATION_TYPE": "U", "NORAD_CAT_ID": 40267, "ELEMENT_SET_NO": 999, "REV_AT_EPOCH": 4124, "BSTAR": 0, "MEAN_MOTION_DOT": -2.58e-06, "MEAN_MOTION_DDOT": 0}, "tle": {"line1": "1 40267U 14060A   26016.61323414 -.00000258  00000+0  00000+0 0  9993", "line2": "2 40267   0.0101 112.7564 0000899 196.6280 168.0581  1.00270901 41247"}}, "geometry": {"type": "Point", "coordinates": [-171.802097953699, 0.01608563271476298]}}, {"type": "Feature", "properties": {"norad_id": 40367, "name": "FENGYUN 2G", "group": "weather", "lat": 5.037150814121711, "lon": 147.1627498805961, "alt_km": 35787.71167434363, "timestamp": "2026-01-16T19:25:17.168096+00:00", "meta": {"OBJECT_NAME": "FENGYUN 2G", "OBJECT_ID": "2014-090A", "EPOCH": "2026-01-16T14:31:27.042240", "MEAN_MOTION": 1.00272874, "ECCENTRICITY": 0.00014634, "INCLINATION": 5.2549, "RA_OF_ASC_NODE": 74.6759, "ARG_OF_PERICENTER": 186.7562, "MEAN_ANOMALY": 172.1397, "EPHEMERIS_TYPE": 0, "CLASSIFICATION_TYPE": "U", "NORAD_CAT_ID": 40367, "ELEMENT_SET_NO": 999, "REV_AT_EPOCH": 4047, "BSTAR": 0, "MEAN_MOTION_DOT": -2.9e-06, "MEAN_MOTION_DDOT": 0}, "tle": {"line1": "1 40367U 14090A   26016.60517410 -.00000290  00000+0  00000+0 0  9993", "line2": "2 40367   5.2549  74.6759 0001463 186.7562 172.1397  1.00272874 40470"}}, "geometry": {"type": "Point", "coordinates": [147.1627498805961, 5.037150814121711]}}, {"type": "Feature", "properties": {"norad_id": 40732, "name": "METEOSAT-11 (MSG-4)", "group": "weather", "lat": -0.7199222743568964, "lon": 57.04592524225561, "alt_km": 35785.967230901704, "timestamp": "2026-01-16T19:25:17.168108+00:00", "meta": {"OBJECT_NAME": "METEOSAT-11 (MSG-4)", "OBJECT_ID": "2015-034A", "EPOCH": "2026-01-16T14:05:37.016736", "MEAN_MOTION": 1.00278405, "ECCENTRICITY": 3.968e-05, "INCLINATION": 2.8232, "RA_OF_ASC_NODE": 71.8891, "ARG_OF_PERICENTER": 160.4669, "MEAN_ANOMALY": 104.5174, "EPHEMERIS_TYPE": 0, "CLASSIFICATION_TYPE": "U", "NORAD_CAT_ID": 40732, "ELEMENT_SET_NO": 999, "REV_AT_EPOCH": 569, "BSTAR": 0, "MEAN_MOTION_DOT": 7.9e-07, "MEAN_MOTION_DDOT": 0}, "tle": {"line1": "1 40732U 15034A   26016.58723399  .00000079  00000+0  00000+0 0  9994", "line2": "2 40732   2.8232  71.8891 0000396 160.4669 104.5174  1.00278405  5698"}}, "geometry": {"type": "Point", "coordinates": [57.04592524225561, -0.7199222743568964]}}, {"type": "Feature", "properties": {"norad_id": 41105, "name": "ELEKTRO-L 2", "group": "weather", "lat": -4.00445717998987, "lon": 33.26941793470292, "alt_km": 35789.40128025211, "timestamp": "2026-01-16T19:25:17.168120+00:00", "meta": {"OBJECT_NAME": "ELEKTRO-L 2", "OBJECT_ID": "2015-074A", "EPOCH": "2026-01-16T08:50:42.402912", "MEAN_MOTION": 1.00271335, "ECCENTRICITY": 0.00035927, "INCLINATION": 6.312, "RA_OF_ASC_NODE": 72.4111, "ARG_OF_PERICENTER": 220.6508, "MEAN_ANOMALY": 300.903, "EPHEMERIS_TYPE": 0, "CLASSIFICATION_TYPE": "U", "NORAD_CAT_ID": 41105, "ELEMENT_SET_NO": 999, "REV_AT_EPOCH": 3698, "BSTAR": 0, "MEAN_MOTION_DOT": -1.06e-06, "MEAN_MOTION_DDOT": 0}, "tle": {"line1": "1 41105U 15074A   26016.36854633 -.00000106  00000+0  00000+0 0  9997", "line2": "2 41105   6.3120  72.4111 0003592 220.6508 300.9030  1.00271335 36986"}}, "geometry": {"type": "Point", "coordinates": [33.26941793470292, -4.00445717998987]}}, {"type": "Feature", "properties": {"norad_id": 41752, "name": "INSAT-3DR", "group": "weather", "lat": 0.07492200048594885, "lon": 121.50472982653172, "alt_km": 35838.87227804624, "timestamp": "2026-01-16T19:25:17.168132+00:00", "meta": {"OBJECT_NAME": "INSAT-3DR", "OBJECT_ID": "2016-054A", "EPOCH": "2026-01-16T14:24:05.247936", "MEAN_MOTION": 1.00271828, "ECCENTRICITY": 0.0013894, "INCLINATION": 0.0939, "RA_OF_ASC_NODE": 87.8367, "ARG_OF_PERICENTER": 187.3806, "MEAN_ANOMALY": 130.8376, "EPHEMERIS_TYPE": 0, "CLASSIFICATION_TYPE": "U", "NORAD_CAT_ID": 41752, "ELEMENT_SET_NO": 999, "REV_AT_EPOCH": 3429, "BSTAR": 0, "MEAN_MOTION_DOT": -6e-07, "MEAN_MOTION_DDOT": 0}, "tle": {"line1": "1 41752U 16054A   26016.60006074 -.00000060  00000+0  00000+0 0  9998", "line2": "2 41752   0.0939  87.8367 0013894 187.3806 130.8376  1.00271828 34294"}}, "geometry": {"type": "Point", "coordinates": [121.50472982653172, 0.07492200048594885]}}, {"type": "Feature", "properties": {"norad_id": 41836, "name": "HIMAWARI-9", "group": "weather", "lat": -0.012172660259758885, "lon": -171.69080438709724, "alt_km": 35788.98951605351, "timestamp": "2026-01-16T19:25:17.168144+00:00", "meta": {"OBJECT_NAME": "HIMAWARI-9", "OBJECT_ID": "2016-064A", "EPOCH": "2026-01-16T14:43:03.429696", "MEAN_MOTION": 1.00272417, "ECCENTRICITY": 7.643e-05, "INCLINATION": 0.0498, "RA_OF_ASC_NODE": 230.9454, "ARG_OF_PERICENTER": 119.8272, "MEAN_ANOMALY": 126.7739, "EPHEMERIS_TYPE": 0, "CLASSIFICATION_TYPE": "U", "NORAD_CAT_ID": 41836, "ELEMENT_SET_NO": 999, "REV_AT_EPOCH": 3369, "BSTAR": 0, "MEAN_MOTION_DOT": -2.57e-06, "MEAN_MOTION_DDOT": 0}, "tle": {"line1": "1 41836U 16064A   26016.61323414 -.00000257  00000+0  00000+0 0  9991", "line2": "2 41836   0.0498 230.9454 0000764 119.8272 126.7739  1.00272417 33699"}}, "geometry": {"type": "Point", "coordinates": [-171.69080438709724, -0.012172660259758885]}}, {"type": "Feature", "properties": {"norad_id": 41866, "name": "GOES 16", "group": "weather", "lat": -0.0700042705215412, "lon": -57.1175895743733, "alt_km": 35774.869576504534, "timestamp": "2026-01-16T19:25:17.168157+00:00", "meta": {"OBJECT_NAME": "GOES 16", "OBJECT_ID": "2016-071A", "EPOCH": "2026-01-16T13:07:06.824064", "MEAN_MOTION": 1.00271832, "ECCENTRICITY": 0.0002839, "INCLINATION": 0.1085, "RA_OF_ASC_NODE": 97.2287, "ARG_OF_PERICENTER": 184.3074, "MEAN_ANOMALY": 286.5179, "EPHEMERIS_TYPE": 0, "CLASSIFICATION_TYPE": "U", "NORAD_CAT_ID": 41866, "ELEMENT_SET_NO": 999, "REV_AT_EPOCH": 3358, "BSTAR": 0, "MEAN_MOTION_DOT": -7.3e-07, "MEAN_MOTION_DDOT": 0}, "tle": {"line1": "1 41866U 16071A   26016.54660676 -.00000073  00000+0  00000+0 0  9994", "line2": "2 41866   0.1085  97.2287 0002839 184.3074 286.5179  1.00271832 33586"}}, "geometry": {"type": "Point", "coordinates": [-57.1175895743733, -0.0700042705215412]}}, {"type": "Feature", "properties": {"norad_id": 41882, "name": "FENGYUN 4A", "group": "weather", "lat": 1.9578484953960504, "lon": 171.32744171893637, "alt_km": 35771.25644642511, "timestamp": "2026-01-16T19:25:17.168168+00:00", "meta": {"OBJECT_NAME": "FENGYUN 4A", "OBJECT_ID": "2016-077A", "EPOCH": "2026-01-16T14:38:18.884256", "MEAN_MOTION": 1.00269496, "ECCENTRICITY": 0.00050495, "INCLINATION": 1.9371, "RA_OF_ASC_NODE": 82.0444, "ARG_OF_PERICENTER": 133.1665, "MEAN_ANOMALY": 244.2037, "EPHEMERIS_TYPE": 0, "CLASSIFICATION_TYPE": "U", "NORAD_CAT_ID": 41882, "ELEMENT_SET_NO": 999, "REV_AT_EPOCH": 3341, "BSTAR": 0, "MEAN_MOTION_DOT": -3.41e-06, "MEAN_MOTION_DDOT": 0}, "tle": {"line1": "1 41882U 16077A   26016.60994079 -.00000341  00000+0  00000+0 0  9990", "line2": "2 41882   1.9371  82.0444 0005049 133.1665 244.2037  1.00269496 33411"}}, "geometry": {"type": "Point", "coordinates": [171.32744171893637, 1.9578484953960504]}}, {"type": "Feature", "properties": {"norad_id": 41884, "name": "CYGFM05", "group": "weather", "lat": -12.909819517616949, "lon": 158.63020197127761, "alt_km": 424.8819606480074, "timestamp": "2026-01-16T19:25:17.168180+00:00", "meta": {"OBJECT_NAME": "CYGFM05", "OBJECT_ID": "2016-078A", "EPOCH": "2026-01-16T13:20:01.485600", "MEAN_MOTION": 15.49142437, "ECCENTRICITY": 0.00078359, "INCLINATION": 34.957, "RA_OF_ASC_NODE": 179.4447, "ARG_OF_PERICENTER": 146.973, "MEAN_ANOMALY": 213.1483, "EPHEMERIS_TYPE": 0, "CLASSIFICATION_TYPE": "U", "NORAD_CAT_ID": 41884, "ELEMENT_SET_NO": 999, "REV_AT_EPOCH": 50516, "BSTAR": 0.00028714816, "MEAN_MOTION_DOT": 0.00016107, "MEAN_MOTION_DDOT": 0}, "tle": {"line1": "1 41884U 16078A   26016.55557275  .00016107  00000+0  28715-3 0  9993", "line2": "2 41884  34.9570 179.4447 0007835 146.9730 213.1483 15.49142437505163"}}, "geometry": {"type": "Point", "coordinates": [158.63020197127761, -12.909819517616949]}}, {"type": "Feature", "properties": {"norad_id": 41885, "name": "CYGFM04", "group": "weather", "lat": -19.400440906252282, "lon": 1.8111133159161668, "alt_km": 407.77592629676656, "timestamp": "2026-01-16T19:25:17.168190+00:00", "meta": {"OBJECT_NAME": "CYGFM04", "OBJECT_ID": "2016-078B", "EPOCH": "2026-01-16T13:52:01.921728", "MEAN_MOTION": 15.52085492, "ECCENTRICITY": 0.00070335, "INCLINATION": 34.9327, "RA_OF_ASC_NODE": 153.0311, "ARG_OF_PERICENTER": 176.9507, "MEAN_ANOMALY": 183.1259, "EPHEMERIS_TYPE": 0, "CLASSIFICATION_TYPE": "U", "NORAD_CAT_ID": 41885, "ELEMENT_SET_NO": 999, "REV_AT_EPOCH": 50535, "BSTAR": 0.00030622791, "MEAN_MOTION_DOT": 0.00019091, "MEAN_MOTION_DDOT": 0}, "tle": {"line1": "1 41885U 16078B   26016.57780002  .00019091  00000+0  30623-3 0  9998", "line2": "2 41885  34.9327 153.0311 0007033 176.9507 183.1259 15.52085492505356"}}, "geometry": {"type": "Point", "coordinates": [1.8111133159161668, -19.400440906252282]}}, {"type": "Feature", "properties": {"norad_id": 41886, "name": "CYGFM02", "group": "weather", "lat": 26.423604452839367, "lon": -165.26585221288389, "alt_km": 404.72895827719003, "timestamp": "2026-01-16T19:25:17.168201+00:00", "meta": {"OBJECT_NAME": "CYGFM02", "OBJECT_ID": "2016-078C", "EPOCH": "2026-01-16T13:02:02.269248", "MEAN_MOTION": 15.53594601, "ECCENTRICITY": 0.00085579, "INCLINATION": 34.9416, "RA_OF_ASC_NODE": 151.1133, "ARG_OF_PERICENTER": 176.9503, "MEAN_ANOMALY": 183.1273, "EPHEMERIS_TYPE": 0, "CLASSIFICATION_TYPE": "U", "NORAD_CAT_ID": 41886, "ELEMENT_SET_NO": 999, "REV_AT_EPOCH": 50548, "BSTAR": 0.00031826174, "MEAN_MOTION_DOT": 0.00020977, "MEAN_MOTION_DDOT": 0}, "tle": {"line1": "1 41886U 16078C   26016.54308182  .00020977  00000+0  31826-3 0  9992", "line2": "2 41886  34.9416 151.1133 0008557 176.9503 183.1273 15.53594601505483"}}, "geometry": {"type": "Point", "coordinates": [-165.26585221288389, 26.423604452839367]}}, {"type": "Feature", "properties": {"norad_id": 41887, "name": "CYGFM01", "group": "weather", "lat": 34.55112890669602, "lon": -80.63513773682699, "alt_km": 407.18830217143295, "timestamp": "2026-01-16T19:25:17.168211+00:00", "meta": {"OBJECT_NAME": "CYGFM01", "OBJECT_ID": "2016-078D", "EPOCH": "2026-01-16T12:49:04.006560", "MEAN_MOTION": 15.49767219, "ECCENTRICITY": 0.00074786, "INCLINATION": 34.9398, "RA_OF_ASC_NODE": 181.6816, "ARG_OF_PERICENTER": 136.7718, "MEAN_ANOMALY": 223.3592, "EPHEMERIS_TYPE": 0, "CLASSIFICATION_TYPE": "U", "NORAD_CAT_ID": 41887, "ELEMENT_SET_NO": 999, "REV_AT_EPOCH": 50510, "BSTAR": 0.00028016405, "MEAN_MOTION_DOT": 0.00016065, "MEAN_MOTION_DDOT": 0}, "tle": {"line1": "1 41887U 16078D   26016.53407415  .00016065  00000+0  28016-3 0  9991", "line2": "2 41887  34.9398 181.6816 0007478 136.7718 223.3592 15.49767219505104"}}, "geometry": {"type": "Point", "coordinates": [-80.63513773682699, 34.55112890669602]}}, {"type": "Feature", "properties": {"norad_id": 41888, "name": "CYGFM08", "group": "weather", "lat": -27.76452190033461, "lon": 113.50656747380546, "alt_km": 419.81738526875597, "timestamp": "2026-01-16T19:25:17.168223+00:00", "meta": {"OBJECT_NAME": "CYGFM08", "OBJECT_ID": "2016-078E", "EPOCH": "2026-01-16T13:28:36.755328", "MEAN_MOTION": 15.51079203, "ECCENTRICITY": 0.00090635, "INCLINATION": 34.9435, "RA_OF_ASC_NODE": 164.0684, "ARG_OF_PERICENTER": 164.7751, "MEAN_ANOMALY": 195.3245, "EPHEMERIS_TYPE": 0, "CLASSIFICATION_TYPE": "U", "NORAD_CAT_ID": 41888, "ELEMENT_SET_NO": 999, "REV_AT_EPOCH": 50534, "BSTAR": 0.00030110088, "MEAN_MOTION_DOT": 0.00018112, "MEAN_MOTION_DDOT": 0}, "tle": {"line1": "1 41888U 16078E   26016.56153652  .00018112  00000+0  30110-3 0  9999", "line2": "2 41888  34.9435 164.0684 0009063 164.7751 195.3245 15.51079203505346"}}, "geometry": {"type": "Point", "coordinates": [113.50656747380546, -27.76452190033461]}}, {"type": "Feature", "properties": {"norad_id": 41890, "name": "CYGFM07", "group": "weather", "lat": 5.368491323538957, "lon": 158.9522154468051, "alt_km": 414.94021105360207, "timestamp": "2026-01-16T19:25:17.168233+00:00", "meta": {"OBJECT_NAME": "CYGFM07", "OBJECT_ID": "2016-078G", "EPOCH": "2026-01-16T13:12:17.204832", "MEAN_MOTION": 15.51702321, "ECCENTRICITY": 0.00074627, "INCLINATION": 34.9455, "RA_OF_ASC_NODE": 152.9208, "ARG_OF_PERICENTER": 183.5524, "MEAN_ANOMALY": 176.5147, "EPHEMERIS_TYPE": 0, "CLASSIFICATION_TYPE": "U", "NORAD_CAT_ID": 41890, "ELEMENT_SET_NO": 999, "REV_AT_EPOCH": 50536, "BSTAR": 0.00031024682, "MEAN_MOTION_DOT": 0.00019078, "MEAN_MOTION_DDOT": 0}, "tle": {"line1": "1 41890U 16078G   26016.55019913  .00019078  00000+0  31025-3 0  9990", "line2": "2 41890  34.9455 152.9208 0007462 183.5524 176.5147 15.51702321505365"}}, "geometry": {"type": "Point", "coordinates": [158.9522154468051, 5.368491323538957]}}, {"type": "Feature", "properties": {"norad_id": 41891, "name": "CYGFM03", "group": "weather", "lat": -6.1166791866465795, "lon": -18.009410277146404, "alt_km": 407.3224661801032, "timestamp": "2026-01-16T19:25:17.168243+00:00", "meta": {"OBJECT_NAME": "CYGFM03", "OBJECT_ID": "2016-078H", "EPOCH": "2026-01-16T13:58:17.719392", "MEAN_MOTION": 15.51588673, "ECCENTRICITY": 0.00069054, "INCLINATION": 34.9408, "RA_OF_ASC_NODE": 154.6537, "ARG_OF_PERICENTER": 167.9153, "MEAN_ANOMALY": 192.1736, "EPHEMERIS_TYPE": 0, "CLASSIFICATION_TYPE": "U", "NORAD_CAT_ID": 41891, "ELEMENT_SET_NO": 999, "REV_AT_EPOCH": 50534, "BSTAR": 0.00030580835, "MEAN_MOTION_DOT": 0.00018724, "MEAN_MOTION_DDOT": 0}, "tle": {"line1": "1 41891U 16078H   26016.58214953  .00018724  00000+0  30581-3 0  9998", "line2": "2 41891  34.9408 154.6537 0006905 167.9153 192.1736 15.51588673505341"}}, "geometry": {"type": "Point", "coordinates": [-18.009410277146404, -6.1166791866465795]}}, {"type": "Feature", "properties": {"norad_id": 43010, "name": "FENGYUN 3D", "group": "weather", "lat": -43.006579774351216, "lon": 160.15865395327378, "alt_km": 833.7945952235868, "timestamp": "2026-01-16T19:25:17.168254+00:00", "meta": {"OBJECT_NAME": "FENGYUN 3D", "OBJECT_ID": "2017-072A", "EPOCH": "2026-01-16T14:59:19.741920", "MEAN_MOTION": 14.196949, "ECCENTRICITY": 0.00023694, "INCLINATION": 98.9932, "RA_OF_ASC_NODE": 348.4654, "ARG_OF_PERICENTER": 105.391, "MEAN_ANOMALY": 254.7528, "EPHEMERIS_TYPE": 0, "CLASSIFICATION_TYPE": "U", "NORAD_CAT_ID": 43010, "ELEMENT_SET_NO": 999, "REV_AT_EPOCH": 42348, "BSTAR": -3.1355272e-05, "MEAN_MOTION_DOT": -1.12e-06, "MEAN_MOTION_DDOT": 0}, "tle": {"line1": "1 43010U 17072A   26016.62453405 -.00000112  00000+0 -31355-4 0  9995", "line2": "2 43010  98.9932 348.4654 0002369 105.3910 254.7528 14.19694900423480"}}, "geometry": {"type": "Point", "coordinates": [160.15865395327378, -43.006579774351216]}}, {"type": "Feature", "properties": {"norad_id": 43013, "name": "NOAA 20 (JPSS-1)", "group": "weather", "lat": -4.911042824151681, "lon": -41.51107990102576, "alt_km": 829.6687459236036, "timestamp": "2026-01-16T19:25:17.168265+00:00", "meta": {"OBJECT_NAME": "NOAA 20 (JPSS-1)", "OBJECT_ID": "2017-073A", "EPOCH": "2026-01-16T12:40:41.528352", "MEAN_MOTION": 14.19536276, "ECCENTRICITY": 0.00014469, "INCLINATION": 98.7637, "RA_OF_ASC_NODE": 317.4515, "ARG_OF_PERICENTER": 37.2648, "MEAN_ANOMALY": 322.8628, "EPHEMERIS_TYPE": 0, "CLASSIFICATION_TYPE": "U", "NORAD_CAT_ID": 43013, "ELEMENT_SET_NO": 999, "REV_AT_EPOCH": 42295, "BSTAR": 3.9345799e-05, "MEAN_MOTION_DOT": 3.9e-07, "MEAN_MOTION_DDOT": 0}, "tle": {"line1": "1 43013U 17073A   26016.52825843  .00000039  00000+0  39346-4 0  9991", "line2": "2 43013  98.7637 317.4515 0001446  37.2648 322.8628 14.19536276422951"}}, "geometry": {"type": "Point", "coordinates": [-41.51107990102576, -4.911042824151681]}}, {"type": "Feature", "properties": {"norad_id": 43226, "name": "GOES 17", "group": "weather", "lat": -0.4411362089555444, "lon": -41.92275788658061, "alt_km": 35775.49358731804, "timestamp": "2026-01-16T19:25:17.168278+00:00", "meta": {"OBJECT_NAME": "GOES 17", "OBJECT_ID": "2018-022A", "EPOCH": "2026-01-16T13:14:47.880384", "MEAN_MOTION": 1.0027113, "ECCENTRICITY": 0.00028372, "INCLINATION": 0.5466, "RA_OF_ASC_NODE": 88.5754, "ARG_OF_PERICENTER": 203.9335, "MEAN_ANOMALY": 292.6656, "EPHEMERIS_TYPE": 0, "CLASSIFICATION_TYPE": "U", "NORAD_CAT_ID": 43226, "ELEMENT_SET_NO": 999, "REV_AT_EPOCH": 2890, "BSTAR": 0, "MEAN_MOTION_DOT": -1.65e-06, "MEAN_MOTION_DDOT": 0}, "tle": {"line1": "1 43226U 18022A   26016.55194306 -.00000165  00000+0  00000+0 0  9999", "line2": "2 43226   0.5466  88.5754 0002837 203.9335 292.6656  1.00271130 28902"}}, "geometry": {"type": "Point", "coordinates": [-41.92275788658061, -0.4411362089555444]}}, {"type": "Feature", "properties": {"norad_id": 43491, "name": "FENGYUN 2H", "group": "weather", "lat": 1.9153633345709824, "lon": 126.65623547702194, "alt_km": 35792.75353407629, "timestamp": "2026-01-16T19:25:17.168291+00:00", "meta": {"OBJECT_NAME": "FENGYUN 2H", "OBJECT_ID": "2018-050A", "EPOCH": "2026-01-16T14:25:35.103936", "MEAN_MOTION": 1.00268841, "ECCENTRICITY": 0.00022025, "INCLINATION": 2.64, "RA_OF_ASC_NODE": 80.9461, "ARG_OF_PERICENTER": 176.352, "MEAN_ANOMALY": 154.265, "EPHEMERIS_TYPE": 0, "CLASSIFICATION_TYPE": "U", "NORAD_CAT_ID": 43491, "ELEMENT_SET_NO": 999, "REV_AT_EPOCH": 2791, "BSTAR": 0, "MEAN_MOTION_DOT": -1.12e-06, "MEAN_MOTION_DDOT": 0}, "tle": {"line1": "1 43491U 18050A   26016.60110074 -.00000112  00000+0  00000+0 0  9992", "line2": "2 43491   2.6400  80.9461 0002202 176.3520 154.2650  1.00268841 27915"}}, "geometry": {"type": "Point", "coordinates": [126.65623547702194, 1.9153633345709824]}}, {"type": "Feature", "properties": {"norad_id": 43689, "name": "METOP-C", "group": "weather", "lat": 22.784276663952348, "lon": 75.34988439758538, "alt_km": 820.2643345135466, "timestamp": "2026-01-16T19:25:17.168311+00:00", "meta": {"OBJECT_NAME": "METOP-C", "OBJECT_ID": "2018-087A", "EPOCH": "2026-01-16T14:14:43.148544", "MEAN_MOTION": 14.21498808, "ECCENTRICITY": 6.23e-05, "INCLINATION": 98.6876, "RA_OF_ASC_NODE": 78.8199, "ARG_OF_PERICENTER": 181.152, "MEAN_ANOMALY": 178.9656, "EPHEMERIS_TYPE": 0, "CLASSIFICATION_TYPE": "U", "NORAD_CAT_ID": 43689, "ELEMENT_SET_NO": 999, "REV_AT_EPOCH": 37329, "BSTAR": 5.9208478e-05, "MEAN_MOTION_DOT": 8.6e-07, "MEAN_MOTION_DDOT": 0}, "tle": {"line1": "1 43689U 18087A   26016.59355496  .00000086  00000+0  59208-4 0  9996", "line2": "2 43689  98.6876  78.8199 0000623 181.1520 178.9656 14.21498808373298"}}, "geometry": {"type": "Point", "coordinates": [75.34988439758538, 22.784276663952348]}}, {"type": "Feature", "properties": {"norad_id": 43823, "name": "GEO-KOMPSAT-2A", "group": "weather", "lat": 0.02264337483963259, "lon": 175.83604850381533, "alt_km": 35788.01716137738, "timestamp": "2026-01-16T19:25:17.168324+00:00", "meta": {"OBJECT_NAME": "GEO-KOMPSAT-2A", "OBJECT_ID": "2018-100A", "EPOCH": "2026-01-16T14:39:33.765408", "MEAN_MOTION": 1.002716, "ECCENTRICITY": 8.034e-05, "INCLINATION": 0.0261, "RA_OF_ASC_NODE": 138.7123, "ARG_OF_PERICENTER": 273.5547, "MEAN_ANOMALY": 51.9206, "EPHEMERIS_TYPE": 0, "CLASSIFICATION_TYPE": "U", "NORAD_CAT_ID": 43823, "ELEMENT_SET_NO": 999, "REV_AT_EPOCH": 2611, "BSTAR": 0, "MEAN_MOTION_DOT": -3.26e-06, "MEAN_MOTION_DDOT": 0}, "tle": {"line1": "1 43823U 18100A   26016.61080747 -.00000326  00000+0  00000+0 0  9998", "line2": "2 43823   0.0261 138.7123 0000803 273.5547  51.9206  1.00271600 26110"}}, "geometry": {"type": "Point", "coordinates": [175.83604850381533, 0.02264337483963259]}}, {"type": "Feature", "properties": {"norad_id": 44387, "name": "METEOR-M2 2", "group": "weather", "lat": 80.87882220375825, "lon": -100.59553172497898, "alt_km": 801.712838597321, "timestamp": "2026-01-16T19:25:17.168335+00:00", "meta": {"OBJECT_NAME": "METEOR-M2 2", "OBJECT_ID": "2019-038A", "EPOCH": "2026-01-16T13:56:00.426336", "MEAN_MOTION": 14.24308158, "ECCENTRICITY": 0.00023035, "INCLINATION": 98.9005, "RA_OF_ASC_NODE": 1.7428, "ARG_OF_PERICENTER": 88.902, "MEAN_ANOMALY": 271.2422, "EPHEMERIS_TYPE": 0, "CLASSIFICATION_TYPE": "U", "NORAD_CAT_ID": 44387, "ELEMENT_SET_NO": 999, "REV_AT_EPOCH": 33971, "BSTAR": 6.251993e-05, "MEAN_MOTION_DOT": 9.9e-07, "MEAN_MOTION_DDOT": 0}, "tle": {"line1": "1 44387U 19038A   26016.58056049  .00000099  00000+0  62520-4 0  9995", "line2": "2 44387  98.9005   1.7428 0002303  88.9020 271.2422 14.24308158339715"}}, "geometry": {"type": "Point", "coordinates": [-100.59553172497898, 80.87882220375825]}}, {"type": "Feature", "properties": {"norad_id": 47719, "name": "ARKTIKA-M 1", "group": "weather", "lat": 56.36906044434585, "lon": -150.17128400525908, "alt_km": 32111.267471728712, "timestamp": "2026-01-16T19:25:17.168348+00:00", "meta": {"OBJECT_NAME": "ARKTIKA-M 1", "OBJECT_ID": "2021-016A", "EPOCH": "2026-01-15T23:12:20.444256", "MEAN_MOTION": 2.0063229, "ECCENTRICITY": 0.72212811, "INCLINATION": 63.187, "RA_OF_ASC_NODE": 79.2821, "ARG_OF_PERICENTER": 269.2586, "MEAN_ANOMALY": 15.3898, "EPHEMERIS_TYPE": 0, "CLASSIFICATION_TYPE": "U", "NORAD_CAT_ID": 47719, "ELEMENT_SET_NO": 999, "REV_AT_EPOCH": 3573, "BSTAR": 0, "MEAN_MOTION_DOT": -1.73e-06, "MEAN_MOTION_DDOT": 0}, "tle": {"line1": "1 47719U 21016A   26015.96690329 -.00000173  00000+0  00000+0 0  9996", "line2": "2 47719  63.1870  79.2821 7221281 269.2586  15.3898  2.00632290 35731"}}, "geometry": {"type": "Point", "coordinates": [-150.17128400525908, 56.36906044434585]}}, {"type": "Feature", "properties": {"norad_id": 49008, "name": "FENGYUN 3E", "group": "weather", "lat": -33.49728250723559, "lon": -163.93255695973278, "alt_km": 831.5894972538472, "timestamp": "2026-01-16T19:25:17.168367+00:00", "meta": {"OBJECT_NAME": "FENGYUN 3E", "OBJECT_ID": "2021-062A", "EPOCH": "2026-01-16T13:20:38.025024", "MEAN_MOTION": 14.19886148, "ECCENTRICITY": 0.00020946, "INCLINATION": 98.7485, "RA_OF_ASC_NODE": 21.6664, "ARG_OF_PERICENTER": 134.5344, "MEAN_ANOMALY": 225.6004, "EPHEMERIS_TYPE": 0, "CLASSIFICATION_TYPE": "U", "NORAD_CAT_ID": 49008, "ELEMENT_SET_NO": 999, "REV_AT_EPOCH": 23506, "BSTAR": 0.00014070985, "MEAN_MOTION_DOT": 2.55e-06, "MEAN_MOTION_DDOT": 0}, "tle": {"line1": "1 49008U 21062A   26016.55599566  .00000255  00000+0  14071-3 0  9994", "line2": "2 49008  98.7485  21.6664 0002094 134.5344 225.6004 14.19886148235063"}}, "geometry": {"type": "Point", "coordinates": [-163.93255695973278, -33.49728250723559]}}, {"type": "Feature", "properties": {"norad_id": 51850, "name": "GOES 18", "group": "weather", "lat": -0.017337117084322114, "lon": -89.43489251940693, "alt_km": 35786.31240971326, "timestamp": "2026-01-16T19:25:17.168379+00:00", "meta": {"OBJECT_NAME": "GOES 18", "OBJECT_ID": "2022-021A", "EPOCH": "2026-01-16T13:23:53.735712", "MEAN_MOTION": 1.00271775, "ECCENTRICITY": 8.373e-05, "INCLINATION": 0.013, "RA_OF_ASC_NODE": 75.5771, "ARG_OF_PERICENTER": 289.2178, "MEAN_ANOMALY": 175.1702, "EPHEMERIS_TYPE": 0, "CLASSIFICATION_TYPE": "U", "NORAD_CAT_ID": 51850, "ELEMENT_SET_NO": 999, "REV_AT_EPOCH": 507, "BSTAR": 0, "MEAN_MOTION_DOT": 0, "MEAN_MOTION_DDOT": 0}, "tle": {"line1": "1 51850U 22021A   26016.55826083  .00000000  00000+0  00000+0 0  9996", "line2": "2 51850   0.0130  75.5771 0000837 289.2178 175.1702  1.00271775  5077"}}, "geometry": {"type": "Point", "coordinates": [-89.43489251940693, -0.017337117084322114]}}, {"type": "Feature", "properties": {"norad_id": 54234, "name": "NOAA 21 (JPSS-2)", "group": "weather", "lat": 4.11621071792232, "lon": 138.32209450933462, "alt_km": 829.3907003876166, "timestamp": "2026-01-16T19:25:17.168390+00:00", "meta": {"OBJECT_NAME": "NOAA 21 (JPSS-2)", "OBJECT_ID": "2022-150A", "EPOCH": "2026-01-16T13:31:16.603968", "MEAN_MOTION": 14.19534942, "ECCENTRICITY": 6.229e-05, "INCLINATION": 98.75, "RA_OF_ASC_NODE": 317.4442, "ARG_OF_PERICENTER": 279.9774, "MEAN_ANOMALY": 80.1332, "EPHEMERIS_TYPE": 0, "CLASSIFICATION_TYPE": "U", "NORAD_CAT_ID": 54234, "ELEMENT_SET_NO": 999, "REV_AT_EPOCH": 16503, "BSTAR": 3.2256692e-05, "MEAN_MOTION_DOT": 2.4e-07, "MEAN_MOTION_DDOT": 0}, "tle": {"line1": "1 54234U 22150A   26016.56338662  .00000024  00000+0  32257-4 0  9990", "line2": "2 54234  98.7500 317.4442 0000622 279.9774  80.1332 14.19534942165033"}}, "geometry": {"type": "Point", "coordinates": [138.32209450933462, 4.11621071792232]}}, {"type": "Feature", "properties": {"norad_id": 54743, "name": "METEOSAT-12 (MTG-I1)", "group": "weather", "lat": 0.22701299050164406, "lon": 47.364498315073696, "alt_km": 35787.79407985657, "timestamp": "2026-01-16T19:25:17.168436+00:00", "meta": {"OBJECT_NAME": "METEOSAT-12 (MTG-I1)", "OBJECT_ID": "2022-170C", "EPOCH": "2026-01-16T14:02:52.279584", "MEAN_MOTION": 1.00275314, "ECCENTRICITY": 0.00014424, "INCLINATION": 0.7284, "RA_OF_ASC_NODE": 29.4468, "ARG_OF_PERICENTER": 261.2925, "MEAN_ANOMALY": 35.7707, "EPHEMERIS_TYPE": 0, "CLASSIFICATION_TYPE": "U", "NORAD_CAT_ID": 54743, "ELEMENT_SET_NO": 999, "REV_AT_EPOCH": 1145, "BSTAR": 0, "MEAN_MOTION_DOT": 1.1e-07, "MEAN_MOTION_DDOT": 0}, "tle": {"line1": "1 54743U 22170C   26016.58532731  .00000011  00000+0  00000+0 0  9994", "line2": "2 54743   0.7284  29.4468 0001442 261.2925  35.7707  1.00275314 11450"}}, "geometry": {"type": "Point", "coordinates": [47.364498315073696, 0.22701299050164406]}}, {"type": "Feature", "properties": {"norad_id": 55973, "name": "TIANMU-1 03", "group": "weather", "lat": -3.7804826749071387, "lon": -174.02692402239117, "alt_km": 442.6753613627543, "timestamp": "2026-01-16T19:25:17.168449+00:00", "meta": {"OBJECT_NAME": "TIANMU-1 03", "OBJECT_ID": "2023-039A", "EPOCH": "2026-01-16T14:45:57.332160", "MEAN_MOTION": 15.42095069, "ECCENTRICITY": 0.00025139, "INCLINATION": 97.5114, "RA_OF_ASC_NODE": 185.2738, "ARG_OF_PERICENTER": 296.0956, "MEAN_ANOMALY": 64.0032, "EPHEMERIS_TYPE": 0, "CLASSIFICATION_TYPE": "U", "NORAD_CAT_ID": 55973, "ELEMENT_SET_NO": 999, "REV_AT_EPOCH": 15743, "BSTAR": 0.0003003963, "MEAN_MOTION_DOT": 0.00012762, "MEAN_MOTION_DDOT": 0}, "tle": {"line1": "1 55973U 23039A   26016.61524690  .00012762  00000+0  30040-3 0  9991", "line2": "2 55973  97.5114 185.2738 0002513 296.0956  64.0032 15.42095069157436"}}, "geometry": {"type": "Point", "coordinates": [-174.02692402239117, -3.7804826749071387]}}, {"type": "Feature", "properties": {"norad_id": 55974, "name": "TIANMU-1 04", "group": "weather", "lat": 25.59919362416605, "lon": 8.271902631967032, "alt_km": 439.63170561595234, "timestamp": "2026-01-16T19:25:17.168461+00:00", "meta": {"OBJECT_NAME": "TIANMU-1 04", "OBJECT_ID": "2023-039B", "EPOCH": "2026-01-16T15:38:29.347584", "MEAN_MOTION": 15.42454813, "ECCENTRICITY": 0.00031961, "INCLINATION": 97.5045, "RA_OF_ASC_NODE": 184.4887, "ARG_OF_PERICENTER": 287.8587, "MEAN_ANOMALY": 72.2311, "EPHEMERIS_TYPE": 0, "CLASSIFICATION_TYPE": "U", "NORAD_CAT_ID": 55974, "ELEMENT_SET_NO": 999, "REV_AT_EPOCH": 15744, "BSTAR": 0.00028739425, "MEAN_MOTION_DOT": 0.00012354, "MEAN_MOTION_DDOT": 0}, "tle": {"line1": "1 55974U 23039B   26016.65172856  .00012354  00000+0  28739-3 0  9998", "line2": "2 55974  97.5045 184.4887 0003196 287.8587  72.2311 15.42454813157440"}}, "geometry": {"type": "Point", "coordinates": [8.271902631967032, 25.59919362416605]}}, {"type": "Feature", "properties": {"norad_id": 55975, "name": "TIANMU-1 05", "group": "weather", "lat": 42.92892686621389, "lon": 12.192136500233952, "alt_km": 438.33643715145627, "timestamp": "2026-01-16T19:25:17.168472+00:00", "meta": {"OBJECT_NAME": "TIANMU-1 05", "OBJECT_ID": "2023-039C", "EPOCH": "2026-01-16T14:09:32.971680", "MEAN_MOTION": 15.42046042, "ECCENTRICITY": 0.00025937, "INCLINATION": 97.5092, "RA_OF_ASC_NODE": 184.9184, "ARG_OF_PERICENTER": 324.8846, "MEAN_ANOMALY": 35.223, "EPHEMERIS_TYPE": 0, "CLASSIFICATION_TYPE": "U", "NORAD_CAT_ID": 55975, "ELEMENT_SET_NO": 999, "REV_AT_EPOCH": 15741, "BSTAR": 0.00027697346, "MEAN_MOTION_DOT": 0.0001174, "MEAN_MOTION_DDOT": 0}, "tle": {"line1": "1 55975U 23039C   26016.58996495  .00011740  00000+0  27697-3 0  9994", "line2": "2 55975  97.5092 184.9184 0002593 324.8846  35.2230 15.42046042157415"}}, "geometry": {"type": "Point", "coordinates": [12.192136500233952, 42.92892686621389]}}, {"type": "Feature", "properties": {"norad_id": 55976, "name": "TIANMU-1 06", "group": "weather", "lat": 31.286094844907442, "lon": 10.236845859507953, "alt_km": 438.97281991987074, "timestamp": "2026-01-16T19:25:17.168497+00:00", "meta": {"OBJECT_NAME": "TIANMU-1 06", "OBJECT_ID": "2023-039D", "EPOCH": "2026-01-16T15:39:59.683104", "MEAN_MOTION": 15.42501347, "ECCENTRICITY": 0.00028508, "INCLINATION": 97.5102, "RA_OF_ASC_NODE": 185.4774, "ARG_OF_PERICENTER": 315.5289, "MEAN_ANOMALY": 44.5729, "EPHEMERIS_TYPE": 0, "CLASSIFICATION_TYPE": "U", "NORAD_CAT_ID": 55976, "ELEMENT_SET_NO": 999, "REV_AT_EPOCH": 15744, "BSTAR": 0.00028794864, "MEAN_MOTION_DOT": 0.00012397, "MEAN_MOTION_DDOT": 0}, "tle": {"line1": "1 55976U 23039D   26016.65277411  .00012397  00000+0  28795-3 0  9992", "line2": "2 55976  97.5102 185.4774 0002850 315.5289  44.5729 15.42501347157446"}}, "geometry": {"type": "Point", "coordinates": [10.236845859507953, 31.286094844907442]}}, {"type": "Feature", "properties": {"norad_id": 56232, "name": "FENGYUN 3G", "group": "weather", "lat": 34.831811192463995, "lon": -169.16437288196764, "alt_km": 401.81292595909144, "timestamp": "2026-01-16T19:25:17.168509+00:00", "meta": {"OBJECT_NAME": "FENGYUN 3G", "OBJECT_ID": "2023-055A", "EPOCH": "2026-01-16T14:13:35.403168", "MEAN_MOTION": 15.53567667, "ECCENTRICITY": 0.00042063, "INCLINATION": 49.994, "RA_OF_ASC_NODE": 47.7154, "ARG_OF_PERICENTER": 34.9452, "MEAN_ANOMALY": 325.1791, "EPHEMERIS_TYPE": 0, "CLASSIFICATION_TYPE": "U", "NORAD_CAT_ID": 56232, "ELEMENT_SET_NO": 999, "REV_AT_EPOCH": 15644, "BSTAR": 0.00035104531, "MEAN_MOTION_DOT": 0.000224, "MEAN_MOTION_DDOT": 0}, "tle": {"line1": "1 56232U 23055A   26016.59277087  .00022400  00000+0  35105-3 0  9997", "line2": "2 56232  49.9940  47.7154 0004206  34.9452 325.1791 15.53567667156441"}}, "geometry": {"type": "Point", "coordinates": [-169.16437288196764, 34.831811192463995]}}, {"type": "Feature", "properties": {"norad_id": 57166, "name": "METEOR-M2 3", "group": "weather", "lat": -69.05824901023668, "lon": 98.1159820615034, "alt_km": 817.5162622019534, "timestamp": "2026-01-16T19:25:17.168520+00:00", "meta": {"OBJECT_NAME": "METEOR-M2 3", "OBJECT_ID": "2023-091A", "EPOCH": "2026-01-16T14:41:40.909056", "MEAN_MOTION": 14.24030641, "ECCENTRICITY": 0.00029917, "INCLINATION": 98.6328, "RA_OF_ASC_NODE": 74.5339, "ARG_OF_PERICENTER": 243.3309, "MEAN_ANOMALY": 116.7564, "EPHEMERIS_TYPE": 0, "CLASSIFICATION_TYPE": "U", "NORAD_CAT_ID": 57166, "ELEMENT_SET_NO": 999, "REV_AT_EPOCH": 13294, "BSTAR": 1.7639125e-05, "MEAN_MOTION_DOT": -3e-08, "MEAN_MOTION_DDOT": 0}, "tle": {"line1": "1 57166U 23091A   26016.61227904 -.00000003  00000+0  17639-4 0  9999", "line2": "2 57166  98.6328  74.5339 0002991 243.3309 116.7564 14.24030641132943"}}, "geometry": {"type": "Point", "coordinates": [98.1159820615034, -69.05824901023668]}}, {"type": "Feature", "properties": {"norad_id": 57399, "name": "TIANMU-1 07", "group": "weather", "lat": -54.305238669519085, "lon": 81.14406270419087, "alt_km": 485.2226992768474, "timestamp": "2026-01-16T19:25:17.168530+00:00", "meta": {"OBJECT_NAME": "TIANMU-1 07", "OBJECT_ID": "2023-101A", "EPOCH": "2026-01-16T14:56:53.623104", "MEAN_MOTION": 15.2863515, "ECCENTRICITY": 0.00028955, "INCLINATION": 97.2831, "RA_OF_ASC_NODE": 70.7075, "ARG_OF_PERICENTER": 335.0831, "MEAN_ANOMALY": 25.0269, "EPHEMERIS_TYPE": 0, "CLASSIFICATION_TYPE": "U", "NORAD_CAT_ID": 57399, "ELEMENT_SET_NO": 999, "REV_AT_EPOCH": 13848, "BSTAR": 0.00019350326, "MEAN_MOTION_DOT": 5.316e-05, "MEAN_MOTION_DDOT": 0}, "tle": {"line1": "1 57399U 23101A   26016.62284286  .00005316  00000+0  19350-3 0  9998", "line2": "2 57399  97.2831  70.7075 0002895 335.0831  25.0269 15.28635150138482"}}, "geometry": {"type": "Point", "coordinates": [81.14406270419087, -54.305238669519085]}}, {"type": "Feature", "properties": {"norad_id": 57400, "name": "TIANMU-1 08", "group": "weather", "lat": 58.55997965976678, "lon": -97.2468820884171, "alt_km": 477.4383918750955, "timestamp": "2026-01-16T19:25:17.168543+00:00", "meta": {"OBJECT_NAME": "TIANMU-1 08", "OBJECT_ID": "2023-101B", "EPOCH": "2026-01-16T14:10:55.651296", "MEAN_MOTION": 15.28529653, "ECCENTRICITY": 0.00046443, "INCLINATION": 97.282, "RA_OF_ASC_NODE": 70.4664, "ARG_OF_PERICENTER": 327.9782, "MEAN_ANOMALY": 32.1175, "EPHEMERIS_TYPE": 0, "CLASSIFICATION_TYPE": "U", "NORAD_CAT_ID": 57400, "ELEMENT_SET_NO": 999, "REV_AT_EPOCH": 13847, "BSTAR": 0.00017269754, "MEAN_MOTION_DOT": 4.721e-05, "MEAN_MOTION_DDOT": 0}, "tle": {"line1": "1 57400U 23101B   26016.59092189  .00004721  00000+0  17270-3 0  9994", "line2": "2 57400  97.2820  70.4664 0004644 327.9782  32.1175 15.28529653138477"}}, "geometry": {"type": "Point", "coordinates": [-97.2468820884171, 58.55997965976678]}}, {"type": "Feature", "properties": {"norad_id": 57401, "name": "TIANMU-1 09", "group": "weather", "lat": -21.926737258172427, "lon": -112.77196645986106, "alt_km": 487.0997968741822, "timestamp": "2026-01-16T19:25:17.168554+00:00", "meta": {"OBJECT_NAME": "TIANMU-1 09", "OBJECT_ID": "2023-101C", "EPOCH": "2026-01-16T13:49:37.917984", "MEAN_MOTION": 15.28662061, "ECCENTRICITY": 0.00041021, "INCLINATION": 97.2778, "RA_OF_ASC_NODE": 69.949, "ARG_OF_PERICENTER": 333.776, "MEAN_ANOMALY": 26.3272, "EPHEMERIS_TYPE": 0, "CLASSIFICATION_TYPE": "U", "NORAD_CAT_ID": 57401, "ELEMENT_SET_NO": 999, "REV_AT_EPOCH": 13847, "BSTAR": 0.00019810475, "MEAN_MOTION_DOT": 5.449e-05, "MEAN_MOTION_DDOT": 0}, "tle": {"line1": "1 57401U 23101C   26016.57613331  .00005449  00000+0  19810-3 0  9991", "line2": "2 57401  97.2778  69.9490 0004102 333.7760  26.3272 15.28662061138474"}}, "geometry": {"type": "Point", "coordinates": [-112.77196645986106, -21.926737258172427]}}, {"type": "Feature", "properties": {"norad_id": 57402, "name": "TIANMU-1 10", "group": "weather", "lat": 12.791579516960805, "lon": 69.39924975873625, "alt_km": 478.29311188796237, "timestamp": "2026-01-16T19:25:17.168564+00:00", "meta": {"OBJECT_NAME": "TIANMU-1 10", "OBJECT_ID": "2023-101D", "EPOCH": "2026-01-16T14:39:07.804800", "MEAN_MOTION": 15.28654696, "ECCENTRICITY": 0.00057939, "INCLINATION": 97.2857, "RA_OF_ASC_NODE": 70.8693, "ARG_OF_PERICENTER": 329.0151, "MEAN_ANOMALY": 31.0746, "EPHEMERIS_TYPE": 0, "CLASSIFICATION_TYPE": "U", "NORAD_CAT_ID": 57402, "ELEMENT_SET_NO": 999, "REV_AT_EPOCH": 13847, "BSTAR": 0.00019700124, "MEAN_MOTION_DOT": 5.418e-05, "MEAN_MOTION_DDOT": 0}, "tle": {"line1": "1 57402U 23101D   26016.61050700  .00005418  00000+0  19700-3 0  9996", "line2": "2 57402  97.2857  70.8693 0005793 329.0151  31.0746 15.28654696138472"}}, "geometry": {"type": "Point", "coordinates": [69.39924975873625, 12.791579516960805]}}, {"type": "Feature", "properties": {"norad_id": 57490, "name": "FENGYUN 3F", "group": "weather", "lat": -75.46772055799731, "lon": 125.75000202763428, "alt_km": 833.8677434991878, "timestamp": "2026-01-16T19:25:17.168576+00:00", "meta": {"OBJECT_NAME": "FENGYUN 3F", "OBJECT_ID": "2023-111A", "EPOCH": "2026-01-16T14:42:58.505760", "MEAN_MOTION": 14.19903753, "ECCENTRICITY": 0.00012629, "INCLINATION": 98.7031, "RA_OF_ASC_NODE": 89.3358, "ARG_OF_PERICENTER": 114.2174, "MEAN_ANOMALY": 245.9134, "EPHEMERIS_TYPE": 0, "CLASSIFICATION_TYPE": "U", "NORAD_CAT_ID": 57490, "ELEMENT_SET_NO": 999, "REV_AT_EPOCH": 12735, "BSTAR": 4.0664717e-05, "MEAN_MOTION_DOT": 4.3e-07, "MEAN_MOTION_DDOT": 0}, "tle": {"line1": "1 57490U 23111A   26016.61317715  .00000043  00000+0  40665-4 0  9990", "line2": "2 57490  98.7031  89.3358 0001262 114.2174 245.9134 14.19903753127350"}}, "geometry": {"type": "Point", "coordinates": [125.75000202763428, -75.46772055799731]}}, {"type": "Feature", "properties": {"norad_id": 58584, "name": "ARKTIKA-M 2", "group": "weather", "lat": 49.3245700934515, "lon": -152.95673183631894, "alt_km": 28347.904972611035, "timestamp": "2026-01-16T19:25:17.168588+00:00", "meta": {"OBJECT_NAME": "ARKTIKA-M 2", "OBJECT_ID": "2023-198A", "EPOCH": "2026-01-15T05:26:56.663808", "MEAN_MOTION": 2.00601453, "ECCENTRICITY": 0.68686482, "INCLINATION": 63.2246, "RA_OF_ASC_NODE": 171.2444, "ARG_OF_PERICENTER": 267.9686, "MEAN_ANOMALY": 18.8382, "EPHEMERIS_TYPE": 0, "CLASSIFICATION_TYPE": "U", "NORAD_CAT_ID": 58584, "ELEMENT_SET_NO": 999, "REV_AT_EPOCH": 1525, "BSTAR": 0, "MEAN_MOTION_DOT": 1.76e-06, "MEAN_MOTION_DDOT": 0}, "tle": {"line1": "1 58584U 23198A   26015.22704472  .00000176  00000+0  00000+0 0  9997", "line2": "2 58584  63.2246 171.2444 6868648 267.9686  18.8382  2.00601453 15252"}}, "geometry": {"type": "Point", "coordinates": [-152.95673183631894, 49.3245700934515]}}, {"type": "Feature", "properties": {"norad_id": 58645, "name": "TIANMU-1 11", "group": "weather", "lat": 71.02444726728255, "lon": -117.10184090083442, "alt_km": 480.5719657622076, "timestamp": "2026-01-16T19:25:17.168600+00:00", "meta": {"OBJECT_NAME": "TIANMU-1 11", "OBJECT_ID": "2023-205A", "EPOCH": "2026-01-16T14:13:38.308800", "MEAN_MOTION": 15.25076672, "ECCENTRICITY": 0.00093926, "INCLINATION": 97.3582, "RA_OF_ASC_NODE": 40.6104, "ARG_OF_PERICENTER": 169.2092, "MEAN_ANOMALY": 190.9349, "EPHEMERIS_TYPE": 0, "CLASSIFICATION_TYPE": "U", "NORAD_CAT_ID": 58645, "ELEMENT_SET_NO": 999, "REV_AT_EPOCH": 11440, "BSTAR": 0.00018305384, "MEAN_MOTION_DOT": 4.511e-05, "MEAN_MOTION_DDOT": 0}, "tle": {"line1": "1 58645U 23205A   26016.59280450  .00004511  00000+0  18305-3 0  9998", "line2": "2 58645  97.3582  40.6104 0009392 169.2092 190.9349 15.25076672114407"}}, "geometry": {"type": "Point", "coordinates": [-117.10184090083442, 71.02444726728255]}}, {"type": "Feature", "properties": {"norad_id": 58646, "name": "TIANMU-1 12", "group": "weather", "lat": -53.479243604081255, "lon": 50.665648496941984, "alt_km": 503.0298014902719, "timestamp": "2026-01-16T19:25:17.168610+00:00", "meta": {"OBJECT_NAME": "TIANMU-1 12", "OBJECT_ID": "2023-205B", "EPOCH": "2026-01-16T13:21:34.360416", "MEAN_MOTION": 15.24973303, "ECCENTRICITY": 0.00081844, "INCLINATION": 97.3572, "RA_OF_ASC_NODE": 40.3689, "ARG_OF_PERICENTER": 151.1116, "MEAN_ANOMALY": 209.0577, "EPHEMERIS_TYPE": 0, "CLASSIFICATION_TYPE": "U", "NORAD_CAT_ID": 58646, "ELEMENT_SET_NO": 999, "REV_AT_EPOCH": 11438, "BSTAR": 0.00018660183, "MEAN_MOTION_DOT": 4.585e-05, "MEAN_MOTION_DDOT": 0}, "tle": {"line1": "1 58646U 23205B   26016.55664769  .00004585  00000+0  18660-3 0  9999", "line2": "2 58646  97.3572  40.3689 0008184 151.1116 209.0577 15.24973303114385"}}, "geometry": {"type": "Point", "coordinates": [50.665648496941984, -53.479243604081255]}}, {"type": "Feature", "properties": {"norad_id": 58647, "name": "TIANMU-1 13", "group": "weather", "lat": 51.91450414270376, "lon": -129.67361475729206, "alt_km": 479.8848590558264, "timestamp": "2026-01-16T19:25:17.168621+00:00", "meta": {"OBJECT_NAME": "TIANMU-1 13", "OBJECT_ID": "2023-205C", "EPOCH": "2026-01-16T14:08:26.314944", "MEAN_MOTION": 15.25018796, "ECCENTRICITY": 0.00088956, "INCLINATION": 97.3598, "RA_OF_ASC_NODE": 40.6169, "ARG_OF_PERICENTER": 135.2356, "MEAN_ANOMALY": 224.9601, "EPHEMERIS_TYPE": 0, "CLASSIFICATION_TYPE": "U", "NORAD_CAT_ID": 58647, "ELEMENT_SET_NO": 999, "REV_AT_EPOCH": 11438, "BSTAR": 0.00019157328, "MEAN_MOTION_DOT": 4.716e-05, "MEAN_MOTION_DDOT": 0}, "tle": {"line1": "1 58647U 23205C   26016.58919346  .00004716  00000+0  19157-3 0  9995", "line2": "2 58647  97.3598  40.6169 0008895 135.2356 224.9601 15.25018796114389"}}, "geometry": {"type": "Point", "coordinates": [-129.67361475729206, 51.91450414270376]}}, {"type": "Feature", "properties": {"norad_id": 58648, "name": "TIANMU-1 14", "group": "weather", "lat": -36.06565896808555, "lon": -145.2471428679414, "alt_km": 495.7209315265891, "timestamp": "2026-01-16T19:25:17.168631+00:00", "meta": {"OBJECT_NAME": "TIANMU-1 14", "OBJECT_ID": "2023-205D", "EPOCH": "2026-01-16T13:45:07.912800", "MEAN_MOTION": 15.24998711, "ECCENTRICITY": 0.00096056, "INCLINATION": 97.3532, "RA_OF_ASC_NODE": 39.9175, "ARG_OF_PERICENTER": 139.8396, "MEAN_ANOMALY": 220.3553, "EPHEMERIS_TYPE": 0, "CLASSIFICATION_TYPE": "U", "NORAD_CAT_ID": 58648, "ELEMENT_SET_NO": 999, "REV_AT_EPOCH": 11438, "BSTAR": 0.00018266522, "MEAN_MOTION_DOT": 4.492e-05, "MEAN_MOTION_DDOT": 0}, "tle": {"line1": "1 58648U 23205D   26016.57300825  .00004492  00000+0  18267-3 0  9993", "line2": "2 58648  97.3532  39.9175 0009605 139.8396 220.3553 15.24998711114389"}}, "geometry": {"type": "Point", "coordinates": [-145.2471428679414, -36.06565896808555]}}, {"type": "Feature", "properties": {"norad_id": 58660, "name": "TIANMU-1 19", "group": "weather", "lat": -7.871368961844853, "lon": -48.24002134878708, "alt_km": 482.07140334384076, "timestamp": "2026-01-16T19:25:17.168641+00:00", "meta": {"OBJECT_NAME": "TIANMU-1 19", "OBJECT_ID": "2023-208A", "EPOCH": "2026-01-16T13:53:22.430112", "MEAN_MOTION": 15.28579631, "ECCENTRICITY": 0.00061912, "INCLINATION": 97.4383, "RA_OF_ASC_NODE": 132.5647, "ARG_OF_PERICENTER": 127.3338, "MEAN_ANOMALY": 232.8466, "EPHEMERIS_TYPE": 0, "CLASSIFICATION_TYPE": "U", "NORAD_CAT_ID": 58660, "ELEMENT_SET_NO": 999, "REV_AT_EPOCH": 11414, "BSTAR": 0.00025123242, "MEAN_MOTION_DOT": 6.913e-05, "MEAN_MOTION_DDOT": 0}, "tle": {"line1": "1 58660U 23208A   26016.57873183  .00006913  00000+0  25123-3 0  9991", "line2": "2 58660  97.4383 132.5647 0006191 127.3338 232.8466 15.28579631114142"}}, "geometry": {"type": "Point", "coordinates": [-48.24002134878708, -7.871368961844853]}}, {"type": "Feature", "properties": {"norad_id": 58661, "name": "TIANMU-1 20", "group": "weather", "lat": 51.275946097104494, "lon": 123.90760929368088, "alt_km": 471.24022013385184, "timestamp": "2026-01-16T19:25:17.168651+00:00", "meta": {"OBJECT_NAME": "TIANMU-1 20", "OBJECT_ID": "2023-208B", "EPOCH": "2026-01-16T14:29:08.397024", "MEAN_MOTION": 15.29772026, "ECCENTRICITY": 0.00083123, "INCLINATION": 97.4322, "RA_OF_ASC_NODE": 133.0715, "ARG_OF_PERICENTER": 137.1091, "MEAN_ANOMALY": 223.0799, "EPHEMERIS_TYPE": 0, "CLASSIFICATION_TYPE": "U", "NORAD_CAT_ID": 58661, "ELEMENT_SET_NO": 999, "REV_AT_EPOCH": 11422, "BSTAR": 0.00025466716, "MEAN_MOTION_DOT": 7.274e-05, "MEAN_MOTION_DDOT": 0}, "tle": {"line1": "1 58661U 23208B   26016.60356941  .00007274  00000+0  25467-3 0  9996", "line2": "2 58661  97.4322 133.0715 0008312 137.1091 223.0799 15.29772026114224"}}, "geometry": {"type": "Point", "coordinates": [123.90760929368088, 51.275946097104494]}}, {"type": "Feature", "properties": {"norad_id": 58662, "name": "TIANMU-1 21", "group": "weather", "lat": 21.10707033403841, "lon": 132.45608856404766, "alt_km": 470.44480962853595, "timestamp": "2026-01-16T19:25:17.168661+00:00", "meta": {"OBJECT_NAME": "TIANMU-1 21", "OBJECT_ID": "2023-208C", "EPOCH": "2026-01-16T14:37:37.959168", "MEAN_MOTION": 15.32412885, "ECCENTRICITY": 0.00078198, "INCLINATION": 97.4371, "RA_OF_ASC_NODE": 135.1457, "ARG_OF_PERICENTER": 132.2959, "MEAN_ANOMALY": 227.8946, "EPHEMERIS_TYPE": 0, "CLASSIFICATION_TYPE": "U", "NORAD_CAT_ID": 58662, "ELEMENT_SET_NO": 999, "REV_AT_EPOCH": 11433, "BSTAR": 0.00028738042, "MEAN_MOTION_DOT": 8.924e-05, "MEAN_MOTION_DDOT": 0}, "tle": {"line1": "1 58662U 23208C   26016.60946712  .00008924  00000+0  28738-3 0  9995", "line2": "2 58662  97.4371 135.1457 0007819 132.2959 227.8946 15.32412885114331"}}, "geometry": {"type": "Point", "coordinates": [132.45608856404766, 21.10707033403841]}}, {"type": "Feature", "properties": {"norad_id": 58663, "name": "TIANMU-1 22", "group": "weather", "lat": 25.033663793539123, "lon": -43.66540180108388, "alt_km": 477.22298306858465, "timestamp": "2026-01-16T19:25:17.168671+00:00", "meta": {"OBJECT_NAME": "TIANMU-1 22", "OBJECT_ID": "2023-208D", "EPOCH": "2026-01-16T14:01:58.732320", "MEAN_MOTION": 15.2828145, "ECCENTRICITY": 0.00045646, "INCLINATION": 97.4377, "RA_OF_ASC_NODE": 132.6126, "ARG_OF_PERICENTER": 144.9044, "MEAN_ANOMALY": 215.2497, "EPHEMERIS_TYPE": 0, "CLASSIFICATION_TYPE": "U", "NORAD_CAT_ID": 58663, "ELEMENT_SET_NO": 999, "REV_AT_EPOCH": 11415, "BSTAR": 0.00024079029, "MEAN_MOTION_DOT": 6.56e-05, "MEAN_MOTION_DDOT": 0}, "tle": {"line1": "1 58663U 23208D   26016.58470755  .00006560  00000+0  24079-3 0  9990", "line2": "2 58663  97.4377 132.6126 0004564 144.9044 215.2497 15.28281450114151"}}, "geometry": {"type": "Point", "coordinates": [-43.66540180108388, 25.033663793539123]}}, {"type": "Feature", "properties": {"norad_id": 58700, "name": "TIANMU-1 15", "group": "weather", "lat": -51.829806680202935, "lon": 13.557857444450347, "alt_km": 496.9731518852541, "timestamp": "2026-01-16T19:25:17.168681+00:00", "meta": {"OBJECT_NAME": "TIANMU-1 15", "OBJECT_ID": "2024-004A", "EPOCH": "2026-01-16T15:15:22.696704", "MEAN_MOTION": 15.24943021, "ECCENTRICITY": 0.00075908, "INCLINATION": 97.4629, "RA_OF_ASC_NODE": 202.9843, "ARG_OF_PERICENTER": 153.7638, "MEAN_ANOMALY": 206.3985, "EPHEMERIS_TYPE": 0, "CLASSIFICATION_TYPE": "U", "NORAD_CAT_ID": 58700, "ELEMENT_SET_NO": 999, "REV_AT_EPOCH": 11266, "BSTAR": 0.00020776465, "MEAN_MOTION_DOT": 5.106e-05, "MEAN_MOTION_DDOT": 0}, "tle": {"line1": "1 58700U 24004A   26016.63567936  .00005106  00000+0  20776-3 0  9996", "line2": "2 58700  97.4629 202.9843 0007590 153.7638 206.3985 15.24943021112661"}}, "geometry": {"type": "Point", "coordinates": [13.557857444450347, -51.829806680202935]}}, {"type": "Feature", "properties": {"norad_id": 58701, "name": "TIANMU-1 16", "group": "weather", "lat": -42.36736591335837, "lon": -150.61981302637886, "alt_km": 501.48002171264943, "timestamp": "2026-01-16T19:25:17.168691+00:00", "meta": {"OBJECT_NAME": "TIANMU-1 16", "OBJECT_ID": "2024-004B", "EPOCH": "2026-01-16T14:53:04.676064", "MEAN_MOTION": 15.2497083, "ECCENTRICITY": 0.00059452, "INCLINATION": 97.4571, "RA_OF_ASC_NODE": 202.3306, "ARG_OF_PERICENTER": 153.8865, "MEAN_ANOMALY": 206.2673, "EPHEMERIS_TYPE": 0, "CLASSIFICATION_TYPE": "U", "NORAD_CAT_ID": 58701, "ELEMENT_SET_NO": 999, "REV_AT_EPOCH": 11266, "BSTAR": 0.00020594478, "MEAN_MOTION_DOT": 5.064e-05, "MEAN_MOTION_DDOT": 0}, "tle": {"line1": "1 58701U 24004B   26016.62019301  .00005064  00000+0  20594-3 0  9995", "line2": "2 58701  97.4571 202.3306 0005945 153.8865 206.2673 15.24970830112662"}}, "geometry": {"type": "Point", "coordinates": [-150.61981302637886, -42.36736591335837]}}, {"type": "Feature", "properties": {"norad_id": 58702, "name": "TIANMU-1 17", "group": "weather", "lat": 46.47090091220488, "lon": -164.98226704577473, "alt_km": 487.66494331822105, "timestamp": "2026-01-16T19:25:17.168701+00:00", "meta": {"OBJECT_NAME": "TIANMU-1 17", "OBJECT_ID": "2024-004C", "EPOCH": "2026-01-16T14:29:29.969376", "MEAN_MOTION": 15.25011354, "ECCENTRICITY": 0.00051261, "INCLINATION": 97.4604, "RA_OF_ASC_NODE": 202.7422, "ARG_OF_PERICENTER": 153.1374, "MEAN_ANOMALY": 207.013, "EPHEMERIS_TYPE": 0, "CLASSIFICATION_TYPE": "U", "NORAD_CAT_ID": 58702, "ELEMENT_SET_NO": 999, "REV_AT_EPOCH": 11265, "BSTAR": 0.00020599741, "MEAN_MOTION_DOT": 5.07e-05, "MEAN_MOTION_DDOT": 0}, "tle": {"line1": "1 58702U 24004C   26016.60381909  .00005070  00000+0  20600-3 0  9995", "line2": "2 58702  97.4604 202.7422 0005126 153.1374 207.0130 15.25011354112656"}}, "geometry": {"type": "Point", "coordinates": [-164.98226704577473, 46.47090091220488]}}, {"type": "Feature", "properties": {"norad_id": 58703, "name": "TIANMU-1 18", "group": "weather", "lat": 43.36314751750861, "lon": 30.260066533719055, "alt_km": 484.2230909301843, "timestamp": "2026-01-16T19:25:17.168713+00:00", "meta": {"OBJECT_NAME": "TIANMU-1 18", "OBJECT_ID": "2024-004D", "EPOCH": "2026-01-16T14:06:08.416224", "MEAN_MOTION": 15.24983474, "ECCENTRICITY": 0.00045689, "INCLINATION": 97.462, "RA_OF_ASC_NODE": 202.9285, "ARG_OF_PERICENTER": 150.1118, "MEAN_ANOMALY": 210.0381, "EPHEMERIS_TYPE": 0, "CLASSIFICATION_TYPE": "U", "NORAD_CAT_ID": 58703, "ELEMENT_SET_NO": 999, "REV_AT_EPOCH": 11265, "BSTAR": 0.00020429716, "MEAN_MOTION_DOT": 5.023e-05, "MEAN_MOTION_DDOT": 0}, "tle": {"line1": "1 58703U 24004D   26016.58759741  .00005023  00000+0  20430-3 0  9995", "line2": "2 58703  97.4620 202.9285 0004568 150.1118 210.0381 15.24983474112658"}}, "geometry": {"type": "Point", "coordinates": [30.260066533719055, 43.36314751750861]}}, {"type": "Feature", "properties": {"norad_id": 58990, "name": "INSAT-3DS", "group": "weather", "lat": -0.02304372630023935, "lon": 129.6674427217278, "alt_km": 35792.27918033458, "timestamp": "2026-01-16T19:25:17.168727+00:00", "meta": {"OBJECT_NAME": "INSAT-3DS", "OBJECT_ID": "2024-033A", "EPOCH": "2026-01-16T14:26:20.031936", "MEAN_MOTION": 1.0027195, "ECCENTRICITY": 0.00015823, "INCLINATION": 0.0792, "RA_OF_ASC_NODE": 263.6382, "ARG_OF_PERICENTER": 67.4334, "MEAN_ANOMALY": 83.632, "EPHEMERIS_TYPE": 0, "CLASSIFICATION_TYPE": "U", "NORAD_CAT_ID": 58990, "ELEMENT_SET_NO": 999, "REV_AT_EPOCH": 4554, "BSTAR": 0, "MEAN_MOTION_DOT": -1.39e-06, "MEAN_MOTION_DDOT": 0}, "tle": {"line1": "1 58990U 24033A   26016.60162074 -.00000139  00000+0  00000+0 0  9996", "line2": "2 58990   0.0792 263.6382 0001582  67.4334  83.6320  1.00271950 45549"}}, "geometry": {"type": "Point", "coordinates": [129.6674427217278, -0.02304372630023935]}}, {"type": "Feature", "properties": {"norad_id": 59051, "name": "METEOR-M2 4", "group": "weather", "lat": 14.126894754688061, "lon": -24.026637150198024, "alt_km": 820.8755552121011, "timestamp": "2026-01-16T19:25:17.168738+00:00", "meta": {"OBJECT_NAME": "METEOR-M2 4", "OBJECT_ID": "2024-039A", "EPOCH": "2026-01-16T14:17:22.864992", "MEAN_MOTION": 14.22407426, "ECCENTRICITY": 0.00060259, "INCLINATION": 98.6815, "RA_OF_ASC_NODE": 337.9666, "ARG_OF_PERICENTER": 245.7664, "MEAN_ANOMALY": 114.2884, "EPHEMERIS_TYPE": 0, "CLASSIFICATION_TYPE": "U", "NORAD_CAT_ID": 59051, "ELEMENT_SET_NO": 999, "REV_AT_EPOCH": 9771, "BSTAR": 2.1269023e-05, "MEAN_MOTION_DOT": 4e-08, "MEAN_MOTION_DDOT": 0}, "tle": {"line1": "1 59051U 24039A   26016.59540353  .00000004  00000+0  21269-4 0  9994", "line2": "2 59051  98.6815 337.9666 0006025 245.7664 114.2884 14.22407426 97710"}}, "geometry": {"type": "Point", "coordinates": [-24.026637150198024, 14.126894754688061]}}, {"type": "Feature", "properties": {"norad_id": 60133, "name": "GOES 19", "group": "weather", "lat": -0.002172637324748405, "lon": -27.623981424893373, "alt_km": 35780.08471175035, "timestamp": "2026-01-16T19:25:17.168749+00:00", "meta": {"OBJECT_NAME": "GOES 19", "OBJECT_ID": "2024-119A", "EPOCH": "2026-01-16T11:58:46.889184", "MEAN_MOTION": 1.00274556, "ECCENTRICITY": 0.00012943, "INCLINATION": 0.0115, "RA_OF_ASC_NODE": 291.449, "ARG_OF_PERICENTER": 56.5252, "MEAN_ANOMALY": 232.4564, "EPHEMERIS_TYPE": 0, "CLASSIFICATION_TYPE": "U", "NORAD_CAT_ID": 60133, "ELEMENT_SET_NO": 999, "REV_AT_EPOCH": 544, "BSTAR": 0, "MEAN_MOTION_DOT": -2.31e-06, "MEAN_MOTION_DDOT": 0}, "tle": {"line1": "1 60133U 24119A   26016.49915381 -.00000231  00000+0  00000+0 0  9990", "line2": "2 60133   0.0115 291.4490 0001294  56.5252 232.4564  1.00274556  5441"}}, "geometry": {"type": "Point", "coordinates": [-27.623981424893373, -0.002172637324748405]}}, {"type": "Feature", "properties": {"norad_id": 65815, "name": "FENGYUN 3H", "group": "weather", "lat": -60.167342655882024, "lon": -23.937608425018233, "alt_km": 833.6867345766141, "timestamp": "2026-01-16T19:25:17.168760+00:00", "meta": {"OBJECT_NAME": "FENGYUN 3H", "OBJECT_ID": "2025-219A", "EPOCH": "2026-01-16T12:56:42.511488", "MEAN_MOTION": 14.19915427, "ECCENTRICITY": 0.00013507, "INCLINATION": 98.6625, "RA_OF_ASC_NODE": 320.3815, "ARG_OF_PERICENTER": 103.7704, "MEAN_ANOMALY": 256.3623, "EPHEMERIS_TYPE": 0, "CLASSIFICATION_TYPE": "U", "NORAD_CAT_ID": 65815, "ELEMENT_SET_NO": 999, "REV_AT_EPOCH": 1586, "BSTAR": 3.445349e-05, "MEAN_MOTION_DOT": 3e-07, "MEAN_MOTION_DDOT": 0}, "tle": {"line1": "1 65815U 25219A   26016.53938092  .00000030  00000+0  34453-4 0  9993", "line2": "2 65815  98.6625 320.3815 0001350 103.7704 256.3623 14.19915427 15866"}}, "geometry": {"type": "Point", "coordinates": [-23.937608425018233, -60.167342655882024]}}]}