{
  "type": "FeatureCollection",
  "features": [
    {
      "type": "Feature",
      "properties": {
        "norad_id": 36828,
        "name": "BEIDOU-2 IGSO-1 (C06)",
        "group": "beidou",
        "lat": -23.613400843101147,
        "lon": 2.2038995994976367,
        "alt_km": 35570.56606672662,
        "timestamp": "2026-03-02T07:12:42.485270+00:00",
        "meta_object_name": "BEIDOU-2 IGSO-1 (C06)",
        "meta_object_id": "2010-036A",
        "meta_epoch": "2026-03-01T22:47:40.940160",
        "meta_mean_motion": 1.00252697,
        "meta_eccentricity": 0.00539673,
        "meta_inclination": 54.2922,
        "meta_ra_of_asc_node": 163.9327,
        "meta_arg_of_pericenter": 219.0506,
        "meta_mean_anomaly": 223.9317,
        "meta_ephemeris_type": 0,
        "meta_classification_type": "U",
        "meta_norad_cat_id": 36828,
        "meta_element_set_no": 999,
        "meta_rev_at_epoch": 5702,
        "meta_bstar": 0,
        "meta_mean_motion_dot": -1.64e-06,
        "meta_mean_motion_ddot": 0,
        "tle_line1": "1 36828U 10036A   26060.94977940 -.00000164  00000+0  00000+0 0  9990",
        "tle_line2": "2 36828  54.2922 163.9327 0053967 219.0506 223.9317  1.00252697 57020"
      },
      "geometry": {
        "type": "Point",
        "coordinates": [
          2.2038995994976367,
          -23.613400843101147
        ]
      }
    },
    {
      "type": "Feature",
      "properties": {
        "norad_id": 37210,
        "name": "BEIDOU-2 G4 (C04)",
        "group": "beidou",
        "lat": -0.09714477329158437,
        "lon": 68.34494445036718,
        "alt_km": 35819.26004393072,
        "timestamp": "2026-03-02T07:12:42.485293+00:00",
        "meta_object_name": "BEIDOU-2 G4 (C04)",
        "meta_object_id": "2010-057A",
        "meta_epoch": "2026-03-01T21:45:39.223872",
        "meta_mean_motion": 1.00271898,
        "meta_eccentricity": 0.00092405,
        "meta_inclination": 3.38,
        "meta_ra_of_asc_node": 69.5584,
        "meta_arg_of_pericenter": 209.8513,
        "meta_mean_anomaly": 6.6951,
        "meta_ephemeris_type": 0,
        "meta_classification_type": "U",
        "meta_norad_cat_id": 37210,
        "meta_element_set_no": 999,
        "meta_rev_at_epoch": 5621,
        "meta_bstar": 0,
        "meta_mean_motion_dot": -1.29e-06,
        "meta_mean_motion_ddot": 0,
        "tle_line1": "1 37210U 10057A   26060.90670398 -.00000129  00000+0  00000+0 0  9993",
        "tle_line2": "2 37210   3.3800  69.5584 0009240 209.8513   6.6951  1.00271898 56216"
      },
      "geometry": {
        "type": "Point",
        "coordinates": [
          68.34494445036718,
          -0.09714477329158437
        ]
      }
    },
    {
      "type": "Feature",
      "properties": {
        "norad_id": 37256,
        "name": "BEIDOU-2 IGSO-2 (C07)",
        "group": "beidou",
        "lat": 46.385103627751626,
        "lon": 20.40616499873312,
        "alt_km": 35856.58374126462,
        "timestamp": "2026-03-02T07:12:42.485307+00:00",
        "meta_object_name": "BEIDOU-2 IGSO-2 (C07)",
        "meta_object_id": "2010-068A",
        "meta_epoch": "2026-02-27T08:26:36.872160",
        "meta_mean_motion": 1.00260216,
        "meta_eccentricity": 0.00473789,
        "meta_inclination": 47.7414,
        "meta_ra_of_asc_node": 273.1895,
        "meta_arg_of_pericenter": 212.9968,
        "meta_mean_anomaly": 264.9944,
        "meta_ephemeris_type": 0,
        "meta_classification_type": "U",
        "meta_norad_cat_id": 37256,
        "meta_element_set_no": 999,
        "meta_rev_at_epoch": 5569,
        "meta_bstar": 0,
        "meta_mean_motion_dot": -1.58e-06,
        "meta_mean_motion_ddot": 0,
        "tle_line1": "1 37256U 10068A   26058.35181565 -.00000158  00000+0  00000+0 0  9996",
        "tle_line2": "2 37256  47.7414 273.1895 0047378 212.9968 264.9944  1.00260216 55694"
      },
      "geometry": {
        "type": "Point",
        "coordinates": [
          20.40616499873312,
          46.385103627751626
        ]
      }
    },
    {
      "type": "Feature",
      "properties": {
        "norad_id": 37384,
        "name": "BEIDOU-2 IGSO-3 (C08)",
        "group": "beidou",
        "lat": -23.340270979716763,
        "lon": 27.993291935699922,
        "alt_km": 35900.802105301496,
        "timestamp": "2026-03-02T07:12:42.485319+00:00",
        "meta_object_name": "BEIDOU-2 IGSO-3 (C08)",
        "meta_object_id": "2011-013A",
        "meta_epoch": "2026-02-27T21:48:44.352288",
        "meta_mean_motion": 1.00294022,
        "meta_eccentricity": 0.00350296,
        "meta_inclination": 62.2642,
        "meta_ra_of_asc_node": 41.1818,
        "meta_arg_of_pericenter": 190.8154,
        "meta_mean_anomaly": 358.7681,
        "meta_ephemeris_type": 0,
        "meta_classification_type": "U",
        "meta_norad_cat_id": 37384,
        "meta_element_set_no": 999,
        "meta_rev_at_epoch": 5456,
        "meta_bstar": 0,
        "meta_mean_motion_dot": -1.54e-06,
        "meta_mean_motion_ddot": 0,
        "tle_line1": "1 37384U 11013A   26058.90884667 -.00000154  00000+0  00000+0 0  9999",
        "tle_line2": "2 37384  62.2642  41.1818 0035029 190.8154 358.7681  1.00294022 54567"
      },
      "geometry": {
        "type": "Point",
        "coordinates": [
          27.993291935699922,
          -23.340270979716763
        ]
      }
    },
    {
      "type": "Feature",
      "properties": {
        "norad_id": 37763,
        "name": "BEIDOU-2 IGSO-4 (C09)",
        "group": "beidou",
        "lat": -12.32825199787887,
        "lon": -4.441597897904863,
        "alt_km": 35258.65002013385,
        "timestamp": "2026-03-02T07:12:42.485331+00:00",
        "meta_object_name": "BEIDOU-2 IGSO-4 (C09)",
        "meta_object_id": "2011-038A",
        "meta_epoch": "2026-03-01T18:02:04.372800",
        "meta_mean_motion": 1.00265713,
        "meta_eccentricity": 0.0154411,
        "meta_inclination": 54.5889,
        "meta_ra_of_asc_node": 166.6436,
        "meta_arg_of_pericenter": 230.9971,
        "meta_mean_anomaly": 126.927,
        "meta_ephemeris_type": 0,
        "meta_classification_type": "U",
        "meta_norad_cat_id": 37763,
        "meta_element_set_no": 999,
        "meta_rev_at_epoch": 5356,
        "meta_bstar": 0,
        "meta_mean_motion_dot": -1.33e-06,
        "meta_mean_motion_ddot": 0,
        "tle_line1": "1 37763U 11038A   26060.75143950 -.00000133  00000+0  00000+0 0  9993",
        "tle_line2": "2 37763  54.5889 166.6436 0154411 230.9971 126.9270  1.00265713 53567"
      },
      "geometry": {
        "type": "Point",
        "coordinates": [
          -4.441597897904863,
          -12.32825199787887
        ]
      }
    },
    {
      "type": "Feature",
      "properties": {
        "norad_id": 37948,
        "name": "BEIDOU-2 IGSO-5 (C10)",
        "group": "beidou",
        "lat": 47.82780589101448,
        "lon": 2.325319831364906,
        "alt_km": 36082.1913205309,
        "timestamp": "2026-03-02T07:12:42.485344+00:00",
        "meta_object_name": "BEIDOU-2 IGSO-5 (C10)",
        "meta_object_id": "2011-073A",
        "meta_epoch": "2026-03-01T12:21:35.119584",
        "meta_mean_motion": 1.00272949,
        "meta_eccentricity": 0.01085706,
        "meta_inclination": 47.8731,
        "meta_ra_of_asc_node": 272.8747,
        "meta_arg_of_pericenter": 221.0681,
        "meta_mean_anomaly": 305.9392,
        "meta_ephemeris_type": 0,
        "meta_classification_type": "U",
        "meta_norad_cat_id": 37948,
        "meta_element_set_no": 999,
        "meta_rev_at_epoch": 5205,
        "meta_bstar": 0,
        "meta_mean_motion_dot": -1.33e-06,
        "meta_mean_motion_ddot": 0,
        "tle_line1": "1 37948U 11073A   26060.51498981 -.00000133  00000+0  00000+0 0  9998",
        "tle_line2": "2 37948  47.8731 272.8747 0108570 221.0681 305.9392  1.00272949 52058"
      },
      "geometry": {
        "type": "Point",
        "coordinates": [
          2.325319831364906,
          47.82780589101448
        ]
      }
    },
    {
      "type": "Feature",
      "properties": {
        "norad_id": 38091,
        "name": "BEIDOU-2 G5 (C05)",
        "group": "beidou",
        "lat": -3.218554202439607,
        "lon": -32.9579389679273,
        "alt_km": 35726.01583382114,
        "timestamp": "2026-03-02T07:12:42.485356+00:00",
        "meta_object_name": "BEIDOU-2 G5 (C05)",
        "meta_object_id": "2012-008A",
        "meta_epoch": "2026-03-01T22:59:24.651744",
        "meta_mean_motion": 1.00275414,
        "meta_eccentricity": 0.00141488,
        "meta_inclination": 3.3059,
        "meta_ra_of_asc_node": 70.3207,
        "meta_arg_of_pericenter": 249.4453,
        "meta_mean_anomaly": 243.5794,
        "meta_ephemeris_type": 0,
        "meta_classification_type": "U",
        "meta_norad_cat_id": 38091,
        "meta_element_set_no": 999,
        "meta_rev_at_epoch": 5129,
        "meta_bstar": 0,
        "meta_mean_motion_dot": 4e-07,
        "meta_mean_motion_ddot": 0,
        "tle_line1": "1 38091U 12008A   26060.95792421  .00000040  00000+0  00000+0 0  9997",
        "tle_line2": "2 38091   3.3059  70.3207 0014148 249.4453 243.5794  1.00275414 51296"
      },
      "geometry": {
        "type": "Point",
        "coordinates": [
          -32.9579389679273,
          -3.218554202439607
        ]
      }
    },
    {
      "type": "Feature",
      "properties": {
        "norad_id": 38250,
        "name": "BEIDOU-2 M3 (C11)",
        "group": "beidou",
        "lat": -18.547483063412045,
        "lon": -64.65311851971342,
        "alt_km": 21499.09426190213,
        "timestamp": "2026-03-02T07:12:42.485367+00:00",
        "meta_object_name": "BEIDOU-2 M3 (C11)",
        "meta_object_id": "2012-018A",
        "meta_epoch": "2026-03-01T06:14:44.600352",
        "meta_mean_motion": 1.86229696,
        "meta_eccentricity": 0.0021337,
        "meta_inclination": 55.8494,
        "meta_ra_of_asc_node": 308.5146,
        "meta_arg_of_pericenter": 279.5762,
        "meta_mean_anomaly": 80.2419,
        "meta_ephemeris_type": 0,
        "meta_classification_type": "U",
        "meta_norad_cat_id": 38250,
        "meta_element_set_no": 999,
        "meta_rev_at_epoch": 9393,
        "meta_bstar": 0,
        "meta_mean_motion_dot": -5e-07,
        "meta_mean_motion_ddot": 0,
        "tle_line1": "1 38250U 12018A   26060.26023843 -.00000050  00000+0  00000+0 0  9996",
        "tle_line2": "2 38250  55.8494 308.5146 0021337 279.5762  80.2419  1.86229696 93933"
      },
      "geometry": {
        "type": "Point",
        "coordinates": [
          -64.65311851971342,
          -18.547483063412045
        ]
      }
    },
    {
      "type": "Feature",
      "properties": {
        "norad_id": 38251,
        "name": "BEIDOU-2 M4 (C12)",
        "group": "beidou",
        "lat": 18.79439236942826,
        "lon": -38.880565738630565,
        "alt_km": 21530.299503967497,
        "timestamp": "2026-03-02T07:12:42.485379+00:00",
        "meta_object_name": "BEIDOU-2 M4 (C12)",
        "meta_object_id": "2012-018B",
        "meta_epoch": "2026-02-27T13:57:20.484576",
        "meta_mean_motion": 1.86229541,
        "meta_eccentricity": 0.00130453,
        "meta_inclination": 55.7521,
        "meta_ra_of_asc_node": 307.7944,
        "meta_arg_of_pericenter": 286.0559,
        "meta_mean_anomaly": 73.8564,
        "meta_ephemeris_type": 0,
        "meta_classification_type": "U",
        "meta_norad_cat_id": 38251,
        "meta_element_set_no": 999,
        "meta_rev_at_epoch": 9390,
        "meta_bstar": 0,
        "meta_mean_motion_dot": -4.5e-07,
        "meta_mean_motion_ddot": 0,
        "tle_line1": "1 38251U 12018B   26058.58148709 -.00000045  00000+0  00000+0 0  9992",
        "tle_line2": "2 38251  55.7521 307.7944 0013045 286.0559  73.8564  1.86229541 93900"
      },
      "geometry": {
        "type": "Point",
        "coordinates": [
          -38.880565738630565,
          18.79439236942826
        ]
      }
    },
    {
      "type": "Feature",
      "properties": {
        "norad_id": 38775,
        "name": "BEIDOU-2 M6 (C14)",
        "group": "beidou",
        "lat": -30.14341645421435,
        "lon": -90.90493059424634,
        "alt_km": 21553.81025670738,
        "timestamp": "2026-03-02T07:12:42.485390+00:00",
        "meta_object_name": "BEIDOU-2 M6 (C14)",
        "meta_object_id": "2012-050B",
        "meta_epoch": "2026-03-01T10:32:59.426880",
        "meta_mean_motion": 1.86230857,
        "meta_eccentricity": 0.00138921,
        "meta_inclination": 56.4502,
        "meta_ra_of_asc_node": 66.4556,
        "meta_arg_of_pericenter": 341.5851,
        "meta_mean_anomaly": 18.4024,
        "meta_ephemeris_type": 0,
        "meta_classification_type": "U",
        "meta_norad_cat_id": 38775,
        "meta_element_set_no": 999,
        "meta_rev_at_epoch": 9130,
        "meta_bstar": 0,
        "meta_mean_motion_dot": -2e-08,
        "meta_mean_motion_ddot": 0,
        "tle_line1": "1 38775U 12050B   26060.43957670 -.00000002  00000+0  00000+0 0  9994",
        "tle_line2": "2 38775  56.4502  66.4556 0013892 341.5851  18.4024  1.86230857 91308"
      },
      "geometry": {
        "type": "Point",
        "coordinates": [
          -90.90493059424634,
          -30.14341645421435
        ]
      }
    },
    {
      "type": "Feature",
      "properties": {
        "norad_id": 38953,
        "name": "BEIDOU-2 G6 (C02)",
        "group": "beidou",
        "lat": -4.124586909133221,
        "lon": -7.751935306866735,
        "alt_km": 35747.46264355183,
        "timestamp": "2026-03-02T07:12:42.485401+00:00",
        "meta_object_name": "BEIDOU-2 G6 (C02)",
        "meta_object_id": "2012-059A",
        "meta_epoch": "2026-03-01T23:06:38.957760",
        "meta_mean_motion": 1.00269514,
        "meta_eccentricity": 0.001032,
        "meta_inclination": 4.1496,
        "meta_ra_of_asc_node": 74.6701,
        "meta_arg_of_pericenter": 301.8701,
        "meta_mean_anomaly": 213.8624,
        "meta_ephemeris_type": 0,
        "meta_classification_type": "U",
        "meta_norad_cat_id": 38953,
        "meta_element_set_no": 999,
        "meta_rev_at_epoch": 4883,
        "meta_bstar": 0,
        "meta_mean_motion_dot": -1.91e-06,
        "meta_mean_motion_ddot": 0,
        "tle_line1": "1 38953U 12059A   26060.96295090 -.00000191  00000+0  00000+0 0  9999",
        "tle_line2": "2 38953   4.1496  74.6701 0010320 301.8701 213.8624  1.00269514 48832"
      },
      "geometry": {
        "type": "Point",
        "coordinates": [
          -7.751935306866735,
          -4.124586909133221
        ]
      }
    },
    {
      "type": "Feature",
      "properties": {
        "norad_id": 40549,
        "name": "BEIDOU-3S IGSO-1S (C31)",
        "group": "beidou",
        "lat": 44.56856465360326,
        "lon": -5.553988596007643,
        "alt_km": 35862.49951468159,
        "timestamp": "2026-03-02T07:12:42.485413+00:00",
        "meta_object_name": "BEIDOU-3S IGSO-1S (C31)",
        "meta_object_id": "2015-019A",
        "meta_epoch": "2026-03-01T14:54:10.067040",
        "meta_mean_motion": 1.00274284,
        "meta_eccentricity": 0.00358356,
        "meta_inclination": 49.3956,
        "meta_ra_of_asc_node": 296.7575,
        "meta_arg_of_pericenter": 190.3346,
        "meta_mean_anomaly": 352.3565,
        "meta_ephemeris_type": 0,
        "meta_classification_type": "U",
        "meta_norad_cat_id": 40549,
        "meta_element_set_no": 999,
        "meta_rev_at_epoch": 3999,
        "meta_bstar": 0,
        "meta_mean_motion_dot": -1.58e-06,
        "meta_mean_motion_ddot": 0,
        "tle_line1": "1 40549U 15019A   26060.62094985 -.00000158  00000+0  00000+0 0  9998",
        "tle_line2": "2 40549  49.3956 296.7575 0035835 190.3346 352.3565  1.00274284 39998"
      },
      "geometry": {
        "type": "Point",
        "coordinates": [
          -5.553988596007643,
          44.56856465360326
        ]
      }
    },
    {
      "type": "Feature",
      "properties": {
        "norad_id": 40748,
        "name": "BEIDOU-3S M2S (C58)",
        "group": "beidou",
        "lat": -48.403963924530586,
        "lon": 177.91128125194558,
        "alt_km": 21512.318311663974,
        "timestamp": "2026-03-02T07:12:42.485424+00:00",
        "meta_object_name": "BEIDOU-3S M2S (C58)",
        "meta_object_id": "2015-037A",
        "meta_epoch": "2026-03-01T09:30:56.864736",
        "meta_mean_motion": 1.86231733,
        "meta_eccentricity": 0.00089609,
        "meta_inclination": 54.9653,
        "meta_ra_of_asc_node": 305.7593,
        "meta_arg_of_pericenter": 278.3263,
        "meta_mean_anomaly": 81.6321,
        "meta_ephemeris_type": 0,
        "meta_classification_type": "U",
        "meta_norad_cat_id": 40748,
        "meta_element_set_no": 999,
        "meta_rev_at_epoch": 7211,
        "meta_bstar": 0,
        "meta_mean_motion_dot": -4.6e-07,
        "meta_mean_motion_ddot": 0,
        "tle_line1": "1 40748U 15037A   26060.39649149 -.00000046  00000+0  00000+0 0  9997",
        "tle_line2": "2 40748  54.9653 305.7593 0008960 278.3263  81.6321  1.86231733 72119"
      },
      "geometry": {
        "type": "Point",
        "coordinates": [
          177.91128125194558,
          -48.403963924530586
        ]
      }
    },
    {
      "type": "Feature",
      "properties": {
        "norad_id": 40749,
        "name": "BEIDOU-3S M1S (C57)",
        "group": "beidou",
        "lat": 54.10496258035251,
        "lon": 50.09302117229607,
        "alt_km": 21515.00540801662,
        "timestamp": "2026-03-02T07:12:42.485434+00:00",
        "meta_object_name": "BEIDOU-3S M1S (C57)",
        "meta_object_id": "2015-037B",
        "meta_epoch": "2026-03-01T01:55:27.629760",
        "meta_mean_motion": 1.8625368,
        "meta_eccentricity": 0.00045313,
        "meta_inclination": 54.9622,
        "meta_ra_of_asc_node": 305.7581,
        "meta_arg_of_pericenter": 29.045,
        "meta_mean_anomaly": 331.0396,
        "meta_ephemeris_type": 0,
        "meta_classification_type": "U",
        "meta_norad_cat_id": 40749,
        "meta_element_set_no": 999,
        "meta_rev_at_epoch": 7211,
        "meta_bstar": 0,
        "meta_mean_motion_dot": -4.5e-07,
        "meta_mean_motion_ddot": 0,
        "tle_line1": "1 40749U 15037B   26060.08018090 -.00000045  00000+0  00000+0 0  9998",
        "tle_line2": "2 40749  54.9622 305.7581 0004531  29.0450 331.0396  1.86253680 72111"
      },
      "geometry": {
        "type": "Point",
        "coordinates": [
          50.09302117229607,
          54.10496258035251
        ]
      }
    },
    {
      "type": "Feature",
      "properties": {
        "norad_id": 41434,
        "name": "BEIDOU-2 IGSO-6 (C13)",
        "group": "beidou",
        "lat": -29.307277546844137,
        "lon": 20.19441786769721,
        "alt_km": 35796.0414396885,
        "timestamp": "2026-03-02T07:12:42.485446+00:00",
        "meta_object_name": "BEIDOU-2 IGSO-6 (C13)",
        "meta_object_id": "2016-021A",
        "meta_epoch": "2026-03-01T21:27:33.459264",
        "meta_mean_motion": 1.00278644,
        "meta_eccentricity": 0.00598176,
        "meta_inclination": 60.0829,
        "meta_ra_of_asc_node": 39.1029,
        "meta_arg_of_pericenter": 233.4452,
        "meta_mean_anomaly": 304.7242,
        "meta_ephemeris_type": 0,
        "meta_classification_type": "U",
        "meta_norad_cat_id": 41434,
        "meta_element_set_no": 999,
        "meta_rev_at_epoch": 3640,
        "meta_bstar": 0,
        "meta_mean_motion_dot": -1.43e-06,
        "meta_mean_motion_ddot": 0,
        "tle_line1": "1 41434U 16021A   26060.89413726 -.00000143  00000+0  00000+0 0  9997",
        "tle_line2": "2 41434  60.0829  39.1029 0059817 233.4452 304.7242  1.00278644 36407"
      },
      "geometry": {
        "type": "Point",
        "coordinates": [
          20.19441786769721,
          -29.307277546844137
        ]
      }
    },
    {
      "type": "Feature",
      "properties": {
        "norad_id": 41586,
        "name": "BEIDOU-2 G7 (C03)",
        "group": "beidou",
        "lat": -1.1267286526848765,
        "lon": 18.784381481445642,
        "alt_km": 35760.61086164366,
        "timestamp": "2026-03-02T07:12:42.485457+00:00",
        "meta_object_name": "BEIDOU-2 G7 (C03)",
        "meta_object_id": "2016-037A",
        "meta_epoch": "2026-03-01T23:14:15.728640",
        "meta_mean_motion": 1.00268415,
        "meta_eccentricity": 0.00073684,
        "meta_inclination": 1.4552,
        "meta_ra_of_asc_node": 68.1576,
        "meta_arg_of_pericenter": 341.4865,
        "meta_mean_anomaly": 209.2046,
        "meta_ephemeris_type": 0,
        "meta_classification_type": "U",
        "meta_norad_cat_id": 41586,
        "meta_element_set_no": 999,
        "meta_rev_at_epoch": 581,
        "meta_bstar": 0,
        "meta_mean_motion_dot": -3.7e-06,
        "meta_mean_motion_ddot": 0,
        "tle_line1": "1 41586U 16037A   26060.96823760 -.00000370  00000+0  00000+0 0  9995",
        "tle_line2": "2 41586   1.4552  68.1576 0007368 341.4865 209.2046  1.00268415  5815"
      },
      "geometry": {
        "type": "Point",
        "coordinates": [
          18.784381481445642,
          -1.1267286526848765
        ]
      }
    },
    {
      "type": "Feature",
      "properties": {
        "norad_id": 43001,
        "name": "BEIDOU-3 M1 (C19)",
        "group": "beidou",
        "lat": 12.040507624745905,
        "lon": 74.69336330479477,
        "alt_km": 21512.272028459953,
        "timestamp": "2026-03-02T07:12:42.485468+00:00",
        "meta_object_name": "BEIDOU-3 M1 (C19)",
        "meta_object_id": "2017-069A",
        "meta_epoch": "2026-02-28T16:02:01.436352",
        "meta_mean_motion": 1.8623079,
        "meta_eccentricity": 0.0012364,
        "meta_inclination": 56.5977,
        "meta_ra_of_asc_node": 66.6575,
        "meta_arg_of_pericenter": 309.3656,
        "meta_mean_anomaly": 50.5651,
        "meta_ephemeris_type": 0,
        "meta_classification_type": "U",
        "meta_norad_cat_id": 43001,
        "meta_element_set_no": 999,
        "meta_rev_at_epoch": 5658,
        "meta_bstar": 0,
        "meta_mean_motion_dot": 2e-08,
        "meta_mean_motion_ddot": 0,
        "tle_line1": "1 43001U 17069A   26059.66807218  .00000002  00000+0  00000+0 0  9991",
        "tle_line2": "2 43001  56.5977  66.6575 0012364 309.3656  50.5651  1.86230790 56584"
      },
      "geometry": {
        "type": "Point",
        "coordinates": [
          74.69336330479477,
          12.040507624745905
        ]
      }
    },
    {
      "type": "Feature",
      "properties": {
        "norad_id": 43002,
        "name": "BEIDOU-3 M2 (C20)",
        "group": "beidou",
        "lat": 43.622085300906996,
        "lon": 105.61901851333333,
        "alt_km": 21521.624929698803,
        "timestamp": "2026-03-02T07:12:42.485493+00:00",
        "meta_object_name": "BEIDOU-3 M2 (C20)",
        "meta_object_id": "2017-069B",
        "meta_epoch": "2026-02-28T14:33:26.953344",
        "meta_mean_motion": 1.86230525,
        "meta_eccentricity": 0.00096147,
        "meta_inclination": 56.5962,
        "meta_ra_of_asc_node": 66.6958,
        "meta_arg_of_pericenter": 328.4863,
        "meta_mean_anomaly": 31.4966,
        "meta_ephemeris_type": 0,
        "meta_classification_type": "U",
        "meta_norad_cat_id": 43002,
        "meta_element_set_no": 999,
        "meta_rev_at_epoch": 5657,
        "meta_bstar": 0,
        "meta_mean_motion_dot": 2e-08,
        "meta_mean_motion_ddot": 0,
        "tle_line1": "1 43002U 17069B   26059.60656196  .00000002  00000+0  00000+0 0  9993",
        "tle_line2": "2 43002  56.5962  66.6958 0009614 328.4863  31.4966  1.86230525 56572"
      },
      "geometry": {
        "type": "Point",
        "coordinates": [
          105.61901851333333,
          43.622085300906996
        ]
      }
    },
    {
      "type": "Feature",
      "properties": {
        "norad_id": 43107,
        "name": "BEIDOU-3 M7 (C27)",
        "group": "beidou",
        "lat": -37.70418572550479,
        "lon": 159.63212636514635,
        "alt_km": 21544.442876224544,
        "timestamp": "2026-03-02T07:12:42.485504+00:00",
        "meta_object_name": "BEIDOU-3 M7 (C27)",
        "meta_object_id": "2018-003A",
        "meta_epoch": "2026-03-01T10:08:24.959040",
        "meta_mean_motion": 1.86232214,
        "meta_eccentricity": 0.00046274,
        "meta_inclination": 54.4234,
        "meta_ra_of_asc_node": 306.0742,
        "meta_arg_of_pericenter": 70.8119,
        "meta_mean_anomaly": 289.2972,
        "meta_ephemeris_type": 0,
        "meta_classification_type": "U",
        "meta_norad_cat_id": 43107,
        "meta_element_set_no": 999,
        "meta_rev_at_epoch": 5534,
        "meta_bstar": 0,
        "meta_mean_motion_dot": -4.8e-07,
        "meta_mean_motion_ddot": 0,
        "tle_line1": "1 43107U 18003A   26060.42251110 -.00000048  00000+0  00000+0 0  9998",
        "tle_line2": "2 43107  54.4234 306.0742 0004627  70.8119 289.2972  1.86232214 55341"
      },
      "geometry": {
        "type": "Point",
        "coordinates": [
          159.63212636514635,
          -37.70418572550479
        ]
      }
    },
    {
      "type": "Feature",
      "properties": {
        "norad_id": 43108,
        "name": "BEIDOU-3 M8 (C28)",
        "group": "beidou",
        "lat": -54.130348976758576,
        "lon": -152.27573976404744,
        "alt_km": 21525.994417154256,
        "timestamp": "2026-03-02T07:12:42.485514+00:00",
        "meta_object_name": "BEIDOU-3 M8 (C28)",
        "meta_object_id": "2018-003B",
        "meta_epoch": "2026-03-01T08:49:59.179584",
        "meta_mean_motion": 1.86230697,
        "meta_eccentricity": 0.00032086,
        "meta_inclination": 54.4162,
        "meta_ra_of_asc_node": 306.0591,
        "meta_arg_of_pericenter": 293.0016,
        "meta_mean_anomaly": 67.0238,
        "meta_ephemeris_type": 0,
        "meta_classification_type": "U",
        "meta_norad_cat_id": 43108,
        "meta_element_set_no": 999,
        "meta_rev_at_epoch": 5535,
        "meta_bstar": 0,
        "meta_mean_motion_dot": -4.8e-07,
        "meta_mean_motion_ddot": 0,
        "tle_line1": "1 43108U 18003B   26060.36804606 -.00000048  00000+0  00000+0 0  9996",
        "tle_line2": "2 43108  54.4162 306.0591 0003208 293.0016  67.0238  1.86230697 55354"
      },
      "geometry": {
        "type": "Point",
        "coordinates": [
          -152.27573976404744,
          -54.130348976758576
        ]
      }
    },
    {
      "type": "Feature",
      "properties": {
        "norad_id": 43207,
        "name": "BEIDOU-3 M4 (C22)",
        "group": "beidou",
        "lat": -25.72259080711199,
        "lon": 48.09644059012649,
        "alt_km": 21513.74669360374,
        "timestamp": "2026-03-02T07:12:42.485526+00:00",
        "meta_object_name": "BEIDOU-3 M4 (C22)",
        "meta_object_id": "2018-018A",
        "meta_epoch": "2026-03-01T06:33:32.217984",
        "meta_mean_motion": 1.86230768,
        "meta_eccentricity": 0.00068488,
        "meta_inclination": 56.5572,
        "meta_ra_of_asc_node": 66.7052,
        "meta_arg_of_pericenter": 350.3261,
        "meta_mean_anomaly": 9.6997,
        "meta_ephemeris_type": 0,
        "meta_classification_type": "U",
        "meta_norad_cat_id": 43207,
        "meta_element_set_no": 999,
        "meta_rev_at_epoch": 5473,
        "meta_bstar": 0,
        "meta_mean_motion_dot": -1e-08,
        "meta_mean_motion_ddot": 0,
        "tle_line1": "1 43207U 18018A   26060.27328956 -.00000001  00000+0  00000+0 0  9990",
        "tle_line2": "2 43207  56.5572  66.7052 0006848 350.3261   9.6997  1.86230768 54730"
      },
      "geometry": {
        "type": "Point",
        "coordinates": [
          48.09644059012649,
          -25.72259080711199
        ]
      }
    },
    {
      "type": "Feature",
      "properties": {
        "norad_id": 43208,
        "name": "BEIDOU-3 M3 (C21)",
        "group": "beidou",
        "lat": -54.032074840079446,
        "lon": 1.0269079839249164,
        "alt_km": 21511.344316991654,
        "timestamp": "2026-03-02T07:12:42.485537+00:00",
        "meta_object_name": "BEIDOU-3 M3 (C21)",
        "meta_object_id": "2018-018B",
        "meta_epoch": "2026-03-01T08:09:13.396032",
        "meta_mean_motion": 1.86230859,
        "meta_eccentricity": 0.0009892,
        "meta_inclination": 56.5566,
        "meta_ra_of_asc_node": 66.7071,
        "meta_arg_of_pericenter": 319.3285,
        "meta_mean_anomaly": 40.6363,
        "meta_ephemeris_type": 0,
        "meta_classification_type": "U",
        "meta_norad_cat_id": 43208,
        "meta_element_set_no": 999,
        "meta_rev_at_epoch": 5473,
        "meta_bstar": 0,
        "meta_mean_motion_dot": -1e-08,
        "meta_mean_motion_ddot": 0,
        "tle_line1": "1 43208U 18018B   26060.33973838 -.00000001  00000+0  00000+0 0  9993",
        "tle_line2": "2 43208  56.5566  66.7071 0009892 319.3285  40.6363  1.86230859 54731"
      },
      "geometry": {
        "type": "Point",
        "coordinates": [
          1.0269079839249164,
          -54.032074840079446
        ]
      }
    },
    {
      "type": "Feature",
      "properties": {
        "norad_id": 43245,
        "name": "BEIDOU-3 M9 (C29)",
        "group": "beidou",
        "lat": 32.46297624872491,
        "lon": 96.49887721638163,
        "alt_km": 21525.582532071352,
        "timestamp": "2026-03-02T07:12:42.485549+00:00",
        "meta_object_name": "BEIDOU-3 M9 (C29)",
        "meta_object_id": "2018-029A",
        "meta_epoch": "2026-03-01T00:28:38.716320",
        "meta_mean_motion": 1.86227979,
        "meta_eccentricity": 9.218e-05,
        "meta_inclination": 54.2912,
        "meta_ra_of_asc_node": 303.7325,
        "meta_arg_of_pericenter": 20.5005,
        "meta_mean_anomaly": 339.563,
        "meta_ephemeris_type": 0,
        "meta_classification_type": "U",
        "meta_norad_cat_id": 43245,
        "meta_element_set_no": 999,
        "meta_rev_at_epoch": 5388,
        "meta_bstar": 0,
        "meta_mean_motion_dot": -4.2e-07,
        "meta_mean_motion_ddot": 0,
        "tle_line1": "1 43245U 18029A   26060.01989255 -.00000042  00000+0  00000+0 0  9996",
        "tle_line2": "2 43245  54.2912 303.7325 0000921  20.5005 339.5630  1.86227979 53884"
      },
      "geometry": {
        "type": "Point",
        "coordinates": [
          96.49887721638163,
          32.46297624872491
        ]
      }
    },
    {
      "type": "Feature",
      "properties": {
        "norad_id": 43246,
        "name": "BEIDOU-3 M10 (C30)",
        "group": "beidou",
        "lat": -1.8777228373668862,
        "lon": 125.08930311404474,
        "alt_km": 21542.081801930613,
        "timestamp": "2026-03-02T07:12:42.485561+00:00",
        "meta_object_name": "BEIDOU-3 M10 (C30)",
        "meta_object_id": "2018-029B",
        "meta_epoch": "2026-02-28T22:54:53.087904",
        "meta_mean_motion": 1.86228901,
        "meta_eccentricity": 0.00050489,
        "meta_inclination": 54.2888,
        "meta_ra_of_asc_node": 303.7627,
        "meta_arg_of_pericenter": 21.663,
        "meta_mean_anomaly": 338.418,
        "meta_ephemeris_type": 0,
        "meta_classification_type": "U",
        "meta_norad_cat_id": 43246,
        "meta_element_set_no": 999,
        "meta_rev_at_epoch": 5386,
        "meta_bstar": 0,
        "meta_mean_motion_dot": -4.2e-07,
        "meta_mean_motion_ddot": 0,
        "tle_line1": "1 43246U 18029B   26059.95478111 -.00000042  00000+0  00000+0 0  9992",
        "tle_line2": "2 43246  54.2888 303.7627 0005048  21.6630 338.4180  1.86228901 53865"
      },
      "geometry": {
        "type": "Point",
        "coordinates": [
          125.08930311404474,
          -1.8777228373668862
        ]
      }
    },
    {
      "type": "Feature",
      "properties": {
        "norad_id": 43539,
        "name": "BEIDOU-2 IGSO-7 (C16)",
        "group": "beidou",
        "lat": -29.129454467089378,
        "lon": 6.741603554943639,
        "alt_km": 35390.92812823299,
        "timestamp": "2026-03-02T07:12:42.485572+00:00",
        "meta_object_name": "BEIDOU-2 IGSO-7 (C16)",
        "meta_object_id": "2018-057A",
        "meta_epoch": "2026-02-25T17:45:22.620960",
        "meta_mean_motion": 1.00284731,
        "meta_eccentricity": 0.00999628,
        "meta_inclination": 55.1859,
        "meta_ra_of_asc_node": 164.0342,
        "meta_arg_of_pericenter": 236.5988,
        "meta_mean_anomaly": 133.5173,
        "meta_ephemeris_type": 0,
        "meta_classification_type": "U",
        "meta_norad_cat_id": 43539,
        "meta_element_set_no": 999,
        "meta_rev_at_epoch": 2801,
        "meta_bstar": 0,
        "meta_mean_motion_dot": -1.61e-06,
        "meta_mean_motion_ddot": 0,
        "tle_line1": "1 43539U 18057A   26056.73984515 -.00000161  00000+0  00000+0 0  9993",
        "tle_line2": "2 43539  55.1859 164.0342 0099962 236.5988 133.5173  1.00284731 28015"
      },
      "geometry": {
        "type": "Point",
        "coordinates": [
          6.741603554943639,
          -29.129454467089378
        ]
      }
    },
    {
      "type": "Feature",
      "properties": {
        "norad_id": 43581,
        "name": "BEIDOU-3 M5 (C23)",
        "group": "beidou",
        "lat": 25.403365616927452,
        "lon": -153.96983071170337,
        "alt_km": 21524.223364667938,
        "timestamp": "2026-03-02T07:12:42.485584+00:00",
        "meta_object_name": "BEIDOU-3 M5 (C23)",
        "meta_object_id": "2018-062A",
        "meta_epoch": "2026-03-01T17:10:50.086272",
        "meta_mean_motion": 1.86228476,
        "meta_eccentricity": 0.00021102,
        "meta_inclination": 54.0882,
        "meta_ra_of_asc_node": 185.9574,
        "meta_arg_of_pericenter": 311.5793,
        "meta_mean_anomaly": 48.3538,
        "meta_ephemeris_type": 0,
        "meta_classification_type": "U",
        "meta_norad_cat_id": 43581,
        "meta_element_set_no": 999,
        "meta_rev_at_epoch": 5163,
        "meta_bstar": 0,
        "meta_mean_motion_dot": -3.1e-07,
        "meta_mean_motion_ddot": 0,
        "tle_line1": "1 43581U 18062A   26060.71585748 -.00000031  00000+0  00000+0 0  9990",
        "tle_line2": "2 43581  54.0882 185.9574 0002110 311.5793  48.3538  1.86228476 51632"
      },
      "geometry": {
        "type": "Point",
        "coordinates": [
          -153.96983071170337,
          25.403365616927452
        ]
      }
    },
    {
      "type": "Feature",
      "properties": {
        "norad_id": 43582,
        "name": "BEIDOU-3 M6 (C24)",
        "group": "beidou",
        "lat": 42.167584409994454,
        "lon": -35.03555222920029,
        "alt_km": 21520.29583839079,
        "timestamp": "2026-03-02T07:12:42.485595+00:00",
        "meta_object_name": "BEIDOU-3 M6 (C24)",
        "meta_object_id": "2018-062B",
        "meta_epoch": "2026-03-01T13:53:24.527904",
        "meta_mean_motion": 1.86227492,
        "meta_eccentricity": 0.00062927,
        "meta_inclination": 54.0878,
        "meta_ra_of_asc_node": 185.9512,
        "meta_arg_of_pericenter": 43.8438,
        "meta_mean_anomaly": 316.1571,
        "meta_ephemeris_type": 0,
        "meta_classification_type": "U",
        "meta_norad_cat_id": 43582,
        "meta_element_set_no": 999,
        "meta_rev_at_epoch": 5163,
        "meta_bstar": 0,
        "meta_mean_motion_dot": -3.1e-07,
        "meta_mean_motion_ddot": 0,
        "tle_line1": "1 43582U 18062B   26060.57875611 -.00000031  00000+0  00000+0 0  9996",
        "tle_line2": "2 43582  54.0878 185.9512 0006292  43.8438 316.1571  1.86227492 51636"
      },
      "geometry": {
        "type": "Point",
        "coordinates": [
          -35.03555222920029,
          42.167584409994454
        ]
      }
    },
    {
      "type": "Feature",
      "properties": {
        "norad_id": 43602,
        "name": "BEIDOU-3 M12 (C26)",
        "group": "beidou",
        "lat": 11.832529065487936,
        "lon": -4.032988666273572,
        "alt_km": 21540.957207320815,
        "timestamp": "2026-03-02T07:12:42.485607+00:00",
        "meta_object_name": "BEIDOU-3 M12 (C26)",
        "meta_object_id": "2018-067A",
        "meta_epoch": "2026-03-01T12:24:44.292384",
        "meta_mean_motion": 1.86227628,
        "meta_eccentricity": 0.00085905,
        "meta_inclination": 54.1828,
        "meta_ra_of_asc_node": 184.691,
        "meta_arg_of_pericenter": 39.9303,
        "meta_mean_anomaly": 320.0854,
        "meta_ephemeris_type": 0,
        "meta_classification_type": "U",
        "meta_norad_cat_id": 43602,
        "meta_element_set_no": 999,
        "meta_rev_at_epoch": 5111,
        "meta_bstar": 0,
        "meta_mean_motion_dot": -3.2e-07,
        "meta_mean_motion_ddot": 0,
        "tle_line1": "1 43602U 18067A   26060.51717931 -.00000032  00000+0  00000+0 0  9999",
        "tle_line2": "2 43602  54.1828 184.6910 0008590  39.9303 320.0854  1.86227628 51115"
      },
      "geometry": {
        "type": "Point",
        "coordinates": [
          -4.032988666273572,
          11.832529065487936
        ]
      }
    },
    {
      "type": "Feature",
      "properties": {
        "norad_id": 43603,
        "name": "BEIDOU-3 M11 (C25)",
        "group": "beidou",
        "lat": 51.54807009589447,
        "lon": -110.11815708529758,
        "alt_km": 21511.70861890574,
        "timestamp": "2026-03-02T07:12:42.485618+00:00",
        "meta_object_name": "BEIDOU-3 M11 (C25)",
        "meta_object_id": "2018-067B",
        "meta_epoch": "2026-03-01T15:38:45.806784",
        "meta_mean_motion": 1.8622703,
        "meta_eccentricity": 0.00050143,
        "meta_inclination": 54.1804,
        "meta_ra_of_asc_node": 184.6503,
        "meta_arg_of_pericenter": 34.6567,
        "meta_mean_anomaly": 325.3287,
        "meta_ephemeris_type": 0,
        "meta_classification_type": "U",
        "meta_norad_cat_id": 43603,
        "meta_element_set_no": 999,
        "meta_rev_at_epoch": 5114,
        "meta_bstar": 0,
        "meta_mean_motion_dot": -3.1e-07,
        "meta_mean_motion_ddot": 0,
        "tle_line1": "1 43603U 18067B   26060.65191906 -.00000031  00000+0  00000+0 0  9992",
        "tle_line2": "2 43603  54.1804 184.6503 0005014  34.6567 325.3287  1.86227030 51148"
      },
      "geometry": {
        "type": "Point",
        "coordinates": [
          -110.11815708529758,
          51.54807009589447
        ]
      }
    },
    {
      "type": "Feature",
      "properties": {
        "norad_id": 43622,
        "name": "BEIDOU-3 M13 (C32)",
        "group": "beidou",
        "lat": 53.88556400990356,
        "lon": -178.91841750754378,
        "alt_km": 21544.65695590393,
        "timestamp": "2026-03-02T07:12:42.485629+00:00",
        "meta_object_name": "BEIDOU-3 M13 (C32)",
        "meta_object_id": "2018-072A",
        "meta_epoch": "2026-03-01T14:35:18.710880",
        "meta_mean_motion": 1.86230799,
        "meta_eccentricity": 0.00088731,
        "meta_inclination": 56.5301,
        "meta_ra_of_asc_node": 66.2084,
        "meta_arg_of_pericenter": 307.3974,
        "meta_mean_anomaly": 52.5586,
        "meta_ephemeris_type": 0,
        "meta_classification_type": "U",
        "meta_norad_cat_id": 43622,
        "meta_element_set_no": 999,
        "meta_rev_at_epoch": 5065,
        "meta_bstar": 0,
        "meta_mean_motion_dot": -3e-08,
        "meta_mean_motion_ddot": 0,
        "tle_line1": "1 43622U 18072A   26060.60785545 -.00000003  00000+0  00000+0 0  9991",
        "tle_line2": "2 43622  56.5301  66.2084 0008873 307.3974  52.5586  1.86230799 50656"
      },
      "geometry": {
        "type": "Point",
        "coordinates": [
          -178.91841750754378,
          53.88556400990356
        ]
      }
    },
    {
      "type": "Feature",
      "properties": {
        "norad_id": 43623,
        "name": "BEIDOU-3 M14 (C33)",
        "group": "beidou",
        "lat": -12.086559008343166,
        "lon": -105.67829463860326,
        "alt_km": 21542.167302757414,
        "timestamp": "2026-03-02T07:12:42.485639+00:00",
        "meta_object_name": "BEIDOU-3 M14 (C33)",
        "meta_object_id": "2018-072B",
        "meta_epoch": "2026-03-01T11:21:34.339104",
        "meta_mean_motion": 1.86230828,
        "meta_eccentricity": 0.00063355,
        "meta_inclination": 56.5318,
        "meta_ra_of_asc_node": 66.2068,
        "meta_arg_of_pericenter": 328.5242,
        "meta_mean_anomaly": 31.4753,
        "meta_ephemeris_type": 0,
        "meta_classification_type": "U",
        "meta_norad_cat_id": 43623,
        "meta_element_set_no": 999,
        "meta_rev_at_epoch": 5064,
        "meta_bstar": 0,
        "meta_mean_motion_dot": -3e-08,
        "meta_mean_motion_ddot": 0,
        "tle_line1": "1 43623U 18072B   26060.47331411 -.00000003  00000+0  00000+0 0  9996",
        "tle_line2": "2 43623  56.5318  66.2068 0006335 328.5242  31.4753  1.86230828 50645"
      },
      "geometry": {
        "type": "Point",
        "coordinates": [
          -105.67829463860326,
          -12.086559008343166
        ]
      }
    },
    {
      "type": "Feature",
      "properties": {
        "norad_id": 43647,
        "name": "BEIDOU-3 M16 (C35)",
        "group": "beidou",
        "lat": 54.18439625271384,
        "lon": 32.99529375151721,
        "alt_km": 21509.45743509634,
        "timestamp": "2026-03-02T07:12:42.485651+00:00",
        "meta_object_name": "BEIDOU-3 M16 (C35)",
        "meta_object_id": "2018-078A",
        "meta_epoch": "2026-03-01T02:14:17.379744",
        "meta_mean_motion": 1.86232242,
        "meta_eccentricity": 0.00084161,
        "meta_inclination": 54.1872,
        "meta_ra_of_asc_node": 303.7769,
        "meta_arg_of_pericenter": 30.5698,
        "meta_mean_anomaly": 329.539,
        "meta_ephemeris_type": 0,
        "meta_classification_type": "U",
        "meta_norad_cat_id": 43647,
        "meta_element_set_no": 999,
        "meta_rev_at_epoch": 5014,
        "meta_bstar": 0,
        "meta_mean_motion_dot": -4.2e-07,
        "meta_mean_motion_ddot": 0,
        "tle_line1": "1 43647U 18078A   26060.09325671 -.00000042  00000+0  00000+0 0  9990",
        "tle_line2": "2 43647  54.1872 303.7769 0008416  30.5698 329.5390  1.86232242 50149"
      },
      "geometry": {
        "type": "Point",
        "coordinates": [
          32.99529375151721,
          54.18439625271384
        ]
      }
    },
    {
      "type": "Feature",
      "properties": {
        "norad_id": 43648,
        "name": "BEIDOU-3 M15 (C34)",
        "group": "beidou",
        "lat": 2.1969638712509774,
        "lon": -54.65477780062318,
        "alt_km": 21515.69925186918,
        "timestamp": "2026-03-02T07:12:42.485662+00:00",
        "meta_object_name": "BEIDOU-3 M15 (C34)",
        "meta_object_id": "2018-078B",
        "meta_epoch": "2026-03-01T18:13:41.220768",
        "meta_mean_motion": 1.86232013,
        "meta_eccentricity": 0.00053229,
        "meta_inclination": 54.183,
        "meta_ra_of_asc_node": 303.7545,
        "meta_arg_of_pericenter": 37.6187,
        "meta_mean_anomaly": 322.4788,
        "meta_ephemeris_type": 0,
        "meta_classification_type": "U",
        "meta_norad_cat_id": 43648,
        "meta_element_set_no": 999,
        "meta_rev_at_epoch": 5017,
        "meta_bstar": 0,
        "meta_mean_motion_dot": -4.5e-07,
        "meta_mean_motion_ddot": 0,
        "tle_line1": "1 43648U 18078B   26060.75950487 -.00000045  00000+0  00000+0 0  9996",
        "tle_line2": "2 43648  54.1830 303.7545 0005322  37.6187 322.4788  1.86232013 50172"
      },
      "geometry": {
        "type": "Point",
        "coordinates": [
          -54.65477780062318,
          2.1969638712509774
        ]
      }
    },
    {
      "type": "Feature",
      "properties": {
        "norad_id": 43683,
        "name": "BEIDOU-3 G1 (C59)",
        "group": "beidou",
        "lat": -2.2408340904505137,
        "lon": 48.35994563361126,
        "alt_km": 35786.589507573946,
        "timestamp": "2026-03-02T07:12:42.485673+00:00",
        "meta_object_name": "BEIDOU-3 G1 (C59)",
        "meta_object_id": "2018-085A",
        "meta_epoch": "2026-03-01T23:37:56.194752",
        "meta_mean_motion": 1.00269185,
        "meta_eccentricity": 0.00012786,
        "meta_inclination": 2.8038,
        "meta_ra_of_asc_node": 100.4596,
        "meta_arg_of_pericenter": 31.7855,
        "meta_mean_anomaly": 162.0627,
        "meta_ephemeris_type": 0,
        "meta_classification_type": "U",
        "meta_norad_cat_id": 43683,
        "meta_element_set_no": 999,
        "meta_rev_at_epoch": 2698,
        "meta_bstar": 0,
        "meta_mean_motion_dot": -2.95e-06,
        "meta_mean_motion_ddot": 0,
        "tle_line1": "1 43683U 18085A   26060.98467818 -.00000295  00000+0  00000+0 0  9996",
        "tle_line2": "2 43683   2.8038 100.4596 0001278  31.7855 162.0627  1.00269185 26980"
      },
      "geometry": {
        "type": "Point",
        "coordinates": [
          48.35994563361126,
          -2.2408340904505137
        ]
      }
    },
    {
      "type": "Feature",
      "properties": {
        "norad_id": 43706,
        "name": "BEIDOU-3 M17 (C36)",
        "group": "beidou",
        "lat": -51.7965339655747,
        "lon": 72.36129962178339,
        "alt_km": 21519.520580768236,
        "timestamp": "2026-03-02T07:12:42.485685+00:00",
        "meta_object_name": "BEIDOU-3 M17 (C36)",
        "meta_object_id": "2018-093A",
        "meta_epoch": "2026-03-01T10:36:11.488032",
        "meta_mean_motion": 1.8622831,
        "meta_eccentricity": 0.00069469,
        "meta_inclination": 54.1716,
        "meta_ra_of_asc_node": 185.9513,
        "meta_arg_of_pericenter": 297.5558,
        "meta_mean_anomaly": 102.4053,
        "meta_ephemeris_type": 0,
        "meta_classification_type": "U",
        "meta_norad_cat_id": 43706,
        "meta_element_set_no": 999,
        "meta_rev_at_epoch": 4953,
        "meta_bstar": 0,
        "meta_mean_motion_dot": -3.1e-07,
        "meta_mean_motion_ddot": 0,
        "tle_line1": "1 43706U 18093A   26060.44179963 -.00000031  00000+0  00000+0 0  9991",
        "tle_line2": "2 43706  54.1716 185.9513 0006946 297.5558 102.4053  1.86228310 49531"
      },
      "geometry": {
        "type": "Point",
        "coordinates": [
          72.36129962178339,
          -51.7965339655747
        ]
      }
    },
    {
      "type": "Feature",
      "properties": {
        "norad_id": 43707,
        "name": "BEIDOU-3 M18 (C37)",
        "group": "beidou",
        "lat": -9.645211088766022,
        "lon": 178.86306871985644,
        "alt_km": 21513.275074425987,
        "timestamp": "2026-03-02T07:12:42.485695+00:00",
        "meta_object_name": "BEIDOU-3 M18 (C37)",
        "meta_object_id": "2018-093B",
        "meta_epoch": "2026-03-01T18:45:03.572640",
        "meta_mean_motion": 1.86226377,
        "meta_eccentricity": 0.00060298,
        "meta_inclination": 54.1725,
        "meta_ra_of_asc_node": 185.9316,
        "meta_arg_of_pericenter": 341.4642,
        "meta_mean_anomaly": 18.4651,
        "meta_ephemeris_type": 0,
        "meta_classification_type": "U",
        "meta_norad_cat_id": 43707,
        "meta_element_set_no": 999,
        "meta_rev_at_epoch": 4953,
        "meta_bstar": 0,
        "meta_mean_motion_dot": -3e-07,
        "meta_mean_motion_ddot": 0,
        "tle_line1": "1 43707U 18093B   26060.78129135 -.00000030  00000+0  00000+0 0  9994",
        "tle_line2": "2 43707  54.1725 185.9316 0006029 341.4642  18.4651  1.86226377 49539"
      },
      "geometry": {
        "type": "Point",
        "coordinates": [
          178.86306871985644,
          -9.645211088766022
        ]
      }
    },
    {
      "type": "Feature",
      "properties": {
        "norad_id": 44204,
        "name": "BEIDOU-3 IGSO-1 (C38)",
        "group": "beidou",
        "lat": -9.319034726695186,
        "lon": 32.945230072359614,
        "alt_km": 35829.54767100585,
        "timestamp": "2026-03-02T07:12:42.485706+00:00",
        "meta_object_name": "BEIDOU-3 IGSO-1 (C38)",
        "meta_object_id": "2019-023A",
        "meta_epoch": "2026-03-01T19:51:36.620352",
        "meta_mean_motion": 1.00271356,
        "meta_eccentricity": 0.00260054,
        "meta_inclination": 58.5499,
        "meta_ra_of_asc_node": 38.7521,
        "meta_arg_of_pericenter": 236.5575,
        "meta_mean_anomaly": 301.4336,
        "meta_ephemeris_type": 0,
        "meta_classification_type": "U",
        "meta_norad_cat_id": 44204,
        "meta_element_set_no": 999,
        "meta_rev_at_epoch": 613,
        "meta_bstar": 0,
        "meta_mean_motion_dot": -2e-06,
        "meta_mean_motion_ddot": 0,
        "tle_line1": "1 44204U 19023A   26060.82750718 -.00000200  00000+0  00000+0 0  9992",
        "tle_line2": "2 44204  58.5499  38.7521 0026005 236.5575 301.4336  1.00271356  6133"
      },
      "geometry": {
        "type": "Point",
        "coordinates": [
          32.945230072359614,
          -9.319034726695186
        ]
      }
    },
    {
      "type": "Feature",
      "properties": {
        "norad_id": 44231,
        "name": "BEIDOU-2 G8 (C01)",
        "group": "beidou",
        "lat": -0.7187643789796465,
        "lon": 52.89884963667618,
        "alt_km": 35773.473093458655,
        "timestamp": "2026-03-02T07:12:42.485718+00:00",
        "meta_object_name": "BEIDOU-2 G8 (C01)",
        "meta_object_id": "2019-027A",
        "meta_epoch": "2026-03-01T23:23:52.306944",
        "meta_mean_motion": 1.00268305,
        "meta_eccentricity": 0.00092256,
        "meta_inclination": 1.8614,
        "meta_ra_of_asc_node": 74.728,
        "meta_arg_of_pericenter": 268.7103,
        "meta_mean_anomaly": 311.7908,
        "meta_ephemeris_type": 0,
        "meta_classification_type": "U",
        "meta_norad_cat_id": 44231,
        "meta_element_set_no": 999,
        "meta_rev_at_epoch": 2500,
        "meta_bstar": 0,
        "meta_mean_motion_dot": -2.65e-06,
        "meta_mean_motion_ddot": 0,
        "tle_line1": "1 44231U 19027A   26060.97491096 -.00000265  00000+0  00000+0 0  9994",
        "tle_line2": "2 44231   1.8614  74.7280 0009225 268.7103 311.7908  1.00268305 25000"
      },
      "geometry": {
        "type": "Point",
        "coordinates": [
          52.89884963667618,
          -0.7187643789796465
        ]
      }
    },
    {
      "type": "Feature",
      "properties": {
        "norad_id": 44337,
        "name": "BEIDOU-3 IGSO-2 (C39)",
        "group": "beidou",
        "lat": -34.70655960890491,
        "lon": 8.47179299959858,
        "alt_km": 35641.91835309731,
        "timestamp": "2026-03-02T07:12:42.485728+00:00",
        "meta_object_name": "BEIDOU-3 IGSO-2 (C39)",
        "meta_object_id": "2019-035A",
        "meta_epoch": "2026-02-26T16:31:51.989952",
        "meta_mean_motion": 1.00247364,
        "meta_eccentricity": 0.00387345,
        "meta_inclination": 55.2338,
        "meta_ra_of_asc_node": 159.8353,
        "meta_arg_of_pericenter": 206.4752,
        "meta_mean_anomaly": 153.7223,
        "meta_ephemeris_type": 0,
        "meta_classification_type": "U",
        "meta_norad_cat_id": 44337,
        "meta_element_set_no": 999,
        "meta_rev_at_epoch": 2456,
        "meta_bstar": 0,
        "meta_mean_motion_dot": -1.76e-06,
        "meta_mean_motion_ddot": 0,
        "tle_line1": "1 44337U 19035A   26057.68879618 -.00000176  00000+0  00000+0 0  9995",
        "tle_line2": "2 44337  55.2338 159.8353 0038734 206.4752 153.7223  1.00247364 24561"
      },
      "geometry": {
        "type": "Point",
        "coordinates": [
          8.47179299959858,
          -34.70655960890491
        ]
      }
    },
    {
      "type": "Feature",
      "properties": {
        "norad_id": 44542,
        "name": "BEIDOU-3 M24 (C46)",
        "group": "beidou",
        "lat": -44.13557598053368,
        "lon": 142.36310670056147,
        "alt_km": 21529.457152903982,
        "timestamp": "2026-03-02T07:12:42.485740+00:00",
        "meta_object_name": "BEIDOU-3 M24 (C46)",
        "meta_object_id": "2019-061A",
        "meta_epoch": "2026-03-01T20:25:52.833216",
        "meta_mean_motion": 1.86228842,
        "meta_eccentricity": 0.00086281,
        "meta_inclination": 54.3996,
        "meta_ra_of_asc_node": 186.3472,
        "meta_arg_of_pericenter": 21.9434,
        "meta_mean_anomaly": 338.0443,
        "meta_ephemeris_type": 0,
        "meta_classification_type": "U",
        "meta_norad_cat_id": 44542,
        "meta_element_set_no": 999,
        "meta_rev_at_epoch": 4379,
        "meta_bstar": 0,
        "meta_mean_motion_dot": -3e-07,
        "meta_mean_motion_ddot": 0,
        "tle_line1": "1 44542U 19061A   26060.85130594 -.00000030  00000+0  00000+0 0  9997",
        "tle_line2": "2 44542  54.3996 186.3472 0008628  21.9434 338.0443  1.86228842 43794"
      },
      "geometry": {
        "type": "Point",
        "coordinates": [
          142.36310670056147,
          -44.13557598053368
        ]
      }
    },
    {
      "type": "Feature",
      "properties": {
        "norad_id": 44543,
        "name": "BEIDOU-3 M23 (C45)",
        "group": "beidou",
        "lat": -26.656429204557792,
        "lon": 27.341417079308854,
        "alt_km": 21545.31249794159,
        "timestamp": "2026-03-02T07:12:42.485752+00:00",
        "meta_object_name": "BEIDOU-3 M23 (C45)",
        "meta_object_id": "2019-061B",
        "meta_epoch": "2026-03-01T02:36:29.113056",
        "meta_mean_motion": 1.86227192,
        "meta_eccentricity": 0.00051022,
        "meta_inclination": 54.3976,
        "meta_ra_of_asc_node": 186.3407,
        "meta_arg_of_pericenter": 14.1129,
        "meta_mean_anomaly": 120.2476,
        "meta_ephemeris_type": 0,
        "meta_classification_type": "U",
        "meta_norad_cat_id": 44543,
        "meta_element_set_no": 999,
        "meta_rev_at_epoch": 4378,
        "meta_bstar": 0,
        "meta_mean_motion_dot": -3.1e-07,
        "meta_mean_motion_ddot": 0,
        "tle_line1": "1 44543U 19061B   26060.10867029 -.00000031  00000+0  00000+0 0  9997",
        "tle_line2": "2 44543  54.3976 186.3407 0005102  14.1129 120.2476  1.86227192 43783"
      },
      "geometry": {
        "type": "Point",
        "coordinates": [
          27.341417079308854,
          -26.656429204557792
        ]
      }
    },
    {
      "type": "Feature",
      "properties": {
        "norad_id": 44709,
        "name": "BEIDOU-3 IGSO-3 (C40)",
        "group": "beidou",
        "lat": 52.20851137681854,
        "lon": 37.323039805246474,
        "alt_km": 35763.06482528976,
        "timestamp": "2026-03-02T07:12:42.485764+00:00",
        "meta_object_name": "BEIDOU-3 IGSO-3 (C40)",
        "meta_object_id": "2019-073A",
        "meta_epoch": "2026-02-28T00:19:05.143872",
        "meta_mean_motion": 1.00270708,
        "meta_eccentricity": 0.00403779,
        "meta_inclination": 54.9854,
        "meta_ra_of_asc_node": 282.0779,
        "meta_arg_of_pericenter": 189.1116,
        "meta_mean_anomaly": 170.8905,
        "meta_ephemeris_type": 0,
        "meta_classification_type": "U",
        "meta_norad_cat_id": 44709,
        "meta_element_set_no": 999,
        "meta_rev_at_epoch": 2336,
        "meta_bstar": 0,
        "meta_mean_motion_dot": -1.45e-06,
        "meta_mean_motion_ddot": 0,
        "tle_line1": "1 44709U 19073A   26059.01325398 -.00000145  00000+0  00000+0 0  9996",
        "tle_line2": "2 44709  54.9854 282.0779 0040377 189.1116 170.8905  1.00270708 23363"
      },
      "geometry": {
        "type": "Point",
        "coordinates": [
          37.323039805246474,
          52.20851137681854
        ]
      }
    },
    {
      "type": "Feature",
      "properties": {
        "norad_id": 44793,
        "name": "BEIDOU-3 M22 (C44)",
        "group": "beidou",
        "lat": 37.588904940974096,
        "lon": -22.42648014649188,
        "alt_km": 21503.76042535354,
        "timestamp": "2026-03-02T07:12:42.485775+00:00",
        "meta_object_name": "BEIDOU-3 M22 (C44)",
        "meta_object_id": "2019-078A",
        "meta_epoch": "2026-02-28T01:54:59.619744",
        "meta_mean_motion": 1.86231871,
        "meta_eccentricity": 0.00072213,
        "meta_inclination": 54.0347,
        "meta_ra_of_asc_node": 303.6688,
        "meta_arg_of_pericenter": 34.9561,
        "meta_mean_anomaly": 325.1493,
        "meta_ephemeris_type": 0,
        "meta_classification_type": "U",
        "meta_norad_cat_id": 44793,
        "meta_element_set_no": 999,
        "meta_rev_at_epoch": 4261,
        "meta_bstar": 0,
        "meta_mean_motion_dot": -3.9e-07,
        "meta_mean_motion_ddot": 0,
        "tle_line1": "1 44793U 19078A   26059.07985671 -.00000039  00000+0  00000+0 0  9998",
        "tle_line2": "2 44793  54.0347 303.6688 0007221  34.9561 325.1493  1.86231871 42613"
      },
      "geometry": {
        "type": "Point",
        "coordinates": [
          -22.42648014649188,
          37.588904940974096
        ]
      }
    },
    {
      "type": "Feature",
      "properties": {
        "norad_id": 44794,
        "name": "BEIDOU-3 M21 (C43)",
        "group": "beidou",
        "lat": -34.704537247208975,
        "lon": -86.62511921703371,
        "alt_km": 21530.116215424096,
        "timestamp": "2026-03-02T07:12:42.485786+00:00",
        "meta_object_name": "BEIDOU-3 M21 (C43)",
        "meta_object_id": "2019-078B",
        "meta_epoch": "2026-02-28T05:15:49.599648",
        "meta_mean_motion": 1.86227562,
        "meta_eccentricity": 0.00056611,
        "meta_inclination": 54.0076,
        "meta_ra_of_asc_node": 303.6269,
        "meta_arg_of_pericenter": 36.1333,
        "meta_mean_anomaly": 323.9632,
        "meta_ephemeris_type": 0,
        "meta_classification_type": "U",
        "meta_norad_cat_id": 44794,
        "meta_element_set_no": 999,
        "meta_rev_at_epoch": 4262,
        "meta_bstar": 0,
        "meta_mean_motion_dot": -4e-07,
        "meta_mean_motion_ddot": 0,
        "tle_line1": "1 44794U 19078B   26059.21932407 -.00000040  00000+0  00000+0 0  9996",
        "tle_line2": "2 44794  54.0076 303.6269 0005661  36.1333 323.9632  1.86227562 42629"
      },
      "geometry": {
        "type": "Point",
        "coordinates": [
          -86.62511921703371,
          -34.704537247208975
        ]
      }
    },
    {
      "type": "Feature",
      "properties": {
        "norad_id": 44864,
        "name": "BEIDOU-3 M19 (C41)",
        "group": "beidou",
        "lat": 23.25530108108467,
        "lon": -130.2463222260924,
        "alt_km": 21568.6327460667,
        "timestamp": "2026-03-02T07:12:42.485796+00:00",
        "meta_object_name": "BEIDOU-3 M19 (C41)",
        "meta_object_id": "2019-090A",
        "meta_epoch": "2026-03-01T21:40:25.902048",
        "meta_mean_motion": 1.8623117,
        "meta_eccentricity": 0.00203993,
        "meta_inclination": 56.4654,
        "meta_ra_of_asc_node": 66.3353,
        "meta_arg_of_pericenter": 291.2759,
        "meta_mean_anomaly": 314.1354,
        "meta_ephemeris_type": 0,
        "meta_classification_type": "U",
        "meta_norad_cat_id": 44864,
        "meta_element_set_no": 999,
        "meta_rev_at_epoch": 4223,
        "meta_bstar": 0,
        "meta_mean_motion_dot": -5e-08,
        "meta_mean_motion_ddot": 0,
        "tle_line1": "1 44864U 19090A   26060.90307757 -.00000005  00000+0  00000+0 0  9991",
        "tle_line2": "2 44864  56.4654  66.3353 0020399 291.2759 314.1354  1.86231170 42233"
      },
      "geometry": {
        "type": "Point",
        "coordinates": [
          -130.2463222260924,
          23.25530108108467
        ]
      }
    },
    {
      "type": "Feature",
      "properties": {
        "norad_id": 44865,
        "name": "BEIDOU-3 M20 (C42)",
        "group": "beidou",
        "lat": -46.9598165823973,
        "lon": -68.38176753553826,
        "alt_km": 21509.58278728736,
        "timestamp": "2026-03-02T07:12:42.485808+00:00",
        "meta_object_name": "BEIDOU-3 M20 (C42)",
        "meta_object_id": "2019-090B",
        "meta_epoch": "2026-03-01T15:48:32.522400",
        "meta_mean_motion": 1.86231183,
        "meta_eccentricity": 0.001781,
        "meta_inclination": 56.4667,
        "meta_ra_of_asc_node": 66.3777,
        "meta_arg_of_pericenter": 302.8559,
        "meta_mean_anomaly": 228.3296,
        "meta_ephemeris_type": 0,
        "meta_classification_type": "U",
        "meta_norad_cat_id": 44865,
        "meta_element_set_no": 999,
        "meta_rev_at_epoch": 4221,
        "meta_bstar": 0,
        "meta_mean_motion_dot": -4e-08,
        "meta_mean_motion_ddot": 0,
        "tle_line1": "1 44865U 19090B   26060.65870975 -.00000004  00000+0  00000+0 0  9990",
        "tle_line2": "2 44865  56.4667  66.3777 0017810 302.8559 228.3296  1.86231183 42212"
      },
      "geometry": {
        "type": "Point",
        "coordinates": [
          -68.38176753553826,
          -46.9598165823973
        ]
      }
    },
    {
      "type": "Feature",
      "properties": {
        "norad_id": 45344,
        "name": "BEIDOU-3 G2 (C60)",
        "group": "beidou",
        "lat": -2.237906472568565,
        "lon": -11.653807031206123,
        "alt_km": 35775.18123555285,
        "timestamp": "2026-03-02T07:12:42.485820+00:00",
        "meta_object_name": "BEIDOU-3 G2 (C60)",
        "meta_object_id": "2020-017A",
        "meta_epoch": "2026-03-01T23:05:31.565760",
        "meta_mean_motion": 1.00271171,
        "meta_eccentricity": 0.00026894,
        "meta_inclination": 2.6496,
        "meta_ra_of_asc_node": 45.525,
        "meta_arg_of_pericenter": 299.5173,
        "meta_mean_anomaly": 241.1136,
        "meta_ephemeris_type": 0,
        "meta_classification_type": "U",
        "meta_norad_cat_id": 45344,
        "meta_element_set_no": 999,
        "meta_rev_at_epoch": 2218,
        "meta_bstar": 0,
        "meta_mean_motion_dot": -1.56e-06,
        "meta_mean_motion_ddot": 0,
        "tle_line1": "1 45344U 20017A   26060.96217090 -.00000156  00000+0  00000+0 0  9999",
        "tle_line2": "2 45344   2.6496  45.5250 0002689 299.5173 241.1136  1.00271171 22182"
      },
      "geometry": {
        "type": "Point",
        "coordinates": [
          -11.653807031206123,
          -2.237906472568565
        ]
      }
    },
    {
      "type": "Feature",
      "properties": {
        "norad_id": 45807,
        "name": "BEIDOU-3 G3 (C61)",
        "group": "beidou",
        "lat": -1.6547306076105204,
        "lon": 18.659270682043477,
        "alt_km": 35767.93877068325,
        "timestamp": "2026-03-02T07:12:42.485832+00:00",
        "meta_object_name": "BEIDOU-3 G3 (C61)",
        "meta_object_id": "2020-040A",
        "meta_epoch": "2026-02-28T14:43:08.523840",
        "meta_mean_motion": 1.00264554,
        "meta_eccentricity": 0.0004911,
        "meta_inclination": 2.1795,
        "meta_ra_of_asc_node": 67.0969,
        "meta_arg_of_pericenter": 316.5656,
        "meta_mean_anomaly": 105.9394,
        "meta_ephemeris_type": 0,
        "meta_classification_type": "U",
        "meta_norad_cat_id": 45807,
        "meta_element_set_no": 999,
        "meta_rev_at_epoch": 2098,
        "meta_bstar": 0,
        "meta_mean_motion_dot": -3.7e-06,
        "meta_mean_motion_ddot": 0,
        "tle_line1": "1 45807U 20040A   26059.61329310 -.00000370  00000+0  00000+0 0  9996",
        "tle_line2": "2 45807   2.1795  67.0969 0004911 316.5656 105.9394  1.00264554 20981"
      },
      "geometry": {
        "type": "Point",
        "coordinates": [
          18.659270682043477,
          -1.6547306076105204
        ]
      }
    },
    {
      "type": "Feature",
      "properties": {
        "norad_id": 56564,
        "name": "BEIDOU-3 G4 (C62)",
        "group": "beidou",
        "lat": 0.5534104439270672,
        "lon": 68.31389438140327,
        "alt_km": 35780.441870356626,
        "timestamp": "2026-03-02T07:12:42.485844+00:00",
        "meta_object_name": "BEIDOU-3 G4 (C62)",
        "meta_object_id": "2023-066A",
        "meta_epoch": "2026-03-01T23:34:46.810272",
        "meta_mean_motion": 1.00272017,
        "meta_eccentricity": 0.00018736,
        "meta_inclination": 0.6534,
        "meta_ra_of_asc_node": 310.5714,
        "meta_arg_of_pericenter": 163.2274,
        "meta_mean_anomaly": 199.6943,
        "meta_ephemeris_type": 0,
        "meta_classification_type": "U",
        "meta_norad_cat_id": 56564,
        "meta_element_set_no": 999,
        "meta_rev_at_epoch": 1031,
        "meta_bstar": 0,
        "meta_mean_motion_dot": -1.29e-06,
        "meta_mean_motion_ddot": 0,
        "tle_line1": "1 56564U 23066A   26060.98248623 -.00000129  00000+0  00000+0 0  9990",
        "tle_line2": "2 56564   0.6534 310.5714 0001873 163.2274 199.6943  1.00272017 10317"
      },
      "geometry": {
        "type": "Point",
        "coordinates": [
          68.31389438140327,
          0.5534104439270672
        ]
      }
    },
    {
      "type": "Feature",
      "properties": {
        "norad_id": 58654,
        "name": "BEIDOU-3 M28 (C50)",
        "group": "beidou",
        "lat": -55.06065354354185,
        "lon": -35.885785338291576,
        "alt_km": 21523.41648762729,
        "timestamp": "2026-03-02T07:12:42.485856+00:00",
        "meta_object_name": "BEIDOU-3 M28 (C50)",
        "meta_object_id": "2023-207A",
        "meta_epoch": "2026-03-01T08:53:53.939616",
        "meta_mean_motion": 1.86229613,
        "meta_eccentricity": 0.00048769,
        "meta_inclination": 55.6573,
        "meta_ra_of_asc_node": 65.9389,
        "meta_arg_of_pericenter": 301.8418,
        "meta_mean_anomaly": 58.148,
        "meta_ephemeris_type": 0,
        "meta_classification_type": "U",
        "meta_norad_cat_id": 58654,
        "meta_element_set_no": 999,
        "meta_rev_at_epoch": 1483,
        "meta_bstar": 0,
        "meta_mean_motion_dot": -5e-08,
        "meta_mean_motion_ddot": 0,
        "tle_line1": "1 58654U 23207A   26060.37076319 -.00000005  00000+0  00000+0 0  9996",
        "tle_line2": "2 58654  55.6573  65.9389 0004876 301.8418  58.1480  1.86229613 14831"
      },
      "geometry": {
        "type": "Point",
        "coordinates": [
          -35.885785338291576,
          -55.06065354354185
        ]
      }
    },
    {
      "type": "Feature",
      "properties": {
        "norad_id": 58655,
        "name": "BEIDOU-3 M26 (C48)",
        "group": "beidou",
        "lat": 31.38724942821639,
        "lon": 90.54848490530509,
        "alt_km": 21530.27679050912,
        "timestamp": "2026-03-02T07:12:42.485866+00:00",
        "meta_object_name": "BEIDOU-3 M26 (C48)",
        "meta_object_id": "2023-207B",
        "meta_epoch": "2026-03-01T04:02:15.809856",
        "meta_mean_motion": 1.86229561,
        "meta_eccentricity": 0.00057101,
        "meta_inclination": 55.6592,
        "meta_ra_of_asc_node": 65.932,
        "meta_arg_of_pericenter": 287.4313,
        "meta_mean_anomaly": 72.5442,
        "meta_ephemeris_type": 0,
        "meta_classification_type": "U",
        "meta_norad_cat_id": 58655,
        "meta_element_set_no": 999,
        "meta_rev_at_epoch": 1481,
        "meta_bstar": 0,
        "meta_mean_motion_dot": -4e-08,
        "meta_mean_motion_ddot": 0,
        "tle_line1": "1 58655U 23207B   26060.16823854 -.00000004  00000+0  00000+0 0  9997",
        "tle_line2": "2 58655  55.6592  65.9320 0005710 287.4313  72.5442  1.86229561 14817"
      },
      "geometry": {
        "type": "Point",
        "coordinates": [
          90.54848490530509,
          31.38724942821639
        ]
      }
    },
    {
      "type": "Feature",
      "properties": {
        "norad_id": 61186,
        "name": "BEIDOU-3 M25 (C47)",
        "group": "beidou",
        "lat": 19.31401805467912,
        "lon": 111.54153851173162,
        "alt_km": 21537.268815505897,
        "timestamp": "2026-03-02T07:12:42.485877+00:00",
        "meta_object_name": "BEIDOU-3 M25 (C47)",
        "meta_object_id": "2024-168B",
        "meta_epoch": "2026-03-01T06:01:48.762048",
        "meta_mean_motion": 1.86229934,
        "meta_eccentricity": 0.0004308,
        "meta_inclination": 54.5685,
        "meta_ra_of_asc_node": 305.9942,
        "meta_arg_of_pericenter": 317.7219,
        "meta_mean_anomaly": 214.903,
        "meta_ephemeris_type": 0,
        "meta_classification_type": "U",
        "meta_norad_cat_id": 61186,
        "meta_element_set_no": 999,
        "meta_rev_at_epoch": 977,
        "meta_bstar": 0,
        "meta_mean_motion_dot": -4.7e-07,
        "meta_mean_motion_ddot": 0,
        "tle_line1": "1 61186U 24168B   26060.25125882 -.00000047  00000+0  00000+0 0  9990",
        "tle_line2": "2 61186  54.5685 305.9942 0004308 317.7219 214.9030  1.86229934  9770"
      },
      "geometry": {
        "type": "Point",
        "coordinates": [
          111.54153851173162,
          19.31401805467912
        ]
      }
    },
    {
      "type": "Feature",
      "properties": {
        "norad_id": 61187,
        "name": "BEIDOU-3 M27 (C49)",
        "group": "beidou",
        "lat": -49.52713509321587,
        "lon": -110.5413067528878,
        "alt_km": 21533.366311059173,
        "timestamp": "2026-03-02T07:12:42.485889+00:00",
        "meta_object_name": "BEIDOU-3 M27 (C49)",
        "meta_object_id": "2024-168C",
        "meta_epoch": "2026-03-01T17:38:28.714848",
        "meta_mean_motion": 1.86230115,
        "meta_eccentricity": 0.00029276,
        "meta_inclination": 54.5637,
        "meta_ra_of_asc_node": 305.9607,
        "meta_arg_of_pericenter": 19.0745,
        "meta_mean_anomaly": 252.8978,
        "meta_ephemeris_type": 0,
        "meta_classification_type": "U",
        "meta_norad_cat_id": 61187,
        "meta_element_set_no": 999,
        "meta_rev_at_epoch": 725,
        "meta_bstar": 0,
        "meta_mean_motion_dot": -4.9e-07,
        "meta_mean_motion_ddot": 0,
        "tle_line1": "1 61187U 24168C   26060.73505457 -.00000049  00000+0  00000+0 0  9996",
        "tle_line2": "2 61187  54.5637 305.9607 0002927  19.0745 252.8978  1.86230115  7253"
      },
      "geometry": {
        "type": "Point",
        "coordinates": [
          -110.5413067528878,
          -49.52713509321587
        ]
      }
    }
  ]
}