{
  "type": "FeatureCollection",
  "features": [
    {
      "type": "Feature",
      "properties": {
        "norad_id": 50032,
        "name": "COSMOS 1408 DEB",
        "group": "cosmos-1408-debris",
        "lat": -58.87294408904972,
        "lon": -31.809167836481276,
        "alt_km": 424.29693518718614,
        "timestamp": "2026-02-26T14:55:48.214159+00:00",
        "meta_object_name": "COSMOS 1408 DEB",
        "meta_object_id": "1982-092RU",
        "meta_epoch": "2026-02-26T05:52:13.702656",
        "meta_mean_motion": 15.4662315,
        "meta_eccentricity": 0.00139216,
        "meta_inclination": 82.5661,
        "meta_ra_of_asc_node": 341.0653,
        "meta_arg_of_pericenter": 303.9795,
        "meta_mean_anomaly": 56.0131,
        "meta_ephemeris_type": 0,
        "meta_classification_type": "U",
        "meta_norad_cat_id": 50032,
        "meta_element_set_no": 999,
        "meta_rev_at_epoch": 23770,
        "meta_bstar": 0.00011845907,
        "meta_mean_motion_dot": 5.963e-05,
        "meta_mean_motion_ddot": 0,
        "tle_line1": "1 50032U 82092RU  26057.24460304  .00005963  00000+0  11846-3 0  9999",
        "tle_line2": "2 50032  82.5661 341.0653 0013921 303.9795  56.0131 15.46623150237702"
      },
      "geometry": {
        "type": "Point",
        "coordinates": [
          -31.809167836481276,
          -58.87294408904972
        ]
      }
    },
    {
      "type": "Feature",
      "properties": {
        "norad_id": 50058,
        "name": "COSMOS 1408 DEB",
        "group": "cosmos-1408-debris",
        "lat": 46.49500710459956,
        "lon": -2.572787251682234,
        "alt_km": 358.23773511099716,
        "timestamp": "2026-02-26T14:55:48.214178+00:00",
        "meta_object_name": "COSMOS 1408 DEB",
        "meta_object_id": "1982-092SW",
        "meta_epoch": "2026-02-26T05:33:09.373536",
        "meta_mean_motion": 15.70077279,
        "meta_eccentricity": 0.0013788,
        "meta_inclination": 82.6134,
        "meta_ra_of_asc_node": 349.9836,
        "meta_arg_of_pericenter": 161.732,
        "meta_mean_anomaly": 198.4441,
        "meta_ephemeris_type": 0,
        "meta_classification_type": "U",
        "meta_norad_cat_id": 50058,
        "meta_element_set_no": 999,
        "meta_rev_at_epoch": 23986,
        "meta_bstar": 0.00039379265,
        "meta_mean_motion_dot": 0.00047867,
        "meta_mean_motion_ddot": 0,
        "tle_line1": "1 50058U 82092SW  26057.23135849  .00047867  00000+0  39379-3 0  9999",
        "tle_line2": "2 50058  82.6134 349.9836 0013788 161.7320 198.4441 15.70077279239867"
      },
      "geometry": {
        "type": "Point",
        "coordinates": [
          -2.572787251682234,
          46.49500710459956
        ]
      }
    },
    {
      "type": "Feature",
      "properties": {
        "norad_id": 50404,
        "name": "COSMOS 1408 DEB",
        "group": "cosmos-1408-debris",
        "lat": 54.207207529252976,
        "lon": -54.603707065954914,
        "alt_km": 555.649587163095,
        "timestamp": "2026-02-26T14:55:48.214190+00:00",
        "meta_object_name": "COSMOS 1408 DEB",
        "meta_object_id": "1982-092ADS",
        "meta_epoch": "2026-02-26T06:32:03.077376",
        "meta_mean_motion": 15.30663359,
        "meta_eccentricity": 0.01301052,
        "meta_inclination": 82.1979,
        "meta_ra_of_asc_node": 136.7266,
        "meta_arg_of_pericenter": 294.4998,
        "meta_mean_anomaly": 64.2719,
        "meta_ephemeris_type": 0,
        "meta_classification_type": "U",
        "meta_norad_cat_id": 50404,
        "meta_element_set_no": 999,
        "meta_rev_at_epoch": 22342,
        "meta_bstar": 0.0032300711,
        "meta_mean_motion_dot": 0.00126119,
        "meta_mean_motion_ddot": 0,
        "tle_line1": "1 50404U 82092ADS 26057.27225784  .00126119  00000+0  32301-2 0  9991",
        "tle_line2": "2 50404  82.1979 136.7266 0130105 294.4998  64.2719 15.30663359223420"
      },
      "geometry": {
        "type": "Point",
        "coordinates": [
          -54.603707065954914,
          54.207207529252976
        ]
      }
    },
    {
      "type": "Feature",
      "properties": {
        "norad_id": 50621,
        "name": "COSMOS 1408 DEB",
        "group": "cosmos-1408-debris",
        "lat": 56.627127842451756,
        "lon": 6.318772679865758,
        "alt_km": 392.58917722366914,
        "timestamp": "2026-02-26T14:55:48.214201+00:00",
        "meta_object_name": "COSMOS 1408 DEB",
        "meta_object_id": "1982-092ALR",
        "meta_epoch": "2026-02-26T06:59:39.977088",
        "meta_mean_motion": 15.61534122,
        "meta_eccentricity": 0.0022302,
        "meta_inclination": 82.5718,
        "meta_ra_of_asc_node": 355.241,
        "meta_arg_of_pericenter": 227.6305,
        "meta_mean_anomaly": 132.3065,
        "meta_ephemeris_type": 0,
        "meta_classification_type": "U",
        "meta_norad_cat_id": 50621,
        "meta_element_set_no": 999,
        "meta_rev_at_epoch": 23427,
        "meta_bstar": 0.00041208323,
        "meta_mean_motion_dot": 0.00035849,
        "meta_mean_motion_ddot": 0,
        "tle_line1": "1 50621U 82092ALR 26057.29143492  .00035849  00000+0  41208-3 0  9995",
        "tle_line2": "2 50621  82.5718 355.2410 0022302 227.6305 132.3065 15.61534122234279"
      },
      "geometry": {
        "type": "Point",
        "coordinates": [
          6.318772679865758,
          56.627127842451756
        ]
      }
    }
  ]
}