{
  "type": "FeatureCollection",
  "features": [
    {
      "type": "Feature",
      "properties": {
        "norad_id": 28890,
        "name": "BEIJING 1",
        "group": "dmc",
        "lat": 28.739264784352184,
        "lon": -38.29691590788524,
        "alt_km": 678.1986264405396,
        "timestamp": "2026-01-04T13:36:09.556035+00:00",
        "meta_object_name": "BEIJING 1",
        "meta_object_id": "2005-043A",
        "meta_epoch": "2026-01-04T07:59:39.393312",
        "meta_mean_motion": 14.63392416,
        "meta_eccentricity": 0.0015862,
        "meta_inclination": 98.2664,
        "meta_ra_of_asc_node": 136.8962,
        "meta_arg_of_pericenter": 75.4857,
        "meta_mean_anomaly": 284.8104,
        "meta_ephemeris_type": 0,
        "meta_classification_type": "U",
        "meta_norad_cat_id": 28890,
        "meta_element_set_no": 999,
        "meta_rev_at_epoch": 7668,
        "meta_bstar": 0.00016094978,
        "meta_mean_motion_dot": 7.85e-06,
        "meta_mean_motion_ddot": 0,
        "tle_line1": "1 28890U 05043A   26004.33309483  .00000785  00000+0  16095-3 0  9997",
        "tle_line2": "2 28890  98.2664 136.8962 0015862  75.4857 284.8104 14.63392416 76680"
      },
      "geometry": {
        "type": "Point",
        "coordinates": [
          -38.29691590788524,
          28.739264784352184
        ]
      }
    },
    {
      "type": "Feature",
      "properties": {
        "norad_id": 33320,
        "name": "HUANJING 1A (HJ-1A)",
        "group": "dmc",
        "lat": 22.552711665146145,
        "lon": -6.287107414548837,
        "alt_km": 612.2306170754719,
        "timestamp": "2026-01-04T13:36:09.556059+00:00",
        "meta_object_name": "HUANJING 1A (HJ-1A)",
        "meta_object_id": "2008-041A",
        "meta_epoch": "2026-01-04T07:01:31.306944",
        "meta_mean_motion": 14.83486308,
        "meta_eccentricity": 0.00182413,
        "meta_inclination": 97.6549,
        "meta_ra_of_asc_node": 356.6521,
        "meta_arg_of_pericenter": 320.7403,
        "meta_mean_anomaly": 39.2487,
        "meta_ephemeris_type": 0,
        "meta_classification_type": "U",
        "meta_norad_cat_id": 33320,
        "meta_element_set_no": 999,
        "meta_rev_at_epoch": 93410,
        "meta_bstar": 0.00040342965,
        "meta_mean_motion_dot": 3.275e-05,
        "meta_mean_motion_ddot": 0,
        "tle_line1": "1 33320U 08041A   26004.29272346  .00003275  00000+0  40343-3 0  9994",
        "tle_line2": "2 33320  97.6549 356.6521 0018241 320.7403  39.2487 14.83486308934101"
      },
      "geometry": {
        "type": "Point",
        "coordinates": [
          -6.287107414548837,
          22.552711665146145
        ]
      }
    },
    {
      "type": "Feature",
      "properties": {
        "norad_id": 33321,
        "name": "HUANJING 1B (HJ-1B)",
        "group": "dmc",
        "lat": -16.119974676508498,
        "lon": 178.3277374287356,
        "alt_km": 650.1169811283371,
        "timestamp": "2026-01-04T13:36:09.556074+00:00",
        "meta_object_name": "HUANJING 1B (HJ-1B)",
        "meta_object_id": "2008-041B",
        "meta_epoch": "2026-01-04T06:14:33.872928",
        "meta_mean_motion": 14.82900304,
        "meta_eccentricity": 0.00368122,
        "meta_inclination": 97.6403,
        "meta_ra_of_asc_node": 0.258,
        "meta_arg_of_pericenter": 3.8468,
        "meta_mean_anomaly": 356.3022,
        "meta_ephemeris_type": 0,
        "meta_classification_type": "U",
        "meta_norad_cat_id": 33321,
        "meta_element_set_no": 999,
        "meta_rev_at_epoch": 93411,
        "meta_bstar": 0.00038388333,
        "meta_mean_motion_dot": 3.097e-05,
        "meta_mean_motion_ddot": 0,
        "tle_line1": "1 33321U 08041B   26004.26011427  .00003097  00000+0  38388-3 0  9991",
        "tle_line2": "2 33321  97.6403   0.2580 0036812   3.8468 356.3022 14.82900304934117"
      },
      "geometry": {
        "type": "Point",
        "coordinates": [
          178.3277374287356,
          -16.119974676508498
        ]
      }
    },
    {
      "type": "Feature",
      "properties": {
        "norad_id": 33446,
        "name": "YAOGAN-4",
        "group": "dmc",
        "lat": 79.29533900782488,
        "lon": 166.87844797041524,
        "alt_km": 620.6544865156065,
        "timestamp": "2026-01-04T13:36:09.556086+00:00",
        "meta_object_name": "YAOGAN-4",
        "meta_object_id": "2008-061A",
        "meta_epoch": "2026-01-04T06:41:11.630976",
        "meta_mean_motion": 14.82766256,
        "meta_eccentricity": 0.00130873,
        "meta_inclination": 97.9206,
        "meta_ra_of_asc_node": 299.1604,
        "meta_arg_of_pericenter": 242.1963,
        "meta_mean_anomaly": 117.7925,
        "meta_ephemeris_type": 0,
        "meta_classification_type": "U",
        "meta_norad_cat_id": 33446,
        "meta_element_set_no": 999,
        "meta_rev_at_epoch": 92137,
        "meta_bstar": 0.00028182837,
        "meta_mean_motion_dot": 2.227e-05,
        "meta_mean_motion_ddot": 0,
        "tle_line1": "1 33446U 08061A   26004.27860684  .00002227  00000+0  28183-3 0  9995",
        "tle_line2": "2 33446  97.9206 299.1604 0013087 242.1963 117.7925 14.82766256921373"
      },
      "geometry": {
        "type": "Point",
        "coordinates": [
          166.87844797041524,
          79.29533900782488
        ]
      }
    },
    {
      "type": "Feature",
      "properties": {
        "norad_id": 35681,
        "name": "DEIMOS-1",
        "group": "dmc",
        "lat": -48.55361326701079,
        "lon": 177.94094649055745,
        "alt_km": 652.0944706854871,
        "timestamp": "2026-01-04T13:36:09.556097+00:00",
        "meta_object_name": "DEIMOS-1",
        "meta_object_id": "2009-041A",
        "meta_epoch": "2026-01-04T07:18:45.413856",
        "meta_mean_motion": 14.74996704,
        "meta_eccentricity": 0.00020393,
        "meta_inclination": 97.7153,
        "meta_ra_of_asc_node": 168.8601,
        "meta_arg_of_pericenter": 44.3441,
        "meta_mean_anomaly": 315.7932,
        "meta_ephemeris_type": 0,
        "meta_classification_type": "U",
        "meta_norad_cat_id": 35681,
        "meta_element_set_no": 999,
        "meta_rev_at_epoch": 88272,
        "meta_bstar": 0.00020047648,
        "meta_mean_motion_dot": 1.301e-05,
        "meta_mean_motion_ddot": 0,
        "tle_line1": "1 35681U 09041A   26004.30469229  .00001301  00000+0  20048-3 0  9995",
        "tle_line2": "2 35681  97.7153 168.8601 0002039  44.3441 315.7932 14.74996704882729"
      },
      "geometry": {
        "type": "Point",
        "coordinates": [
          177.94094649055745,
          -48.55361326701079
        ]
      }
    },
    {
      "type": "Feature",
      "properties": {
        "norad_id": 35683,
        "name": "UK-DMC 2",
        "group": "dmc",
        "lat": 21.509596410704102,
        "lon": 140.7084739607351,
        "alt_km": 642.3369728339767,
        "timestamp": "2026-01-04T13:36:09.556108+00:00",
        "meta_object_name": "UK-DMC 2",
        "meta_object_id": "2009-041C",
        "meta_epoch": "2026-01-04T06:59:42.416160",
        "meta_mean_motion": 14.75684926,
        "meta_eccentricity": 0.00016046,
        "meta_inclination": 97.8572,
        "meta_ra_of_asc_node": 143.5607,
        "meta_arg_of_pericenter": 86.9359,
        "meta_mean_anomaly": 273.2035,
        "meta_ephemeris_type": 0,
        "meta_classification_type": "U",
        "meta_norad_cat_id": 35683,
        "meta_element_set_no": 999,
        "meta_rev_at_epoch": 88239,
        "meta_bstar": 0.00031682863,
        "meta_mean_motion_dot": 2.116e-05,
        "meta_mean_motion_ddot": 0,
        "tle_line1": "1 35683U 09041C   26004.29146315  .00002116  00000+0  31683-3 0  9995",
        "tle_line2": "2 35683  97.8572 143.5607 0001604  86.9359 273.2035 14.75684926882396"
      },
      "geometry": {
        "type": "Point",
        "coordinates": [
          140.7084739607351,
          21.509596410704102
        ]
      }
    },
    {
      "type": "Feature",
      "properties": {
        "norad_id": 40715,
        "name": "DMC3-FM1",
        "group": "dmc",
        "lat": 23.98851048284871,
        "lon": 59.36358216411414,
        "alt_km": 610.3444941719126,
        "timestamp": "2026-01-04T13:36:09.556119+00:00",
        "meta_object_name": "DMC3-FM1",
        "meta_object_id": "2015-032A",
        "meta_epoch": "2026-01-04T06:26:14.225280",
        "meta_mean_motion": 14.85490978,
        "meta_eccentricity": 0.00042516,
        "meta_inclination": 97.6683,
        "meta_ra_of_asc_node": 235.6388,
        "meta_arg_of_pericenter": 223.463,
        "meta_mean_anomaly": 136.6251,
        "meta_ephemeris_type": 0,
        "meta_classification_type": "U",
        "meta_norad_cat_id": 40715,
        "meta_element_set_no": 999,
        "meta_rev_at_epoch": 56557,
        "meta_bstar": 0.00022676819,
        "meta_mean_motion_dot": 1.906e-05,
        "meta_mean_motion_ddot": 0,
        "tle_line1": "1 40715U 15032A   26004.26822020  .00001906  00000+0  22677-3 0  9994",
        "tle_line2": "2 40715  97.6683 235.6388 0004251 223.4630 136.6251 14.85490978565572"
      },
      "geometry": {
        "type": "Point",
        "coordinates": [
          59.36358216411414,
          23.98851048284871
        ]
      }
    },
    {
      "type": "Feature",
      "properties": {
        "norad_id": 40716,
        "name": "DMC3-FM2",
        "group": "dmc",
        "lat": 35.20058403803389,
        "lon": -128.07140682557161,
        "alt_km": 612.853199363045,
        "timestamp": "2026-01-04T13:36:09.556129+00:00",
        "meta_object_name": "DMC3-FM2",
        "meta_object_id": "2015-032B",
        "meta_epoch": "2026-01-04T06:58:35.224608",
        "meta_mean_motion": 14.85490822,
        "meta_eccentricity": 0.00046594,
        "meta_inclination": 97.6741,
        "meta_ra_of_asc_node": 237.1206,
        "meta_arg_of_pericenter": 232.5718,
        "meta_mean_anomaly": 127.5074,
        "meta_ephemeris_type": 0,
        "meta_classification_type": "U",
        "meta_norad_cat_id": 40716,
        "meta_element_set_no": 999,
        "meta_rev_at_epoch": 56557,
        "meta_bstar": 0.0001237165,
        "meta_mean_motion_dot": 1.016e-05,
        "meta_mean_motion_ddot": 0,
        "tle_line1": "1 40716U 15032B   26004.29068547  .00001016  00000+0  12372-3 0  9997",
        "tle_line2": "2 40716  97.6741 237.1206 0004659 232.5718 127.5074 14.85490822565574"
      },
      "geometry": {
        "type": "Point",
        "coordinates": [
          -128.07140682557161,
          35.20058403803389
        ]
      }
    },
    {
      "type": "Feature",
      "properties": {
        "norad_id": 40717,
        "name": "DMC3-FM3",
        "group": "dmc",
        "lat": -78.30514268675236,
        "lon": -80.28423924958611,
        "alt_km": 617.526871427578,
        "timestamp": "2026-01-04T13:36:09.556139+00:00",
        "meta_object_name": "DMC3-FM3",
        "meta_object_id": "2015-032C",
        "meta_epoch": "2026-01-04T05:53:03.543360",
        "meta_mean_motion": 14.85468606,
        "meta_eccentricity": 0.0004112,
        "meta_inclination": 97.6794,
        "meta_ra_of_asc_node": 238.7244,
        "meta_arg_of_pericenter": 232.2356,
        "meta_mean_anomaly": 127.8487,
        "meta_ephemeris_type": 0,
        "meta_classification_type": "U",
        "meta_norad_cat_id": 40717,
        "meta_element_set_no": 999,
        "meta_rev_at_epoch": 56557,
        "meta_bstar": 8.1747033e-05,
        "meta_mean_motion_dot": 6.54e-06,
        "meta_mean_motion_ddot": 0,
        "tle_line1": "1 40717U 15032C   26004.24517990  .00000654  00000+0  81747-4 0  9994",
        "tle_line2": "2 40717  97.6794 238.7244 0004112 232.2356 127.8487 14.85468606565577"
      },
      "geometry": {
        "type": "Point",
        "coordinates": [
          -80.28423924958611,
          -78.30514268675236
        ]
      }
    }
  ]
}