{
  "type": "FeatureCollection",
  "features": [
    {
      "type": "Feature",
      "properties": {
        "norad_id": 28187,
        "name": "EUTELSAT 7A",
        "group": "eutelsat",
        "lat": -0.40135645973955125,
        "lon": 69.66493051450426,
        "alt_km": 35789.45829102332,
        "timestamp": "2025-12-28T07:27:18.156916+00:00",
        "meta_object_name": "EUTELSAT 7A",
        "meta_object_id": "2004-008A",
        "meta_epoch": "2025-12-27T09:22:18.508800",
        "meta_mean_motion": 1.00272347,
        "meta_eccentricity": 0.00011933,
        "meta_inclination": 5.393,
        "meta_ra_of_asc_node": 74.0826,
        "meta_arg_of_pericenter": 220.6753,
        "meta_mean_anomaly": 162.7253,
        "meta_ephemeris_type": 0,
        "meta_classification_type": "U",
        "meta_norad_cat_id": 28187,
        "meta_element_set_no": 999,
        "meta_rev_at_epoch": 7963,
        "meta_bstar": 0,
        "meta_mean_motion_dot": 1.22e-06,
        "meta_mean_motion_ddot": 0,
        "tle_line1": "1 28187U 04008A   25361.39049200  .00000122  00000+0  00000+0 0  9995",
        "tle_line2": "2 28187   5.3930  74.0826 0001193 220.6753 162.7253  1.00272347 79631"
      },
      "geometry": {
        "type": "Point",
        "coordinates": [
          69.66493051450426,
          -0.40135645973955125
        ]
      }
    },
    {
      "type": "Feature",
      "properties": {
        "norad_id": 28924,
        "name": "EUTELSAT 174A",
        "group": "eutelsat",
        "lat": -3.1256100078135103,
        "lon": 22.94920439601114,
        "alt_km": 35793.28034128281,
        "timestamp": "2025-12-28T07:27:18.156939+00:00",
        "meta_object_name": "EUTELSAT 174A",
        "meta_object_id": "2005-052A",
        "meta_epoch": "2025-12-27T20:40:37.282368",
        "meta_mean_motion": 1.00270483,
        "meta_eccentricity": 0.0006146,
        "meta_inclination": 3.7837,
        "meta_ra_of_asc_node": 78.6743,
        "meta_arg_of_pericenter": 199.874,
        "meta_mean_anomaly": 302.1673,
        "meta_ephemeris_type": 0,
        "meta_classification_type": "U",
        "meta_norad_cat_id": 28924,
        "meta_element_set_no": 999,
        "meta_rev_at_epoch": 5061,
        "meta_bstar": 0,
        "meta_mean_motion_dot": 2.9e-07,
        "meta_mean_motion_ddot": 0,
        "tle_line1": "1 28924U 05052A   25361.86154262  .00000029  00000+0  00000+0 0  9997",
        "tle_line2": "2 28924   3.7837  78.6743 0006146 199.8740 302.1673  1.00270483 50614"
      },
      "geometry": {
        "type": "Point",
        "coordinates": [
          22.94920439601114,
          -3.1256100078135103
        ]
      }
    },
    {
      "type": "Feature",
      "properties": {
        "norad_id": 29270,
        "name": "EUTELSAT HOTBIRD 13B",
        "group": "eutelsat",
        "lat": 0.44727906781341814,
        "lon": -118.08424608400848,
        "alt_km": 35774.77451972728,
        "timestamp": "2025-12-28T07:27:18.156951+00:00",
        "meta_object_name": "EUTELSAT HOTBIRD 13B",
        "meta_object_id": "2006-032A",
        "meta_epoch": "2025-12-27T21:43:08.792832",
        "meta_mean_motion": 1.00269601,
        "meta_eccentricity": 0.00033826,
        "meta_inclination": 1.218,
        "meta_ra_of_asc_node": 84.2407,
        "meta_arg_of_pericenter": 192.1249,
        "meta_mean_anomaly": 179.1373,
        "meta_ephemeris_type": 0,
        "meta_classification_type": "U",
        "meta_norad_cat_id": 29270,
        "meta_element_set_no": 999,
        "meta_rev_at_epoch": 4559,
        "meta_bstar": 0,
        "meta_mean_motion_dot": 1.78e-06,
        "meta_mean_motion_ddot": 0,
        "tle_line1": "1 29270U 06032A   25361.90496288  .00000178  00000+0  00000+0 0  9998",
        "tle_line2": "2 29270   1.2180  84.2407 0003382 192.1249 179.1373  1.00269601 45592"
      },
      "geometry": {
        "type": "Point",
        "coordinates": [
          -118.08424608400848,
          0.44727906781341814
        ]
      }
    },
    {
      "type": "Feature",
      "properties": {
        "norad_id": 33459,
        "name": "EUTELSAT HOTBIRD 13C",
        "group": "eutelsat",
        "lat": 2.457903063586519,
        "lon": 158.50939221516515,
        "alt_km": 35792.66330647743,
        "timestamp": "2025-12-28T07:27:18.156963+00:00",
        "meta_object_name": "EUTELSAT HOTBIRD 13C",
        "meta_object_id": "2008-065A",
        "meta_epoch": "2025-12-27T21:19:11.088192",
        "meta_mean_motion": 1.0027182,
        "meta_eccentricity": 0.00035456,
        "meta_inclination": 2.5087,
        "meta_ra_of_asc_node": 81.2519,
        "meta_arg_of_pericenter": 194.5068,
        "meta_mean_anomaly": 90.3577,
        "meta_ephemeris_type": 0,
        "meta_classification_type": "U",
        "meta_norad_cat_id": 33459,
        "meta_element_set_no": 999,
        "meta_rev_at_epoch": 4562,
        "meta_bstar": 0,
        "meta_mean_motion_dot": -2.61e-06,
        "meta_mean_motion_ddot": 0,
        "tle_line1": "1 33459U 08065A   25361.88832278 -.00000261  00000+0  00000+0 0  9994",
        "tle_line2": "2 33459   2.5087  81.2519 0003545 194.5068  90.3577  1.00271820 45623"
      },
      "geometry": {
        "type": "Point",
        "coordinates": [
          158.50939221516515,
          2.457903063586519
        ]
      }
    },
    {
      "type": "Feature",
      "properties": {
        "norad_id": 36101,
        "name": "EUTELSAT 36B",
        "group": "eutelsat",
        "lat": -0.04780803811970945,
        "lon": -100.6891741869581,
        "alt_km": 35761.80420112409,
        "timestamp": "2025-12-28T07:27:18.156974+00:00",
        "meta_object_name": "EUTELSAT 36B",
        "meta_object_id": "2009-065A",
        "meta_epoch": "2025-12-27T22:15:38.654208",
        "meta_mean_motion": 1.00272553,
        "meta_eccentricity": 0.00059419,
        "meta_inclination": 0.0637,
        "meta_ra_of_asc_node": 50.0885,
        "meta_arg_of_pericenter": 226.4208,
        "meta_mean_anomaly": 204.5354,
        "meta_ephemeris_type": 0,
        "meta_classification_type": "U",
        "meta_norad_cat_id": 36101,
        "meta_element_set_no": 999,
        "meta_rev_at_epoch": 5899,
        "meta_bstar": 0,
        "meta_mean_motion_dot": 1.35e-06,
        "meta_mean_motion_ddot": 0,
        "tle_line1": "1 36101U 09065A   25361.92753072  .00000135  00000+0  00000+0 0  9990",
        "tle_line2": "2 36101   0.0637  50.0885 0005941 226.4208 204.5354  1.00272553 58997"
      },
      "geometry": {
        "type": "Point",
        "coordinates": [
          -100.6891741869581,
          -0.04780803811970945
        ]
      }
    },
    {
      "type": "Feature",
      "properties": {
        "norad_id": 37258,
        "name": "EUTELSAT KA-SAT 9A",
        "group": "eutelsat",
        "lat": -0.056074027195064526,
        "lon": -142.14098707853,
        "alt_km": 35778.96731451932,
        "timestamp": "2025-12-28T07:27:18.156986+00:00",
        "meta_object_name": "EUTELSAT KA-SAT 9A",
        "meta_object_id": "2010-069A",
        "meta_epoch": "2025-12-27T06:13:38.544960",
        "meta_mean_motion": 1.00276483,
        "meta_eccentricity": 0.00014769,
        "meta_inclination": 0.0515,
        "meta_ra_of_asc_node": 335.313,
        "meta_arg_of_pericenter": 219.6939,
        "meta_mean_anomaly": 3.3831,
        "meta_ephemeris_type": 0,
        "meta_classification_type": "U",
        "meta_norad_cat_id": 37258,
        "meta_element_set_no": 999,
        "meta_rev_at_epoch": 4228,
        "meta_bstar": 0,
        "meta_mean_motion_dot": 8.5e-07,
        "meta_mean_motion_ddot": 0,
        "tle_line1": "1 37258U 10069A   25361.25947390  .00000085  00000+0  00000+0 0  9998",
        "tle_line2": "2 37258   0.0515 335.3130 0001476 219.6939   3.3831  1.00276483 42288"
      },
      "geometry": {
        "type": "Point",
        "coordinates": [
          -142.14098707853,
          -0.056074027195064526
        ]
      }
    },
    {
      "type": "Feature",
      "properties": {
        "norad_id": 37816,
        "name": "EUTELSAT 7 WEST A",
        "group": "eutelsat",
        "lat": -0.03223695975229305,
        "lon": -158.4946893599181,
        "alt_km": 35767.689836233374,
        "timestamp": "2025-12-28T07:27:18.156997+00:00",
        "meta_object_name": "EUTELSAT 7 WEST A",
        "meta_object_id": "2011-051A",
        "meta_epoch": "2025-12-27T16:23:30.506208",
        "meta_mean_motion": 1.00270988,
        "meta_eccentricity": 0.00052029,
        "meta_inclination": 0.0616,
        "meta_ra_of_asc_node": 356.5161,
        "meta_arg_of_pericenter": 236.7775,
        "meta_mean_anomaly": 101.6851,
        "meta_ephemeris_type": 0,
        "meta_classification_type": "U",
        "meta_norad_cat_id": 37816,
        "meta_element_set_no": 999,
        "meta_rev_at_epoch": 5215,
        "meta_bstar": 0,
        "meta_mean_motion_dot": -3.8e-07,
        "meta_mean_motion_ddot": 0,
        "tle_line1": "1 37816U 11051A   25361.68299197 -.00000038  00000+0  00000+0 0  9991",
        "tle_line2": "2 37816   0.0616 356.5161 0005202 236.7775 101.6851  1.00270988 52153"
      },
      "geometry": {
        "type": "Point",
        "coordinates": [
          -158.4946893599181,
          -0.03223695975229305
        ]
      }
    },
    {
      "type": "Feature",
      "properties": {
        "norad_id": 37836,
        "name": "EUTELSAT 16A",
        "group": "eutelsat",
        "lat": -0.054739610052359944,
        "lon": -135.2205482960466,
        "alt_km": 35771.29924981367,
        "timestamp": "2025-12-28T07:27:18.157008+00:00",
        "meta_object_name": "EUTELSAT 16A",
        "meta_object_id": "2011-057A",
        "meta_epoch": "2025-12-27T14:47:25.042848",
        "meta_mean_motion": 1.00272158,
        "meta_eccentricity": 0.00058184,
        "meta_inclination": 0.0552,
        "meta_ra_of_asc_node": 355.4971,
        "meta_arg_of_pericenter": 282.9416,
        "meta_mean_anomaly": 55.7448,
        "meta_ephemeris_type": 0,
        "meta_classification_type": "U",
        "meta_norad_cat_id": 37836,
        "meta_element_set_no": 999,
        "meta_rev_at_epoch": 560,
        "meta_bstar": 0,
        "meta_mean_motion_dot": 1.26e-06,
        "meta_mean_motion_ddot": 0,
        "tle_line1": "1 37836U 11057A   25361.61626207  .00000126  00000+0  00000+0 0  9995",
        "tle_line2": "2 37836   0.0552 355.4971 0005818 282.9416  55.7448  1.00272158  5609"
      },
      "geometry": {
        "type": "Point",
        "coordinates": [
          -135.2205482960466,
          -0.054739610052359944
        ]
      }
    },
    {
      "type": "Feature",
      "properties": {
        "norad_id": 38992,
        "name": "EUTELSAT 21B",
        "group": "eutelsat",
        "lat": -0.06663478660587877,
        "lon": -129.60215385422853,
        "alt_km": 35777.611482646294,
        "timestamp": "2025-12-28T07:27:18.157018+00:00",
        "meta_object_name": "EUTELSAT 21B",
        "meta_object_id": "2012-062B",
        "meta_epoch": "2025-12-27T22:39:38.782368",
        "meta_mean_motion": 1.00272395,
        "meta_eccentricity": 0.00032312,
        "meta_inclination": 0.0646,
        "meta_ra_of_asc_node": 356.1478,
        "meta_arg_of_pericenter": 287.1416,
        "meta_mean_anomaly": 174.8692,
        "meta_ephemeris_type": 0,
        "meta_classification_type": "U",
        "meta_norad_cat_id": 38992,
        "meta_element_set_no": 999,
        "meta_rev_at_epoch": 4811,
        "meta_bstar": 0,
        "meta_mean_motion_dot": 1.52e-06,
        "meta_mean_motion_ddot": 0,
        "tle_line1": "1 38992U 12062B   25361.94419887  .00000152  00000+0  00000+0 0  9995",
        "tle_line2": "2 38992   0.0646 356.1478 0003231 287.1416 174.8692  1.00272395 48111"
      },
      "geometry": {
        "type": "Point",
        "coordinates": [
          -129.60215385422853,
          -0.06663478660587877
        ]
      }
    },
    {
      "type": "Feature",
      "properties": {
        "norad_id": 39020,
        "name": "EUTELSAT 70B",
        "group": "eutelsat",
        "lat": -0.07745058862506103,
        "lon": -80.64638828777235,
        "alt_km": 35769.96882722474,
        "timestamp": "2025-12-28T07:27:18.157029+00:00",
        "meta_object_name": "EUTELSAT 70B",
        "meta_object_id": "2012-069A",
        "meta_epoch": "2025-12-27T21:04:38.595072",
        "meta_mean_motion": 1.00271138,
        "meta_eccentricity": 0.00041414,
        "meta_inclination": 0.0607,
        "meta_ra_of_asc_node": 354.0032,
        "meta_arg_of_pericenter": 263.6668,
        "meta_mean_anomaly": 225.5833,
        "meta_ephemeris_type": 0,
        "meta_classification_type": "U",
        "meta_norad_cat_id": 39020,
        "meta_element_set_no": 999,
        "meta_rev_at_epoch": 4779,
        "meta_bstar": 0,
        "meta_mean_motion_dot": -2.1e-07,
        "meta_mean_motion_ddot": 0,
        "tle_line1": "1 39020U 12069A   25361.87822448 -.00000021  00000+0  00000+0 0  9994",
        "tle_line2": "2 39020   0.0607 354.0032 0004141 263.6668 225.5833  1.00271138 47791"
      },
      "geometry": {
        "type": "Point",
        "coordinates": [
          -80.64638828777235,
          -0.07745058862506103
        ]
      }
    },
    {
      "type": "Feature",
      "properties": {
        "norad_id": 39122,
        "name": "EUTELSAT 117 WEST A",
        "group": "eutelsat",
        "lat": 0.02959993126530204,
        "lon": 92.04787086288884,
        "alt_km": 35798.5170056919,
        "timestamp": "2025-12-28T07:27:18.157039+00:00",
        "meta_object_name": "EUTELSAT 117 WEST A",
        "meta_object_id": "2013-012A",
        "meta_epoch": "2025-12-27T15:52:11.006400",
        "meta_mean_motion": 1.00270824,
        "meta_eccentricity": 0.0002912,
        "meta_inclination": 0.0134,
        "meta_ra_of_asc_node": 339.1812,
        "meta_arg_of_pericenter": 301.2911,
        "meta_mean_anomaly": 297.16,
        "meta_ephemeris_type": 0,
        "meta_classification_type": "U",
        "meta_norad_cat_id": 39122,
        "meta_element_set_no": 999,
        "meta_rev_at_epoch": 4671,
        "meta_bstar": 0,
        "meta_mean_motion_dot": 1e-07,
        "meta_mean_motion_ddot": 0,
        "tle_line1": "1 39122U 13012A   25361.66123850  .00000010  00000+0  00000+0 0  9991",
        "tle_line2": "2 39122   0.0134 339.1812 0002912 301.2911 297.1600  1.00270824 46712"
      },
      "geometry": {
        "type": "Point",
        "coordinates": [
          92.04787086288884,
          0.02959993126530204
        ]
      }
    },
    {
      "type": "Feature",
      "properties": {
        "norad_id": 39163,
        "name": "EUTELSAT 7B",
        "group": "eutelsat",
        "lat": -0.034449965957092495,
        "lon": -144.21001891716543,
        "alt_km": 35791.600115568806,
        "timestamp": "2025-12-28T07:27:18.157050+00:00",
        "meta_object_name": "EUTELSAT 7B",
        "meta_object_id": "2013-022A",
        "meta_epoch": "2025-12-27T14:44:47.793984",
        "meta_mean_motion": 1.00272003,
        "meta_eccentricity": 0.00048041,
        "meta_inclination": 0.0675,
        "meta_ra_of_asc_node": 14.3171,
        "meta_arg_of_pericenter": 307.8429,
        "meta_mean_anomaly": 2.3763,
        "meta_ephemeris_type": 0,
        "meta_classification_type": "U",
        "meta_norad_cat_id": 39163,
        "meta_element_set_no": 999,
        "meta_rev_at_epoch": 4622,
        "meta_bstar": 0,
        "meta_mean_motion_dot": 7e-07,
        "meta_mean_motion_ddot": 0,
        "tle_line1": "1 39163U 13022A   25361.61444206  .00000070  00000+0  00000+0 0  9999",
        "tle_line2": "2 39163   0.0675  14.3171 0004804 307.8429   2.3763  1.00272003 46228"
      },
      "geometry": {
        "type": "Point",
        "coordinates": [
          -144.21001891716543,
          -0.034449965957092495
        ]
      }
    },
    {
      "type": "Feature",
      "properties": {
        "norad_id": 39612,
        "name": "EXPRESS-AT1",
        "group": "eutelsat",
        "lat": -0.014352195343842194,
        "lon": -95.13981007048781,
        "alt_km": 35788.53440110311,
        "timestamp": "2025-12-28T07:27:18.157061+00:00",
        "meta_object_name": "EXPRESS-AT1",
        "meta_object_id": "2014-010A",
        "meta_epoch": "2025-12-27T21:49:38.170848",
        "meta_mean_motion": 1.0027225,
        "meta_eccentricity": 0.00011529,
        "meta_inclination": 0.0188,
        "meta_ra_of_asc_node": 272.1596,
        "meta_arg_of_pericenter": 230.3068,
        "meta_mean_anomaly": 337.577,
        "meta_ephemeris_type": 0,
        "meta_classification_type": "U",
        "meta_norad_cat_id": 39612,
        "meta_element_set_no": 999,
        "meta_rev_at_epoch": 4310,
        "meta_bstar": 0,
        "meta_mean_motion_dot": 1.01e-06,
        "meta_mean_motion_ddot": 0,
        "tle_line1": "1 39612U 14010A   25361.90946957  .00000101  00000+0  00000+0 0  9993",
        "tle_line2": "2 39612   0.0188 272.1596 0001152 230.3068 337.5770  1.00272250 43102"
      },
      "geometry": {
        "type": "Point",
        "coordinates": [
          -95.13981007048781,
          -0.014352195343842194
        ]
      }
    },
    {
      "type": "Feature",
      "properties": {
        "norad_id": 39613,
        "name": "EXPRESS-AT2",
        "group": "eutelsat",
        "lat": -0.0036064251437350017,
        "lon": -11.276411605487313,
        "alt_km": 35783.79333551295,
        "timestamp": "2025-12-28T07:27:18.157072+00:00",
        "meta_object_name": "EXPRESS-AT2",
        "meta_object_id": "2014-010B",
        "meta_epoch": "2025-12-27T22:13:35.877216",
        "meta_mean_motion": 1.00270262,
        "meta_eccentricity": 0.0001849,
        "meta_inclination": 0.0165,
        "meta_ra_of_asc_node": 349.4715,
        "meta_arg_of_pericenter": 289.9369,
        "meta_mean_anomaly": 290.4995,
        "meta_ephemeris_type": 0,
        "meta_classification_type": "U",
        "meta_norad_cat_id": 39613,
        "meta_element_set_no": 999,
        "meta_rev_at_epoch": 4278,
        "meta_bstar": 0,
        "meta_mean_motion_dot": -2.59e-06,
        "meta_mean_motion_ddot": 0,
        "tle_line1": "1 39613U 14010B   25361.92610969 -.00000259  00000+0  00000+0 0  9992",
        "tle_line2": "2 39613   0.0165 349.4715 0001849 289.9369 290.4995  1.00270262 42786"
      },
      "geometry": {
        "type": "Point",
        "coordinates": [
          -11.276411605487313,
          -0.0036064251437350017
        ]
      }
    },
    {
      "type": "Feature",
      "properties": {
        "norad_id": 39773,
        "name": "EUTELSAT 3B",
        "group": "eutelsat",
        "lat": -0.04435971344969688,
        "lon": -148.08690125834875,
        "alt_km": 35770.07748412388,
        "timestamp": "2025-12-28T07:27:18.157082+00:00",
        "meta_object_name": "EUTELSAT 3B",
        "meta_object_id": "2014-030A",
        "meta_epoch": "2025-12-27T21:34:32.118240",
        "meta_mean_motion": 1.00270483,
        "meta_eccentricity": 0.00042973,
        "meta_inclination": 0.0596,
        "meta_ra_of_asc_node": 356.0205,
        "meta_arg_of_pericenter": 241.3301,
        "meta_mean_anomaly": 185.9954,
        "meta_ephemeris_type": 0,
        "meta_classification_type": "U",
        "meta_norad_cat_id": 39773,
        "meta_element_set_no": 999,
        "meta_rev_at_epoch": 4235,
        "meta_bstar": 0,
        "meta_mean_motion_dot": 4.2e-07,
        "meta_mean_motion_ddot": 0,
        "tle_line1": "1 39773U 14030A   25361.89898285  .00000042  00000+0  00000+0 0  9995",
        "tle_line2": "2 39773   0.0596 356.0205 0004297 241.3301 185.9954  1.00270483 42358"
      },
      "geometry": {
        "type": "Point",
        "coordinates": [
          -148.08690125834875,
          -0.04435971344969688
        ]
      }
    },
    {
      "type": "Feature",
      "properties": {
        "norad_id": 40425,
        "name": "EUTELSAT 115 WEST B",
        "group": "eutelsat",
        "lat": -0.005230535464807369,
        "lon": 93.95562943761409,
        "alt_km": 35785.2763922834,
        "timestamp": "2025-12-28T07:27:18.157093+00:00",
        "meta_object_name": "EUTELSAT 115 WEST B",
        "meta_object_id": "2015-010B",
        "meta_epoch": "2025-12-26T05:44:38.581152",
        "meta_mean_motion": 1.00273604,
        "meta_eccentricity": 7.8e-06,
        "meta_inclination": 0.0077,
        "meta_ra_of_asc_node": 147.8651,
        "meta_arg_of_pericenter": 258.8043,
        "meta_mean_anomaly": 19.571,
        "meta_ephemeris_type": 0,
        "meta_classification_type": "U",
        "meta_norad_cat_id": 40425,
        "meta_element_set_no": 999,
        "meta_rev_at_epoch": 3965,
        "meta_bstar": 0,
        "meta_mean_motion_dot": -3e-08,
        "meta_mean_motion_ddot": 0,
        "tle_line1": "1 40425U 15010B   25360.23933543 -.00000003  00000+0  00000+0 0  9992",
        "tle_line2": "2 40425   0.0077 147.8651 0000078 258.8043  19.5710  1.00273604 39657"
      },
      "geometry": {
        "type": "Point",
        "coordinates": [
          93.95562943761409,
          -0.005230535464807369
        ]
      }
    },
    {
      "type": "Feature",
      "properties": {
        "norad_id": 40875,
        "name": "EUTELSAT 8 WEST B",
        "group": "eutelsat",
        "lat": -0.01150919691314664,
        "lon": -159.2037045549842,
        "alt_km": 35781.90749802958,
        "timestamp": "2025-12-28T07:27:18.157104+00:00",
        "meta_object_name": "EUTELSAT 8 WEST B",
        "meta_object_id": "2015-039B",
        "meta_epoch": "2025-12-27T21:31:24.917088",
        "meta_mean_motion": 1.00271469,
        "meta_eccentricity": 0.00041919,
        "meta_inclination": 0.066,
        "meta_ra_of_asc_node": 15.063,
        "meta_arg_of_pericenter": 261.8766,
        "meta_mean_anomaly": 134.5313,
        "meta_ephemeris_type": 0,
        "meta_classification_type": "U",
        "meta_norad_cat_id": 40875,
        "meta_element_set_no": 999,
        "meta_rev_at_epoch": 3793,
        "meta_bstar": 0,
        "meta_mean_motion_dot": -4.3e-07,
        "meta_mean_motion_ddot": 0,
        "tle_line1": "1 40875U 15039B   25361.89681617 -.00000043  00000+0  00000+0 0  9991",
        "tle_line2": "2 40875   0.0660  15.0630 0004191 261.8766 134.5313  1.00271469 37936"
      },
      "geometry": {
        "type": "Point",
        "coordinates": [
          -159.2037045549842,
          -0.01150919691314664
        ]
      }
    },
    {
      "type": "Feature",
      "properties": {
        "norad_id": 41310,
        "name": "EUTELSAT 9B",
        "group": "eutelsat",
        "lat": 0.00045858937264846983,
        "lon": -142.21634013152257,
        "alt_km": 35775.86928935928,
        "timestamp": "2025-12-28T07:27:18.157114+00:00",
        "meta_object_name": "EUTELSAT 9B",
        "meta_object_id": "2016-005A",
        "meta_epoch": "2025-12-27T14:45:25.233696",
        "meta_mean_motion": 1.00270162,
        "meta_eccentricity": 0.00047843,
        "meta_inclination": 0.0306,
        "meta_ra_of_asc_node": 52.4024,
        "meta_arg_of_pericenter": 223.815,
        "meta_mean_anomaly": 50.4676,
        "meta_ephemeris_type": 0,
        "meta_classification_type": "U",
        "meta_norad_cat_id": 41310,
        "meta_element_set_no": 999,
        "meta_rev_at_epoch": 3639,
        "meta_bstar": 0,
        "meta_mean_motion_dot": 8.4e-07,
        "meta_mean_motion_ddot": 0,
        "tle_line1": "1 41310U 16005A   25361.61487539  .00000084  00000+0  00000+0 0  9991",
        "tle_line2": "2 41310   0.0306  52.4024 0004784 223.8150  50.4676  1.00270162 36399"
      },
      "geometry": {
        "type": "Point",
        "coordinates": [
          -142.21634013152257,
          0.00045858937264846983
        ]
      }
    },
    {
      "type": "Feature",
      "properties": {
        "norad_id": 41382,
        "name": "EUTELSAT 65 WEST A",
        "group": "eutelsat",
        "lat": 0.03375192098483765,
        "lon": 143.64115654343576,
        "alt_km": 35794.06361230827,
        "timestamp": "2025-12-28T07:27:18.157125+00:00",
        "meta_object_name": "EUTELSAT 65 WEST A",
        "meta_object_id": "2016-014A",
        "meta_epoch": "2025-12-27T21:15:03.983328",
        "meta_mean_motion": 1.00270427,
        "meta_eccentricity": 0.00024618,
        "meta_inclination": 0.0469,
        "meta_ra_of_asc_node": 351.8233,
        "meta_arg_of_pericenter": 288.3842,
        "meta_mean_anomaly": 69.9844,
        "meta_ephemeris_type": 0,
        "meta_classification_type": "U",
        "meta_norad_cat_id": 41382,
        "meta_element_set_no": 999,
        "meta_rev_at_epoch": 3581,
        "meta_bstar": 0,
        "meta_mean_motion_dot": -2.54e-06,
        "meta_mean_motion_ddot": 0,
        "tle_line1": "1 41382U 16014A   25361.88546277 -.00000254  00000+0  00000+0 0  9994",
        "tle_line2": "2 41382   0.0469 351.8233 0002461 288.3842  69.9844  1.00270427 35812"
      },
      "geometry": {
        "type": "Point",
        "coordinates": [
          143.64115654343576,
          0.03375192098483765
        ]
      }
    },
    {
      "type": "Feature",
      "properties": {
        "norad_id": 41589,
        "name": "EUTELSAT 117 WEST B",
        "group": "eutelsat",
        "lat": -0.013957767771533203,
        "lon": 91.84813852804312,
        "alt_km": 35785.9092688884,
        "timestamp": "2025-12-28T07:27:18.157135+00:00",
        "meta_object_name": "EUTELSAT 117 WEST B",
        "meta_object_id": "2016-038B",
        "meta_epoch": "2025-12-27T07:38:14.830944",
        "meta_mean_motion": 1.00273464,
        "meta_eccentricity": 1.526e-05,
        "meta_inclination": 0.0038,
        "meta_ra_of_asc_node": 165.68,
        "meta_arg_of_pericenter": 47.668,
        "meta_mean_anomaly": 240.2602,
        "meta_ephemeris_type": 0,
        "meta_classification_type": "U",
        "meta_norad_cat_id": 41589,
        "meta_element_set_no": 999,
        "meta_rev_at_epoch": 3494,
        "meta_bstar": 0,
        "meta_mean_motion_dot": 1.1e-07,
        "meta_mean_motion_ddot": 0,
        "tle_line1": "1 41589U 16038B   25361.31822721  .00000011  00000+0  00000+0 0  9998",
        "tle_line2": "2 41589   0.0038 165.6800 0000152  47.6680 240.2602  1.00273464 34948"
      },
      "geometry": {
        "type": "Point",
        "coordinates": [
          91.84813852804312,
          -0.013957767771533203
        ]
      }
    },
    {
      "type": "Feature",
      "properties": {
        "norad_id": 42741,
        "name": "EUTELSAT 172B",
        "group": "eutelsat",
        "lat": -0.02026904149852542,
        "lon": 20.83948413011903,
        "alt_km": 35787.4680341073,
        "timestamp": "2025-12-28T07:27:18.157146+00:00",
        "meta_object_name": "EUTELSAT 172B",
        "meta_object_id": "2017-029B",
        "meta_epoch": "2025-12-27T20:39:59.841792",
        "meta_mean_motion": 1.0026998,
        "meta_eccentricity": 2.135e-05,
        "meta_inclination": 0.0388,
        "meta_ra_of_asc_node": 163.3416,
        "meta_arg_of_pericenter": 37.0884,
        "meta_mean_anomaly": 18.15,
        "meta_ephemeris_type": 0,
        "meta_classification_type": "U",
        "meta_norad_cat_id": 42741,
        "meta_element_set_no": 999,
        "meta_rev_at_epoch": 3201,
        "meta_bstar": 0,
        "meta_mean_motion_dot": 1.7e-07,
        "meta_mean_motion_ddot": 0,
        "tle_line1": "1 42741U 17029B   25361.86110928  .00000017  00000+0  00000+0 0  9995",
        "tle_line2": "2 42741   0.0388 163.3416 0000213  37.0884  18.1500  1.00269980 32015"
      },
      "geometry": {
        "type": "Point",
        "coordinates": [
          20.83948413011903,
          -0.02026904149852542
        ]
      }
    },
    {
      "type": "Feature",
      "properties": {
        "norad_id": 44334,
        "name": "EUTELSAT 7C",
        "group": "eutelsat",
        "lat": 0.03284763694323652,
        "lon": -144.20701102130604,
        "alt_km": 35776.60223637287,
        "timestamp": "2025-12-28T07:27:18.157156+00:00",
        "meta_object_name": "EUTELSAT 7C",
        "meta_object_id": "2019-034B",
        "meta_epoch": "2025-12-27T14:44:47.793984",
        "meta_mean_motion": 1.00271103,
        "meta_eccentricity": 0.00033065,
        "meta_inclination": 0.0729,
        "meta_ra_of_asc_node": 180.1309,
        "meta_arg_of_pericenter": 82.1621,
        "meta_mean_anomaly": 62.2233,
        "meta_ephemeris_type": 0,
        "meta_classification_type": "U",
        "meta_norad_cat_id": 44334,
        "meta_element_set_no": 999,
        "meta_rev_at_epoch": 511,
        "meta_bstar": 0,
        "meta_mean_motion_dot": 7.1e-07,
        "meta_mean_motion_ddot": 0,
        "tle_line1": "1 44334U 19034B   25361.61444206  .00000071  00000+0  00000+0 0  9995",
        "tle_line2": "2 44334   0.0729 180.1309 0003306  82.1621  62.2233  1.00271103  5112"
      },
      "geometry": {
        "type": "Point",
        "coordinates": [
          -144.20701102130604,
          0.03284763694323652
        ]
      }
    },
    {
      "type": "Feature",
      "properties": {
        "norad_id": 44624,
        "name": "EUTELSAT 5 WEST B",
        "group": "eutelsat",
        "lat": -0.041543586094662764,
        "lon": -156.19160431620176,
        "alt_km": 35781.71775140856,
        "timestamp": "2025-12-28T07:27:18.157167+00:00",
        "meta_object_name": "EUTELSAT 5 WEST B",
        "meta_object_id": "2019-067A",
        "meta_epoch": "2025-12-27T16:24:07.945920",
        "meta_mean_motion": 1.00271197,
        "meta_eccentricity": 0.00032994,
        "meta_inclination": 0.0616,
        "meta_ra_of_asc_node": 349.8253,
        "meta_arg_of_pericenter": 285.1147,
        "meta_mean_anomaly": 62.502,
        "meta_ephemeris_type": 0,
        "meta_classification_type": "U",
        "meta_norad_cat_id": 44624,
        "meta_element_set_no": 999,
        "meta_rev_at_epoch": 2271,
        "meta_bstar": 0,
        "meta_mean_motion_dot": -2e-07,
        "meta_mean_motion_ddot": 0,
        "tle_line1": "1 44624U 19067A   25361.68342530 -.00000020  00000+0  00000+0 0  9992",
        "tle_line2": "2 44624   0.0616 349.8253 0003299 285.1147  62.5020  1.00271197 22715"
      },
      "geometry": {
        "type": "Point",
        "coordinates": [
          -156.19160431620176,
          -0.041543586094662764
        ]
      }
    },
    {
      "type": "Feature",
      "properties": {
        "norad_id": 45027,
        "name": "EUTELSAT KONNECT",
        "group": "eutelsat",
        "lat": 0.04641277540101307,
        "lon": -143.96792801642982,
        "alt_km": 35783.70262223696,
        "timestamp": "2025-12-28T07:27:18.157177+00:00",
        "meta_object_name": "EUTELSAT KONNECT",
        "meta_object_id": "2020-005B",
        "meta_epoch": "2025-12-27T14:44:55.282272",
        "meta_mean_motion": 1.00270547,
        "meta_eccentricity": 0.00015703,
        "meta_inclination": 0.0671,
        "meta_ra_of_asc_node": 94.0458,
        "meta_arg_of_pericenter": 188.3678,
        "meta_mean_anomaly": 42.3633,
        "meta_ephemeris_type": 0,
        "meta_classification_type": "U",
        "meta_norad_cat_id": 45027,
        "meta_element_set_no": 999,
        "meta_rev_at_epoch": 2261,
        "meta_bstar": 0,
        "meta_mean_motion_dot": 7.2e-07,
        "meta_mean_motion_ddot": 0,
        "tle_line1": "1 45027U 20005B   25361.61452873  .00000072  00000+0  00000+0 0  9995",
        "tle_line2": "2 45027   0.0671  94.0458 0001570 188.3678  42.3633  1.00270547 22616"
      },
      "geometry": {
        "type": "Point",
        "coordinates": [
          -143.96792801642982,
          0.04641277540101307
        ]
      }
    },
    {
      "type": "Feature",
      "properties": {
        "norad_id": 49056,
        "name": "EUTELSAT QUANTUM",
        "group": "eutelsat",
        "lat": -0.02567540441223365,
        "lon": -103.47163775664382,
        "alt_km": 35772.09239124596,
        "timestamp": "2025-12-28T07:27:18.157188+00:00",
        "meta_object_name": "EUTELSAT QUANTUM",
        "meta_object_id": "2021-069B",
        "meta_epoch": "2025-12-27T22:15:38.654208",
        "meta_mean_motion": 1.00271885,
        "meta_eccentricity": 0.00036893,
        "meta_inclination": 0.0166,
        "meta_ra_of_asc_node": 38.3589,
        "meta_arg_of_pericenter": 245.1623,
        "meta_mean_anomaly": 194.741,
        "meta_ephemeris_type": 0,
        "meta_classification_type": "U",
        "meta_norad_cat_id": 49056,
        "meta_element_set_no": 999,
        "meta_rev_at_epoch": 1621,
        "meta_bstar": 0,
        "meta_mean_motion_dot": 1.48e-06,
        "meta_mean_motion_ddot": 0,
        "tle_line1": "1 49056U 21069B   25361.92753072  .00000148  00000+0  00000+0 0  9995",
        "tle_line2": "2 49056   0.0166  38.3589 0003689 245.1623 194.7410  1.00271885 16212"
      },
      "geometry": {
        "type": "Point",
        "coordinates": [
          -103.47163775664382,
          -0.02567540441223365
        ]
      }
    },
    {
      "type": "Feature",
      "properties": {
        "norad_id": 53765,
        "name": "EUTELSAT KONNECT VHTS",
        "group": "eutelsat",
        "lat": 0.04623283579977019,
        "lon": -148.4810636196879,
        "alt_km": 35777.87883218418,
        "timestamp": "2025-12-28T07:27:18.157198+00:00",
        "meta_object_name": "EUTELSAT KONNECT VHTS",
        "meta_object_id": "2022-110A",
        "meta_epoch": "2025-12-26T23:19:08.450112",
        "meta_mean_motion": 1.00268307,
        "meta_eccentricity": 0.00027888,
        "meta_inclination": 0.0593,
        "meta_ra_of_asc_node": 98.4997,
        "meta_arg_of_pericenter": 152.36,
        "meta_mean_anomaly": 197.3421,
        "meta_ephemeris_type": 0,
        "meta_classification_type": "U",
        "meta_norad_cat_id": 53765,
        "meta_element_set_no": 999,
        "meta_rev_at_epoch": 510,
        "meta_bstar": 0,
        "meta_mean_motion_dot": 3.9e-07,
        "meta_mean_motion_ddot": 0,
        "tle_line1": "1 53765U 22110A   25360.97162558  .00000039  00000+0  00000+0 0  9991",
        "tle_line2": "2 53765   0.0593  98.4997 0002788 152.3600 197.3421  1.00268307  5103"
      },
      "geometry": {
        "type": "Point",
        "coordinates": [
          -148.4810636196879,
          0.04623283579977019
        ]
      }
    },
    {
      "type": "Feature",
      "properties": {
        "norad_id": 54048,
        "name": "EUTELSAT HOTBIRD 13F",
        "group": "eutelsat",
        "lat": -0.05367834105648295,
        "lon": -138.1901642942095,
        "alt_km": 35793.19356586446,
        "timestamp": "2025-12-28T07:27:18.157209+00:00",
        "meta_object_name": "EUTELSAT HOTBIRD 13F",
        "meta_object_id": "2022-134A",
        "meta_epoch": "2025-12-26T22:46:38.586144",
        "meta_mean_motion": 1.00271009,
        "meta_eccentricity": 0.00023679,
        "meta_inclination": 0.0512,
        "meta_ra_of_asc_node": 291.2358,
        "meta_arg_of_pericenter": 65.5103,
        "meta_mean_anomaly": 93.5854,
        "meta_ephemeris_type": 0,
        "meta_classification_type": "U",
        "meta_norad_cat_id": 54048,
        "meta_element_set_no": 999,
        "meta_rev_at_epoch": 1165,
        "meta_bstar": 0,
        "meta_mean_motion_dot": 1.09e-06,
        "meta_mean_motion_ddot": 0,
        "tle_line1": "1 54048U 22134A   25360.94905771  .00000109  00000+0  00000+0 0  9999",
        "tle_line2": "2 54048   0.0512 291.2358 0002367  65.5103  93.5854  1.00271009 11656"
      },
      "geometry": {
        "type": "Point",
        "coordinates": [
          -138.1901642942095,
          -0.05367834105648295
        ]
      }
    },
    {
      "type": "Feature",
      "properties": {
        "norad_id": 54225,
        "name": "EUTELSAT HOTBIRD 13G",
        "group": "eutelsat",
        "lat": -0.01810141291788653,
        "lon": -138.2515853971935,
        "alt_km": 35780.69042446665,
        "timestamp": "2025-12-28T07:27:18.157219+00:00",
        "meta_object_name": "EUTELSAT HOTBIRD 13G",
        "meta_object_id": "2022-146A",
        "meta_epoch": "2025-12-26T22:46:38.586144",
        "meta_mean_motion": 1.00258057,
        "meta_eccentricity": 0.00022142,
        "meta_inclination": 0.0501,
        "meta_ra_of_asc_node": 221.1292,
        "meta_arg_of_pericenter": 348.4298,
        "meta_mean_anomaly": 240.7501,
        "meta_ephemeris_type": 0,
        "meta_classification_type": "U",
        "meta_norad_cat_id": 54225,
        "meta_element_set_no": 999,
        "meta_rev_at_epoch": 573,
        "meta_bstar": 0,
        "meta_mean_motion_dot": 1.07e-06,
        "meta_mean_motion_ddot": 0,
        "tle_line1": "1 54225U 22146A   25360.94905771  .00000107  00000+0  00000+0 0  9997",
        "tle_line2": "2 54225   0.0501 221.1292 0002214 348.4298 240.7501  1.00258057  5734"
      },
      "geometry": {
        "type": "Point",
        "coordinates": [
          -138.2515853971935,
          -0.01810141291788653
        ]
      }
    },
    {
      "type": "Feature",
      "properties": {
        "norad_id": 54259,
        "name": "EUTELSAT 10B",
        "group": "eutelsat",
        "lat": 0.03964469034532843,
        "lon": -141.14244411814033,
        "alt_km": 35787.86679832662,
        "timestamp": "2025-12-28T07:27:18.157229+00:00",
        "meta_object_name": "EUTELSAT 10B",
        "meta_object_id": "2022-157A",
        "meta_epoch": "2025-12-26T23:21:15.746688",
        "meta_mean_motion": 1.0026978,
        "meta_eccentricity": 3.879e-05,
        "meta_inclination": 0.0595,
        "meta_ra_of_asc_node": 95.7073,
        "meta_arg_of_pericenter": 337.8466,
        "meta_mean_anomaly": 22.488,
        "meta_ephemeris_type": 0,
        "meta_classification_type": "U",
        "meta_norad_cat_id": 54259,
        "meta_element_set_no": 999,
        "meta_rev_at_epoch": 1130,
        "meta_bstar": 0,
        "meta_mean_motion_dot": 9e-07,
        "meta_mean_motion_ddot": 0,
        "tle_line1": "1 54259U 22157A   25360.97309892  .00000090  00000+0  00000+0 0  9992",
        "tle_line2": "2 54259   0.0595  95.7073 0000387 337.8466  22.4880  1.00269780 11304"
      },
      "geometry": {
        "type": "Point",
        "coordinates": [
          -141.14244411814033,
          0.03964469034532843
        ]
      }
    },
    {
      "type": "Feature",
      "properties": {
        "norad_id": 59346,
        "name": "EUTELSAT 36D",
        "group": "eutelsat",
        "lat": -0.029149079922110438,
        "lon": -115.27276076373863,
        "alt_km": 35785.52893284512,
        "timestamp": "2025-12-28T07:27:18.157240+00:00",
        "meta_object_name": "EUTELSAT 36D",
        "meta_object_id": "2024-059A",
        "meta_epoch": "2025-12-27T22:23:38.599296",
        "meta_mean_motion": 1.00271148,
        "meta_eccentricity": 4.404e-05,
        "meta_inclination": 0.0217,
        "meta_ra_of_asc_node": 24.9888,
        "meta_arg_of_pericenter": 288.2414,
        "meta_mean_anomaly": 155.2226,
        "meta_ephemeris_type": 0,
        "meta_classification_type": "U",
        "meta_norad_cat_id": 59346,
        "meta_element_set_no": 999,
        "meta_rev_at_epoch": 643,
        "meta_bstar": 0,
        "meta_mean_motion_dot": 0,
        "meta_mean_motion_ddot": 0,
        "tle_line1": "1 59346U 24059A   25361.93308564  .00000000  00000+0  00000+0 0  9990",
        "tle_line2": "2 59346   0.0217  24.9888 0000440 288.2414 155.2226  1.00271148  6435"
      },
      "geometry": {
        "type": "Point",
        "coordinates": [
          -115.27276076373863,
          -0.029149079922110438
        ]
      }
    }
  ]
}