{
  "type": "FeatureCollection",
  "features": [
    {
      "type": "Feature",
      "properties": {
        "norad_id": 37846,
        "name": "GSAT0101 (GALILEO-PFM)",
        "group": "galileo",
        "lat": -36.908265409163995,
        "lon": -165.94807163439836,
        "alt_km": 23233.727789950473,
        "timestamp": "2026-02-20T11:39:26.826075+00:00",
        "meta_object_name": "GSAT0101 (GALILEO-PFM)",
        "meta_object_id": "2011-060A",
        "meta_epoch": "2026-02-18T22:40:30.895392",
        "meta_mean_motion": 1.70475599,
        "meta_eccentricity": 0.000395,
        "meta_inclination": 57.033,
        "meta_ra_of_asc_node": 344.9713,
        "meta_arg_of_pericenter": 353.5716,
        "meta_mean_anomaly": 6.4339,
        "meta_ephemeris_type": 0,
        "meta_classification_type": "U",
        "meta_norad_cat_id": 37846,
        "meta_element_set_no": 999,
        "meta_rev_at_epoch": 8910,
        "meta_bstar": 0,
        "meta_mean_motion_dot": -7.6e-07,
        "meta_mean_motion_ddot": 0,
        "tle_line1": "1 37846U 11060A   26049.94480203 -.00000076  00000+0  00000+0 0  9999",
        "tle_line2": "2 37846  57.0330 344.9713 0003950 353.5716   6.4339  1.70475599 89106"
      },
      "geometry": {
        "type": "Point",
        "coordinates": [
          -165.94807163439836,
          -36.908265409163995
        ]
      }
    },
    {
      "type": "Feature",
      "properties": {
        "norad_id": 37847,
        "name": "GSAT0102 (GALILEO-FM2)",
        "group": "galileo",
        "lat": -57.03290427731718,
        "lon": -102.90957009422367,
        "alt_km": 23221.51539643021,
        "timestamp": "2026-02-20T11:39:26.826098+00:00",
        "meta_object_name": "GSAT0102 (GALILEO-FM2)",
        "meta_object_id": "2011-060B",
        "meta_epoch": "2026-02-20T04:21:41.561856",
        "meta_mean_motion": 1.70475807,
        "meta_eccentricity": 0.0005472,
        "meta_inclination": 57.0332,
        "meta_ra_of_asc_node": 344.9381,
        "meta_arg_of_pericenter": 337.475,
        "meta_mean_anomaly": 107.183,
        "meta_ephemeris_type": 0,
        "meta_classification_type": "U",
        "meta_norad_cat_id": 37847,
        "meta_element_set_no": 999,
        "meta_rev_at_epoch": 8913,
        "meta_bstar": 0,
        "meta_mean_motion_dot": -7.7e-07,
        "meta_mean_motion_ddot": 0,
        "tle_line1": "1 37847U 11060B   26051.18173104 -.00000077  00000+0  00000+0 0  9999",
        "tle_line2": "2 37847  57.0332 344.9381 0005472 337.4750 107.1830  1.70475807 89130"
      },
      "geometry": {
        "type": "Point",
        "coordinates": [
          -102.90957009422367,
          -57.03290427731718
        ]
      }
    },
    {
      "type": "Feature",
      "properties": {
        "norad_id": 38857,
        "name": "GSAT0103 (GALILEO-FM3)",
        "group": "galileo",
        "lat": -17.068685169277032,
        "lon": -63.15749407201385,
        "alt_km": 23222.681260617643,
        "timestamp": "2026-02-20T11:39:26.826112+00:00",
        "meta_object_name": "GSAT0103 (GALILEO-FM3)",
        "meta_object_id": "2012-055A",
        "meta_epoch": "2026-02-19T13:43:26.985504",
        "meta_mean_motion": 1.70473303,
        "meta_eccentricity": 0.0005161,
        "meta_inclination": 55.7303,
        "meta_ra_of_asc_node": 104.7733,
        "meta_arg_of_pericenter": 283.3819,
        "meta_mean_anomaly": 76.6526,
        "meta_ephemeris_type": 0,
        "meta_classification_type": "U",
        "meta_norad_cat_id": 38857,
        "meta_element_set_no": 999,
        "meta_rev_at_epoch": 8300,
        "meta_bstar": 0,
        "meta_mean_motion_dot": 2.7e-07,
        "meta_mean_motion_ddot": 0,
        "tle_line1": "1 38857U 12055A   26050.57184011  .00000027  00000+0  00000+0 0  9991",
        "tle_line2": "2 38857  55.7303 104.7733 0005161 283.3819  76.6526  1.70473303 83009"
      },
      "geometry": {
        "type": "Point",
        "coordinates": [
          -63.15749407201385,
          -17.068685169277032
        ]
      }
    },
    {
      "type": "Feature",
      "properties": {
        "norad_id": 40128,
        "name": "GSAT0201 (GALILEO 5)",
        "group": "galileo",
        "lat": 10.55235552594203,
        "lon": -72.43791137871857,
        "alt_km": 25878.395618944418,
        "timestamp": "2026-02-20T11:39:26.826125+00:00",
        "meta_object_name": "GSAT0201 (GALILEO 5)",
        "meta_object_id": "2014-050A",
        "meta_epoch": "2026-02-17T18:17:27.110976",
        "meta_mean_motion": 1.8552003,
        "meta_eccentricity": 0.16554712,
        "meta_inclination": 49.0021,
        "meta_ra_of_asc_node": 278.3239,
        "meta_arg_of_pericenter": 174.799,
        "meta_mean_anomaly": 187.1957,
        "meta_ephemeris_type": 0,
        "meta_classification_type": "U",
        "meta_norad_cat_id": 40128,
        "meta_element_set_no": 999,
        "meta_rev_at_epoch": 7610,
        "meta_bstar": 0,
        "meta_mean_motion_dot": 1.3e-07,
        "meta_mean_motion_ddot": 0,
        "tle_line1": "1 40128U 14050A   26048.76211934  .00000013  00000+0  00000+0 0  9990",
        "tle_line2": "2 40128  49.0021 278.3239 1655471 174.7990 187.1957  1.85520030 76109"
      },
      "geometry": {
        "type": "Point",
        "coordinates": [
          -72.43791137871857,
          10.55235552594203
        ]
      }
    },
    {
      "type": "Feature",
      "properties": {
        "norad_id": 40129,
        "name": "GSAT0202 (GALILEO 6)",
        "group": "galileo",
        "lat": -30.68847976708655,
        "lon": 128.37978111414694,
        "alt_km": 18064.705549583152,
        "timestamp": "2026-02-20T11:39:26.826137+00:00",
        "meta_object_name": "GSAT0202 (GALILEO 6)",
        "meta_object_id": "2014-050B",
        "meta_epoch": "2026-02-16T22:33:50.656032",
        "meta_mean_motion": 1.85520381,
        "meta_eccentricity": 0.16566447,
        "meta_inclination": 49.0229,
        "meta_ra_of_asc_node": 277.4427,
        "meta_arg_of_pericenter": 175.4751,
        "meta_mean_anomaly": 186.2695,
        "meta_ephemeris_type": 0,
        "meta_classification_type": "U",
        "meta_norad_cat_id": 40129,
        "meta_element_set_no": 999,
        "meta_rev_at_epoch": 7825,
        "meta_bstar": 0,
        "meta_mean_motion_dot": 1.7e-07,
        "meta_mean_motion_ddot": 0,
        "tle_line1": "1 40129U 14050B   26047.94016963  .00000017  00000+0  00000+0 0  9999",
        "tle_line2": "2 40129  49.0229 277.4427 1656644 175.4751 186.2695  1.85520381 78251"
      },
      "geometry": {
        "type": "Point",
        "coordinates": [
          128.37978111414694,
          -30.68847976708655
        ]
      }
    },
    {
      "type": "Feature",
      "properties": {
        "norad_id": 40544,
        "name": "GSAT0203 (GALILEO 7)",
        "group": "galileo",
        "lat": 1.5809331606524657,
        "lon": -14.19379910811414,
        "alt_km": 23216.551295332258,
        "timestamp": "2026-02-20T11:39:26.826149+00:00",
        "meta_object_name": "GSAT0203 (GALILEO 7)",
        "meta_object_id": "2015-017A",
        "meta_epoch": "2026-02-17T13:11:35.442528",
        "meta_mean_motion": 1.70475699,
        "meta_eccentricity": 0.00034688,
        "meta_inclination": 56.8255,
        "meta_ra_of_asc_node": 344.86,
        "meta_arg_of_pericenter": 304.3294,
        "meta_mean_anomaly": 55.6447,
        "meta_ephemeris_type": 0,
        "meta_classification_type": "U",
        "meta_norad_cat_id": 40544,
        "meta_element_set_no": 999,
        "meta_rev_at_epoch": 6716,
        "meta_bstar": 0,
        "meta_mean_motion_dot": -7.8e-07,
        "meta_mean_motion_ddot": 0,
        "tle_line1": "1 40544U 15017A   26048.54971577 -.00000078  00000+0  00000+0 0  9990",
        "tle_line2": "2 40544  56.8255 344.8600 0003468 304.3294  55.6447  1.70475699 67160"
      },
      "geometry": {
        "type": "Point",
        "coordinates": [
          -14.19379910811414,
          1.5809331606524657
        ]
      }
    },
    {
      "type": "Feature",
      "properties": {
        "norad_id": 40545,
        "name": "GSAT0204 (GALILEO 8)",
        "group": "galileo",
        "lat": -20.73339421437232,
        "lon": 179.10468990449192,
        "alt_km": 23222.204260002964,
        "timestamp": "2026-02-20T11:39:26.826160+00:00",
        "meta_object_name": "GSAT0204 (GALILEO 8)",
        "meta_object_id": "2015-017B",
        "meta_epoch": "2026-02-17T19:19:31.545408",
        "meta_mean_motion": 1.7047541,
        "meta_eccentricity": 0.0004739,
        "meta_inclination": 56.833,
        "meta_ra_of_asc_node": 344.8711,
        "meta_arg_of_pericenter": 283.8397,
        "meta_mean_anomaly": 76.1153,
        "meta_ephemeris_type": 0,
        "meta_classification_type": "U",
        "meta_norad_cat_id": 40545,
        "meta_element_set_no": 999,
        "meta_rev_at_epoch": 3021,
        "meta_bstar": 0,
        "meta_mean_motion_dot": -7.8e-07,
        "meta_mean_motion_ddot": 0,
        "tle_line1": "1 40545U 15017B   26048.80522622 -.00000078  00000+0  00000+0 0  9993",
        "tle_line2": "2 40545  56.8330 344.8711 0004739 283.8397  76.1153  1.70475410 30214"
      },
      "geometry": {
        "type": "Point",
        "coordinates": [
          179.10468990449192,
          -20.73339421437232
        ]
      }
    },
    {
      "type": "Feature",
      "properties": {
        "norad_id": 40889,
        "name": "GSAT0205 (GALILEO 9)",
        "group": "galileo",
        "lat": -33.95263862463289,
        "lon": 75.14085891386468,
        "alt_km": 24618.39664646046,
        "timestamp": "2026-02-20T11:39:26.826171+00:00",
        "meta_object_name": "GSAT0205 (GALILEO 9)",
        "meta_object_id": "2015-045A",
        "meta_epoch": "2026-02-12T22:54:15.154848",
        "meta_mean_motion": 1.674108,
        "meta_eccentricity": 0.03595998,
        "meta_inclination": 53.6403,
        "meta_ra_of_asc_node": 225.6057,
        "meta_arg_of_pericenter": 59.9658,
        "meta_mean_anomaly": 303.5577,
        "meta_ephemeris_type": 0,
        "meta_classification_type": "U",
        "meta_norad_cat_id": 40889,
        "meta_element_set_no": 999,
        "meta_rev_at_epoch": 6421,
        "meta_bstar": 0,
        "meta_mean_motion_dot": 7.8e-07,
        "meta_mean_motion_ddot": 0,
        "tle_line1": "1 40889U 15045A   26043.95434207  .00000078  00000+0  00000+0 0  9996",
        "tle_line2": "2 40889  53.6403 225.6057 0359599  59.9658 303.5577  1.67410800 64211"
      },
      "geometry": {
        "type": "Point",
        "coordinates": [
          75.14085891386468,
          -33.95263862463289
        ]
      }
    },
    {
      "type": "Feature",
      "properties": {
        "norad_id": 40890,
        "name": "GSAT0206 (GALILEO 10)",
        "group": "galileo",
        "lat": -25.696590006368005,
        "lon": 64.54279415680469,
        "alt_km": 23237.067381676992,
        "timestamp": "2026-02-20T11:39:26.826183+00:00",
        "meta_object_name": "GSAT0206 (GALILEO 10)",
        "meta_object_id": "2015-045B",
        "meta_epoch": "2026-02-18T09:08:15.835776",
        "meta_mean_motion": 1.70473561,
        "meta_eccentricity": 0.0004082,
        "meta_inclination": 54.9827,
        "meta_ra_of_asc_node": 224.8817,
        "meta_arg_of_pericenter": 50.16,
        "meta_mean_anomaly": 309.8479,
        "meta_ephemeris_type": 0,
        "meta_classification_type": "U",
        "meta_norad_cat_id": 40890,
        "meta_element_set_no": 999,
        "meta_rev_at_epoch": 6501,
        "meta_bstar": 0,
        "meta_mean_motion_dot": 6.6e-07,
        "meta_mean_motion_ddot": 0,
        "tle_line1": "1 40890U 15045B   26049.38073884  .00000066  00000+0  00000+0 0  9998",
        "tle_line2": "2 40890  54.9827 224.8817 0004082  50.1600 309.8479  1.70473561 65012"
      },
      "geometry": {
        "type": "Point",
        "coordinates": [
          64.54279415680469,
          -25.696590006368005
        ]
      }
    },
    {
      "type": "Feature",
      "properties": {
        "norad_id": 41174,
        "name": "GSAT0209 (GALILEO 12)",
        "group": "galileo",
        "lat": 51.53113619541671,
        "lon": -134.4795238955903,
        "alt_km": 23226.40450322784,
        "timestamp": "2026-02-20T11:39:26.826194+00:00",
        "meta_object_name": "GSAT0209 (GALILEO 12)",
        "meta_object_id": "2015-079A",
        "meta_epoch": "2026-02-17T09:01:03.758880",
        "meta_mean_motion": 1.70474646,
        "meta_eccentricity": 0.00042481,
        "meta_inclination": 55.7495,
        "meta_ra_of_asc_node": 104.5487,
        "meta_arg_of_pericenter": 323.2951,
        "meta_mean_anomaly": 36.7672,
        "meta_ephemeris_type": 0,
        "meta_classification_type": "U",
        "meta_norad_cat_id": 41174,
        "meta_element_set_no": 999,
        "meta_rev_at_epoch": 6273,
        "meta_bstar": 0,
        "meta_mean_motion_dot": 2.2e-07,
        "meta_mean_motion_ddot": 0,
        "tle_line1": "1 41174U 15079A   26048.37573795  .00000022  00000+0  00000+0 0  9997",
        "tle_line2": "2 41174  55.7495 104.5487 0004248 323.2951  36.7672  1.70474646 62734"
      },
      "geometry": {
        "type": "Point",
        "coordinates": [
          -134.4795238955903,
          51.53113619541671
        ]
      }
    },
    {
      "type": "Feature",
      "properties": {
        "norad_id": 41175,
        "name": "GSAT0208 (GALILEO 11)",
        "group": "galileo",
        "lat": -21.634051693525823,
        "lon": 88.81305248892993,
        "alt_km": 23213.50927113953,
        "timestamp": "2026-02-20T11:39:26.826205+00:00",
        "meta_object_name": "GSAT0208 (GALILEO 11)",
        "meta_object_id": "2015-079B",
        "meta_epoch": "2026-02-19T08:32:12.401376",
        "meta_mean_motion": 1.70474402,
        "meta_eccentricity": 0.00039804,
        "meta_inclination": 55.7488,
        "meta_ra_of_asc_node": 104.491,
        "meta_arg_of_pericenter": 323.0659,
        "meta_mean_anomaly": 36.9995,
        "meta_ephemeris_type": 0,
        "meta_classification_type": "U",
        "meta_norad_cat_id": 41175,
        "meta_element_set_no": 999,
        "meta_rev_at_epoch": 6318,
        "meta_bstar": 0,
        "meta_mean_motion_dot": 2.7e-07,
        "meta_mean_motion_ddot": 0,
        "tle_line1": "1 41175U 15079B   26050.35569909  .00000027  00000+0  00000+0 0  9996",
        "tle_line2": "2 41175  55.7488 104.4910 0003980 323.0659  36.9995  1.70474402 63182"
      },
      "geometry": {
        "type": "Point",
        "coordinates": [
          88.81305248892993,
          -21.634051693525823
        ]
      }
    },
    {
      "type": "Feature",
      "properties": {
        "norad_id": 41549,
        "name": "GSAT0211 (GALILEO 14)",
        "group": "galileo",
        "lat": -53.195143157161795,
        "lon": 113.6466290385664,
        "alt_km": 23235.290206640748,
        "timestamp": "2026-02-20T11:39:26.826216+00:00",
        "meta_object_name": "GSAT0211 (GALILEO 14)",
        "meta_object_id": "2016-030A",
        "meta_epoch": "2026-02-17T17:16:41.761056",
        "meta_mean_motion": 1.7047366,
        "meta_eccentricity": 0.00038348,
        "meta_inclination": 55.1343,
        "meta_ra_of_asc_node": 224.9774,
        "meta_arg_of_pericenter": 27.4658,
        "meta_mean_anomaly": 332.5303,
        "meta_ephemeris_type": 0,
        "meta_classification_type": "U",
        "meta_norad_cat_id": 41549,
        "meta_element_set_no": 999,
        "meta_rev_at_epoch": 6063,
        "meta_bstar": 0,
        "meta_mean_motion_dot": 6.9e-07,
        "meta_mean_motion_ddot": 0,
        "tle_line1": "1 41549U 16030A   26048.71992779  .00000069  00000+0  00000+0 0  9997",
        "tle_line2": "2 41549  55.1343 224.9774 0003834  27.4658 332.5303  1.70473660 60639"
      },
      "geometry": {
        "type": "Point",
        "coordinates": [
          113.6466290385664,
          -53.195143157161795
        ]
      }
    },
    {
      "type": "Feature",
      "properties": {
        "norad_id": 41550,
        "name": "GSAT0210 (GALILEO 13)",
        "group": "galileo",
        "lat": 53.98536030896467,
        "lon": -28.70072257380747,
        "alt_km": 23215.542284870746,
        "timestamp": "2026-02-20T11:39:26.826227+00:00",
        "meta_object_name": "GSAT0210 (GALILEO 13)",
        "meta_object_id": "2016-030B",
        "meta_epoch": "2026-02-17T23:27:11.286144",
        "meta_mean_motion": 1.70473843,
        "meta_eccentricity": 8.947e-05,
        "meta_inclination": 55.1339,
        "meta_ra_of_asc_node": 224.9685,
        "meta_arg_of_pericenter": 181.1494,
        "meta_mean_anomaly": 178.8247,
        "meta_ephemeris_type": 0,
        "meta_classification_type": "U",
        "meta_norad_cat_id": 41550,
        "meta_element_set_no": 999,
        "meta_rev_at_epoch": 6063,
        "meta_bstar": 0,
        "meta_mean_motion_dot": 6.8e-07,
        "meta_mean_motion_ddot": 0,
        "tle_line1": "1 41550U 16030B   26048.97721396  .00000068  00000+0  00000+0 0  9991",
        "tle_line2": "2 41550  55.1339 224.9685 0000894 181.1494 178.8247  1.70473843 60637"
      },
      "geometry": {
        "type": "Point",
        "coordinates": [
          -28.70072257380747,
          53.98536030896467
        ]
      }
    },
    {
      "type": "Feature",
      "properties": {
        "norad_id": 41859,
        "name": "GSAT0207 (GALILEO 15)",
        "group": "galileo",
        "lat": -51.27618617796012,
        "lon": 45.06393309131607,
        "alt_km": 23214.54640375072,
        "timestamp": "2026-02-20T11:39:26.826238+00:00",
        "meta_object_name": "GSAT0207 (GALILEO 15)",
        "meta_object_id": "2016-069A",
        "meta_epoch": "2026-02-18T20:12:44.704512",
        "meta_mean_motion": 1.70474436,
        "meta_eccentricity": 0.00047533,
        "meta_inclination": 55.4205,
        "meta_ra_of_asc_node": 104.3613,
        "meta_arg_of_pericenter": 308.2514,
        "meta_mean_anomaly": 51.799,
        "meta_ephemeris_type": 0,
        "meta_classification_type": "U",
        "meta_norad_cat_id": 41859,
        "meta_element_set_no": 999,
        "meta_rev_at_epoch": 5738,
        "meta_bstar": 0,
        "meta_mean_motion_dot": 2.6e-07,
        "meta_mean_motion_ddot": 0,
        "tle_line1": "1 41859U 16069A   26049.84218408  .00000026  00000+0  00000+0 0  9991",
        "tle_line2": "2 41859  55.4205 104.3613 0004753 308.2514  51.7990  1.70474436 57380"
      },
      "geometry": {
        "type": "Point",
        "coordinates": [
          45.06393309131607,
          -51.27618617796012
        ]
      }
    },
    {
      "type": "Feature",
      "properties": {
        "norad_id": 41860,
        "name": "GSAT0212 (GALILEO 16)",
        "group": "galileo",
        "lat": 15.198539676093963,
        "lon": 115.12361832394099,
        "alt_km": 23213.139767006585,
        "timestamp": "2026-02-20T11:39:26.826249+00:00",
        "meta_object_name": "GSAT0212 (GALILEO 16)",
        "meta_object_id": "2016-069B",
        "meta_epoch": "2026-02-18T02:37:12.494496",
        "meta_mean_motion": 1.70474705,
        "meta_eccentricity": 0.00031839,
        "meta_inclination": 55.4177,
        "meta_ra_of_asc_node": 104.3768,
        "meta_arg_of_pericenter": 338.6944,
        "meta_mean_anomaly": 21.3853,
        "meta_ephemeris_type": 0,
        "meta_classification_type": "U",
        "meta_norad_cat_id": 41860,
        "meta_element_set_no": 999,
        "meta_rev_at_epoch": 5762,
        "meta_bstar": 0,
        "meta_mean_motion_dot": 2.4e-07,
        "meta_mean_motion_ddot": 0,
        "tle_line1": "1 41860U 16069B   26049.10917239  .00000024  00000+0  00000+0 0  9998",
        "tle_line2": "2 41860  55.4177 104.3768 0003183 338.6944  21.3853  1.70474705 57628"
      },
      "geometry": {
        "type": "Point",
        "coordinates": [
          115.12361832394099,
          15.198539676093963
        ]
      }
    },
    {
      "type": "Feature",
      "properties": {
        "norad_id": 41861,
        "name": "GSAT0213 (GALILEO 17)",
        "group": "galileo",
        "lat": 21.954951724127042,
        "lon": -91.79310282766953,
        "alt_km": 23229.898924734778,
        "timestamp": "2026-02-20T11:39:26.826260+00:00",
        "meta_object_name": "GSAT0213 (GALILEO 17)",
        "meta_object_id": "2016-069C",
        "meta_epoch": "2026-02-16T17:12:18.655776",
        "meta_mean_motion": 1.70475116,
        "meta_eccentricity": 0.00048683,
        "meta_inclination": 55.4192,
        "meta_ra_of_asc_node": 104.4234,
        "meta_arg_of_pericenter": 289.6538,
        "meta_mean_anomaly": 70.3822,
        "meta_ephemeris_type": 0,
        "meta_classification_type": "U",
        "meta_norad_cat_id": 41861,
        "meta_element_set_no": 999,
        "meta_rev_at_epoch": 5746,
        "meta_bstar": 0,
        "meta_mean_motion_dot": 1.7e-07,
        "meta_mean_motion_ddot": 0,
        "tle_line1": "1 41861U 16069C   26047.71688259  .00000017  00000+0  00000+0 0  9993",
        "tle_line2": "2 41861  55.4192 104.4234 0004868 289.6538  70.3822  1.70475116 57469"
      },
      "geometry": {
        "type": "Point",
        "coordinates": [
          -91.79310282766953,
          21.954951724127042
        ]
      }
    },
    {
      "type": "Feature",
      "properties": {
        "norad_id": 41862,
        "name": "GSAT0214 (GALILEO 18)",
        "group": "galileo",
        "lat": 47.41495633240773,
        "lon": 152.9209324098483,
        "alt_km": 23223.72888783864,
        "timestamp": "2026-02-20T11:39:26.826270+00:00",
        "meta_object_name": "GSAT0214 (GALILEO 18)",
        "meta_object_id": "2016-069D",
        "meta_epoch": "2026-02-19T05:01:20.166816",
        "meta_mean_motion": 1.70474853,
        "meta_eccentricity": 0.0003867,
        "meta_inclination": 55.4192,
        "meta_ra_of_asc_node": 104.3469,
        "meta_arg_of_pericenter": 293.9571,
        "meta_mean_anomaly": 66.0951,
        "meta_ephemeris_type": 0,
        "meta_classification_type": "U",
        "meta_norad_cat_id": 41862,
        "meta_element_set_no": 999,
        "meta_rev_at_epoch": 5763,
        "meta_bstar": 0,
        "meta_mean_motion_dot": 2.6e-07,
        "meta_mean_motion_ddot": 0,
        "tle_line1": "1 41862U 16069D   26050.20926119  .00000026  00000+0  00000+0 0  9992",
        "tle_line2": "2 41862  55.4192 104.3469 0003867 293.9571  66.0951  1.70474853 57633"
      },
      "geometry": {
        "type": "Point",
        "coordinates": [
          152.9209324098483,
          47.41495633240773
        ]
      }
    },
    {
      "type": "Feature",
      "properties": {
        "norad_id": 43055,
        "name": "GSAT0215 (GALILEO 19)",
        "group": "galileo",
        "lat": 43.62564348742463,
        "lon": 3.013757511141434,
        "alt_km": 23217.14738104625,
        "timestamp": "2026-02-20T11:39:26.826281+00:00",
        "meta_object_name": "GSAT0215 (GALILEO 19)",
        "meta_object_id": "2017-079A",
        "meta_epoch": "2026-02-19T02:42:16.824672",
        "meta_mean_motion": 1.7047432,
        "meta_eccentricity": 7.946e-05,
        "meta_inclination": 55.1115,
        "meta_ra_of_asc_node": 224.7525,
        "meta_arg_of_pericenter": 26.5517,
        "meta_mean_anomaly": 333.4212,
        "meta_ephemeris_type": 0,
        "meta_classification_type": "U",
        "meta_norad_cat_id": 43055,
        "meta_element_set_no": 999,
        "meta_rev_at_epoch": 5097,
        "meta_bstar": 0,
        "meta_mean_motion_dot": 6.5e-07,
        "meta_mean_motion_ddot": 0,
        "tle_line1": "1 43055U 17079A   26050.11269473  .00000065  00000+0  00000+0 0  9996",
        "tle_line2": "2 43055  55.1115 224.7525 0000794  26.5517 333.4212  1.70474320 50977"
      },
      "geometry": {
        "type": "Point",
        "coordinates": [
          3.013757511141434,
          43.62564348742463
        ]
      }
    },
    {
      "type": "Feature",
      "properties": {
        "norad_id": 43056,
        "name": "GSAT0216 (GALILEO 20)",
        "group": "galileo",
        "lat": -42.879386002176794,
        "lon": -175.684679499827,
        "alt_km": 23222.623334607724,
        "timestamp": "2026-02-20T11:39:26.826292+00:00",
        "meta_object_name": "GSAT0216 (GALILEO 20)",
        "meta_object_id": "2017-079B",
        "meta_epoch": "2026-02-17T01:22:58.200384",
        "meta_mean_motion": 1.70474461,
        "meta_eccentricity": 0.0001706,
        "meta_inclination": 55.112,
        "meta_ra_of_asc_node": 224.8091,
        "meta_arg_of_pericenter": 330.5835,
        "meta_mean_anomaly": 29.3864,
        "meta_ephemeris_type": 0,
        "meta_classification_type": "U",
        "meta_norad_cat_id": 43056,
        "meta_element_set_no": 999,
        "meta_rev_at_epoch": 5095,
        "meta_bstar": 0,
        "meta_mean_motion_dot": 7.1e-07,
        "meta_mean_motion_ddot": 0,
        "tle_line1": "1 43056U 17079B   26048.05761806  .00000071  00000+0  00000+0 0  9991",
        "tle_line2": "2 43056  55.1120 224.8091 0001706 330.5835  29.3864  1.70474461 50956"
      },
      "geometry": {
        "type": "Point",
        "coordinates": [
          -175.684679499827,
          -42.879386002176794
        ]
      }
    },
    {
      "type": "Feature",
      "properties": {
        "norad_id": 43057,
        "name": "GSAT0217 (GALILEO 21)",
        "group": "galileo",
        "lat": 9.40565868107636,
        "lon": 38.07143185592719,
        "alt_km": 23227.45081282329,
        "timestamp": "2026-02-20T11:39:26.826303+00:00",
        "meta_object_name": "GSAT0217 (GALILEO 21)",
        "meta_object_id": "2017-079C",
        "meta_epoch": "2026-02-17T20:45:30.649248",
        "meta_mean_motion": 1.7047434,
        "meta_eccentricity": 0.000218,
        "meta_inclination": 55.1113,
        "meta_ra_of_asc_node": 224.7848,
        "meta_arg_of_pericenter": 1.3206,
        "meta_mean_anomaly": 358.6544,
        "meta_ephemeris_type": 0,
        "meta_classification_type": "U",
        "meta_norad_cat_id": 43057,
        "meta_element_set_no": 999,
        "meta_rev_at_epoch": 5095,
        "meta_bstar": 0,
        "meta_mean_motion_dot": 6.8e-07,
        "meta_mean_motion_ddot": 0,
        "tle_line1": "1 43057U 17079C   26048.86493807  .00000068  00000+0  00000+0 0  9990",
        "tle_line2": "2 43057  55.1113 224.7848 0002180   1.3206 358.6544  1.70474340 50959"
      },
      "geometry": {
        "type": "Point",
        "coordinates": [
          38.07143185592719,
          9.40565868107636
        ]
      }
    },
    {
      "type": "Feature",
      "properties": {
        "norad_id": 43058,
        "name": "GSAT0218 (GALILEO 22)",
        "group": "galileo",
        "lat": 26.84536246983133,
        "lon": -114.60563009074372,
        "alt_km": 23218.129081003906,
        "timestamp": "2026-02-20T11:39:26.826314+00:00",
        "meta_object_name": "GSAT0218 (GALILEO 22)",
        "meta_object_id": "2017-079D",
        "meta_epoch": "2026-02-19T20:16:23.377728",
        "meta_mean_motion": 1.70474342,
        "meta_eccentricity": 0.0001853,
        "meta_inclination": 55.1102,
        "meta_ra_of_asc_node": 224.728,
        "meta_arg_of_pericenter": 311.3623,
        "meta_mean_anomaly": 48.5886,
        "meta_ephemeris_type": 0,
        "meta_classification_type": "U",
        "meta_norad_cat_id": 43058,
        "meta_element_set_no": 999,
        "meta_rev_at_epoch": 5101,
        "meta_bstar": 0,
        "meta_mean_motion_dot": 6.4e-07,
        "meta_mean_motion_ddot": 0,
        "tle_line1": "1 43058U 17079D   26050.84471502  .00000064  00000+0  00000+0 0  9996",
        "tle_line2": "2 43058  55.1102 224.7280 0001853 311.3623  48.5886  1.70474342 51015"
      },
      "geometry": {
        "type": "Point",
        "coordinates": [
          -114.60563009074372,
          26.84536246983133
        ]
      }
    },
    {
      "type": "Feature",
      "properties": {
        "norad_id": 43564,
        "name": "GSAT0221 (GALILEO 25)",
        "group": "galileo",
        "lat": 57.11866720156909,
        "lon": 80.11905275155016,
        "alt_km": 23230.694820948225,
        "timestamp": "2026-02-20T11:39:26.826325+00:00",
        "meta_object_name": "GSAT0221 (GALILEO 25)",
        "meta_object_id": "2018-060A",
        "meta_epoch": "2026-02-17T23:42:55.620000",
        "meta_mean_motion": 1.7047544,
        "meta_eccentricity": 0.0005962,
        "meta_inclination": 57.2081,
        "meta_ra_of_asc_node": 345.0024,
        "meta_arg_of_pericenter": 303.3759,
        "meta_mean_anomaly": 56.575,
        "meta_ephemeris_type": 0,
        "meta_classification_type": "U",
        "meta_norad_cat_id": 43564,
        "meta_element_set_no": 999,
        "meta_rev_at_epoch": 4713,
        "meta_bstar": 0,
        "meta_mean_motion_dot": -7.7e-07,
        "meta_mean_motion_ddot": 0,
        "tle_line1": "1 43564U 18060A   26048.98814375 -.00000077  00000+0  00000+0 0  9995",
        "tle_line2": "2 43564  57.2081 345.0024 0005962 303.3759  56.5750  1.70475440 47132"
      },
      "geometry": {
        "type": "Point",
        "coordinates": [
          80.11905275155016,
          57.11866720156909
        ]
      }
    },
    {
      "type": "Feature",
      "properties": {
        "norad_id": 43565,
        "name": "GSAT0222 (GALILEO 26)",
        "group": "galileo",
        "lat": -34.15571215274503,
        "lon": -40.96526985529878,
        "alt_km": 23214.877129073247,
        "timestamp": "2026-02-20T11:39:26.826336+00:00",
        "meta_object_name": "GSAT0222 (GALILEO 26)",
        "meta_object_id": "2018-060B",
        "meta_epoch": "2026-02-18T04:58:56.650368",
        "meta_mean_motion": 1.70475128,
        "meta_eccentricity": 0.0004689,
        "meta_inclination": 57.2117,
        "meta_ra_of_asc_node": 344.9999,
        "meta_arg_of_pericenter": 283.7253,
        "meta_mean_anomaly": 76.231,
        "meta_ephemeris_type": 0,
        "meta_classification_type": "U",
        "meta_norad_cat_id": 43565,
        "meta_element_set_no": 999,
        "meta_rev_at_epoch": 4718,
        "meta_bstar": 0,
        "meta_mean_motion_dot": -7.7e-07,
        "meta_mean_motion_ddot": 0,
        "tle_line1": "1 43565U 18060B   26049.20760012 -.00000077  00000+0  00000+0 0  9990",
        "tle_line2": "2 43565  57.2117 344.9999 0004689 283.7253  76.2310  1.70475128 47186"
      },
      "geometry": {
        "type": "Point",
        "coordinates": [
          -40.96526985529878,
          -34.15571215274503
        ]
      }
    },
    {
      "type": "Feature",
      "properties": {
        "norad_id": 43566,
        "name": "GSAT0219 (GALILEO 23)",
        "group": "galileo",
        "lat": -2.0304882769115618,
        "lon": 166.240745433399,
        "alt_km": 23232.400928624033,
        "timestamp": "2026-02-20T11:39:26.826352+00:00",
        "meta_object_name": "GSAT0219 (GALILEO 23)",
        "meta_object_id": "2018-060C",
        "meta_epoch": "2026-02-19T14:26:35.359296",
        "meta_mean_motion": 1.70475328,
        "meta_eccentricity": 0.00061372,
        "meta_inclination": 57.2102,
        "meta_ra_of_asc_node": 344.9639,
        "meta_arg_of_pericenter": 304.8659,
        "meta_mean_anomaly": 55.0887,
        "meta_ephemeris_type": 0,
        "meta_classification_type": "U",
        "meta_norad_cat_id": 43566,
        "meta_element_set_no": 999,
        "meta_rev_at_epoch": 4718,
        "meta_bstar": 0,
        "meta_mean_motion_dot": -7.6e-07,
        "meta_mean_motion_ddot": 0,
        "tle_line1": "1 43566U 18060C   26050.60179814 -.00000076  00000+0  00000+0 0  9990",
        "tle_line2": "2 43566  57.2102 344.9639 0006137 304.8659  55.0887  1.70475328 47183"
      },
      "geometry": {
        "type": "Point",
        "coordinates": [
          166.240745433399,
          -2.0304882769115618
        ]
      }
    },
    {
      "type": "Feature",
      "properties": {
        "norad_id": 43567,
        "name": "GSAT0220 (GALILEO 24)",
        "group": "galileo",
        "lat": 37.87132403274769,
        "lon": 14.974335892628496,
        "alt_km": 23220.97358605756,
        "timestamp": "2026-02-20T11:39:26.826363+00:00",
        "meta_object_name": "GSAT0220 (GALILEO 24)",
        "meta_object_id": "2018-060D",
        "meta_epoch": "2026-02-15T03:07:16.657824",
        "meta_mean_motion": 1.70475592,
        "meta_eccentricity": 0.00056032,
        "meta_inclination": 57.2121,
        "meta_ra_of_asc_node": 345.0851,
        "meta_arg_of_pericenter": 304.3709,
        "meta_mean_anomaly": 55.5768,
        "meta_ephemeris_type": 0,
        "meta_classification_type": "U",
        "meta_norad_cat_id": 43567,
        "meta_element_set_no": 999,
        "meta_rev_at_epoch": 4709,
        "meta_bstar": 0,
        "meta_mean_motion_dot": -8.3e-07,
        "meta_mean_motion_ddot": 0,
        "tle_line1": "1 43567U 18060D   26046.13005391 -.00000083  00000+0  00000+0 0  9990",
        "tle_line2": "2 43567  57.2121 345.0851 0005603 304.3709  55.5768  1.70475592 47097"
      },
      "geometry": {
        "type": "Point",
        "coordinates": [
          14.974335892628496,
          37.87132403274769
        ]
      }
    },
    {
      "type": "Feature",
      "properties": {
        "norad_id": 49809,
        "name": "GSAT0223 (GALILEO 27)",
        "group": "galileo",
        "lat": 34.51980432535862,
        "lon": 138.5318801940174,
        "alt_km": 23224.400185556133,
        "timestamp": "2026-02-20T11:39:26.826375+00:00",
        "meta_object_name": "GSAT0223 (GALILEO 27)",
        "meta_object_id": "2021-116A",
        "meta_epoch": "2026-02-17T00:57:26.434656",
        "meta_mean_motion": 1.70475508,
        "meta_eccentricity": 0.00028659,
        "meta_inclination": 57.2005,
        "meta_ra_of_asc_node": 344.9238,
        "meta_arg_of_pericenter": 278.195,
        "meta_mean_anomaly": 264.6358,
        "meta_ephemeris_type": 0,
        "meta_classification_type": "U",
        "meta_norad_cat_id": 49809,
        "meta_element_set_no": 999,
        "meta_rev_at_epoch": 2613,
        "meta_bstar": 0,
        "meta_mean_motion_dot": -7.8e-07,
        "meta_mean_motion_ddot": 0,
        "tle_line1": "1 49809U 21116A   26048.03988929 -.00000078  00000+0  00000+0 0  9993",
        "tle_line2": "2 49809  57.2005 344.9238 0002865 278.1950 264.6358  1.70475508 26130"
      },
      "geometry": {
        "type": "Point",
        "coordinates": [
          138.5318801940174,
          34.51980432535862
        ]
      }
    },
    {
      "type": "Feature",
      "properties": {
        "norad_id": 49810,
        "name": "GSAT0224 (GALILEO 28)",
        "group": "galileo",
        "lat": -52.29056804638971,
        "lon": -138.77411761185235,
        "alt_km": 23222.251506609802,
        "timestamp": "2026-02-20T11:39:26.826386+00:00",
        "meta_object_name": "GSAT0224 (GALILEO 28)",
        "meta_object_id": "2021-116B",
        "meta_epoch": "2026-02-19T20:21:44.690688",
        "meta_mean_motion": 1.70475355,
        "meta_eccentricity": 0.00024583,
        "meta_inclination": 57.2001,
        "meta_ra_of_asc_node": 344.8468,
        "meta_arg_of_pericenter": 290.3805,
        "meta_mean_anomaly": 288.7165,
        "meta_ephemeris_type": 0,
        "meta_classification_type": "U",
        "meta_norad_cat_id": 49810,
        "meta_element_set_no": 999,
        "meta_rev_at_epoch": 2620,
        "meta_bstar": 0,
        "meta_mean_motion_dot": -7.6e-07,
        "meta_mean_motion_ddot": 0,
        "tle_line1": "1 49810U 21116B   26050.84843392 -.00000076  00000+0  00000+0 0  9999",
        "tle_line2": "2 49810  57.2001 344.8468 0002458 290.3805 288.7165  1.70475355 26206"
      },
      "geometry": {
        "type": "Point",
        "coordinates": [
          -138.77411761185235,
          -52.29056804638971
        ]
      }
    },
    {
      "type": "Feature",
      "properties": {
        "norad_id": 59598,
        "name": "GSAT0225 (GALILEO 29)",
        "group": "galileo",
        "lat": -46.92600433229,
        "lon": -27.24240935701416,
        "alt_km": 23220.004562594742,
        "timestamp": "2026-02-20T11:39:26.826397+00:00",
        "meta_object_name": "GSAT0225 (GALILEO 29)",
        "meta_object_id": "2024-079A",
        "meta_epoch": "2026-02-20T03:06:28.661760",
        "meta_mean_motion": 1.70474891,
        "meta_eccentricity": 0.0002503,
        "meta_inclination": 55.0406,
        "meta_ra_of_asc_node": 104.3516,
        "meta_arg_of_pericenter": 246.9096,
        "meta_mean_anomaly": 137.5534,
        "meta_ephemeris_type": 0,
        "meta_classification_type": "U",
        "meta_norad_cat_id": 59598,
        "meta_element_set_no": 999,
        "meta_rev_at_epoch": 1132,
        "meta_bstar": 0,
        "meta_mean_motion_dot": 2.4e-07,
        "meta_mean_motion_ddot": 0,
        "tle_line1": "1 59598U 24079A   26051.12949840  .00000024  00000+0  00000+0 0  9993",
        "tle_line2": "2 59598  55.0406 104.3516 0002503 246.9096 137.5534  1.70474891 11320"
      },
      "geometry": {
        "type": "Point",
        "coordinates": [
          -27.24240935701416,
          -46.92600433229
        ]
      }
    },
    {
      "type": "Feature",
      "properties": {
        "norad_id": 59600,
        "name": "GSAT0227 (GALILEO 30)",
        "group": "galileo",
        "lat": 38.55618683233429,
        "lon": -109.50837520351091,
        "alt_km": 23215.198478197584,
        "timestamp": "2026-02-20T11:39:26.826408+00:00",
        "meta_object_name": "GSAT0227 (GALILEO 30)",
        "meta_object_id": "2024-079C",
        "meta_epoch": "2026-02-19T16:28:43.470336",
        "meta_mean_motion": 1.7047489,
        "meta_eccentricity": 7.751e-05,
        "meta_inclination": 55.0364,
        "meta_ra_of_asc_node": 104.3627,
        "meta_arg_of_pericenter": 113.7113,
        "meta_mean_anomaly": 246.3883,
        "meta_ephemeris_type": 0,
        "meta_classification_type": "U",
        "meta_norad_cat_id": 59600,
        "meta_element_set_no": 999,
        "meta_rev_at_epoch": 1136,
        "meta_bstar": 0,
        "meta_mean_motion_dot": 2.5e-07,
        "meta_mean_motion_ddot": 0,
        "tle_line1": "1 59600U 24079C   26050.68661424  .00000025  00000+0  00000+0 0  9997",
        "tle_line2": "2 59600  55.0364 104.3627 0000775 113.7113 246.3883  1.70474890 11369"
      },
      "geometry": {
        "type": "Point",
        "coordinates": [
          -109.50837520351091,
          38.55618683233429
        ]
      }
    },
    {
      "type": "Feature",
      "properties": {
        "norad_id": 61182,
        "name": "GSAT0232 (GALILEO 32)",
        "group": "galileo",
        "lat": -11.610017688779795,
        "lon": -143.7015406768521,
        "alt_km": 23220.436616706604,
        "timestamp": "2026-02-20T11:39:26.826420+00:00",
        "meta_object_name": "GSAT0232 (GALILEO 32)",
        "meta_object_id": "2024-167A",
        "meta_epoch": "2026-02-17T15:52:34.088160",
        "meta_mean_motion": 1.70443939,
        "meta_eccentricity": 0.00036004,
        "meta_inclination": 55.2225,
        "meta_ra_of_asc_node": 224.5881,
        "meta_arg_of_pericenter": 296.6314,
        "meta_mean_anomaly": 116.1306,
        "meta_ephemeris_type": 0,
        "meta_classification_type": "U",
        "meta_norad_cat_id": 61182,
        "meta_element_set_no": 999,
        "meta_rev_at_epoch": 826,
        "meta_bstar": 0,
        "meta_mean_motion_dot": 6.9e-07,
        "meta_mean_motion_ddot": 0,
        "tle_line1": "1 61182U 24167A   26048.66150565  .00000069  00000+0  00000+0 0  9995",
        "tle_line2": "2 61182  55.2225 224.5881 0003600 296.6314 116.1306  1.70443939  8265"
      },
      "geometry": {
        "type": "Point",
        "coordinates": [
          -143.7015406768521,
          -11.610017688779795
        ]
      }
    },
    {
      "type": "Feature",
      "properties": {
        "norad_id": 61183,
        "name": "GSAT0226 (GALILEO 31)",
        "group": "galileo",
        "lat": 53.290812575332346,
        "lon": -66.7074157923559,
        "alt_km": 23212.12465870382,
        "timestamp": "2026-02-20T11:39:26.826431+00:00",
        "meta_object_name": "GSAT0226 (GALILEO 31)",
        "meta_object_id": "2024-167B",
        "meta_epoch": "2026-02-19T11:31:13.382400",
        "meta_mean_motion": 1.7047389,
        "meta_eccentricity": 0.00017937,
        "meta_inclination": 55.2218,
        "meta_ra_of_asc_node": 224.5466,
        "meta_arg_of_pericenter": 120.9164,
        "meta_mean_anomaly": 59.3195,
        "meta_ephemeris_type": 0,
        "meta_classification_type": "U",
        "meta_norad_cat_id": 61183,
        "meta_element_set_no": 999,
        "meta_rev_at_epoch": 884,
        "meta_bstar": 0,
        "meta_mean_motion_dot": 6.4e-07,
        "meta_mean_motion_ddot": 0,
        "tle_line1": "1 61183U 24167B   26050.48001600  .00000064  00000+0  00000+0 0  9999",
        "tle_line2": "2 61183  55.2218 224.5466 0001793 120.9164  59.3195  1.70473890  8847"
      },
      "geometry": {
        "type": "Point",
        "coordinates": [
          -66.7074157923559,
          53.290812575332346
        ]
      }
    },
    {
      "type": "Feature",
      "properties": {
        "norad_id": 67160,
        "name": "GSAT0233 (GALILEO 33)",
        "group": "galileo",
        "lat": 5.090103675625169,
        "lon": -78.53899394752251,
        "alt_km": 23214.269494400956,
        "timestamp": "2026-02-20T11:39:26.826443+00:00",
        "meta_object_name": "GSAT0233 (GALILEO 33)",
        "meta_object_id": "2025-302A",
        "meta_epoch": "2026-02-13T12:00:00.000000",
        "meta_mean_motion": 1.70474578,
        "meta_eccentricity": 0.00030114,
        "meta_inclination": 54.3935,
        "meta_ra_of_asc_node": 105.2952,
        "meta_arg_of_pericenter": 207.0582,
        "meta_mean_anomaly": 359.4109,
        "meta_ephemeris_type": 0,
        "meta_classification_type": "U",
        "meta_norad_cat_id": 67160,
        "meta_element_set_no": 999,
        "meta_rev_at_epoch": 2,
        "meta_bstar": 0,
        "meta_mean_motion_dot": -8e-08,
        "meta_mean_motion_ddot": 0,
        "tle_line1": "1 67160U 25302A   26044.50000000 -.00000008  00000+0  00000+0 0  9990",
        "tle_line2": "2 67160  54.3935 105.2952 0003011 207.0582 359.4109  1.70474578    20"
      },
      "geometry": {
        "type": "Point",
        "coordinates": [
          -78.53899394752251,
          5.090103675625169
        ]
      }
    },
    {
      "type": "Feature",
      "properties": {
        "norad_id": 67162,
        "name": "GSAT0234 (GALILEO 34)",
        "group": "galileo",
        "lat": -4.989722787089751,
        "lon": 101.53260776897405,
        "alt_km": 23222.4721081587,
        "timestamp": "2026-02-20T11:39:26.826455+00:00",
        "meta_object_name": "GSAT0234 (GALILEO 34)",
        "meta_object_id": "2025-302C",
        "meta_epoch": "2026-02-13T12:00:00.000000",
        "meta_mean_motion": 1.70475065,
        "meta_eccentricity": 0.00030814,
        "meta_inclination": 54.3967,
        "meta_ra_of_asc_node": 105.2938,
        "meta_arg_of_pericenter": 266.8423,
        "meta_mean_anomaly": 119.7309,
        "meta_ephemeris_type": 0,
        "meta_classification_type": "U",
        "meta_norad_cat_id": 67162,
        "meta_element_set_no": 999,
        "meta_rev_at_epoch": 12,
        "meta_bstar": 0,
        "meta_mean_motion_dot": -8e-08,
        "meta_mean_motion_ddot": 0,
        "tle_line1": "1 67162U 25302C   26044.50000000 -.00000008  00000+0  00000+0 0  9992",
        "tle_line2": "2 67162  54.3967 105.2938 0003081 266.8423 119.7309  1.70475065   127"
      },
      "geometry": {
        "type": "Point",
        "coordinates": [
          101.53260776897405,
          -4.989722787089751
        ]
      }
    }
  ]
}