{
  "type": "FeatureCollection",
  "features": [
    {
      "type": "Feature",
      "properties": {
        "norad_id": 32275,
        "name": "COSMOS 2433 (720)",
        "group": "glo-ops",
        "lat": 36.955955158861435,
        "lon": 120.05966720321237,
        "alt_km": 19130.267985854112,
        "timestamp": "2026-02-17T21:43:09.880604+00:00",
        "meta_object_name": "COSMOS 2433 (720)",
        "meta_object_id": "2007-052A",
        "meta_epoch": "2026-02-17T06:07:03.368640",
        "meta_mean_motion": 2.13104255,
        "meta_eccentricity": 0.00028122,
        "meta_inclination": 65.6442,
        "meta_ra_of_asc_node": 319.972,
        "meta_arg_of_pericenter": 270.7018,
        "meta_mean_anomaly": 89.3164,
        "meta_ephemeris_type": 0,
        "meta_classification_type": "U",
        "meta_norad_cat_id": 32275,
        "meta_element_set_no": 999,
        "meta_rev_at_epoch": 14250,
        "meta_bstar": 0,
        "meta_mean_motion_dot": -3.4e-07,
        "meta_mean_motion_ddot": 0,
        "tle_line1": "1 32275U 07052A   26048.25490010 -.00000034  00000+0  00000+0 0  9990",
        "tle_line2": "2 32275  65.6442 319.9720 0002812 270.7018  89.3164  2.13104255142503"
      },
      "geometry": {
        "type": "Point",
        "coordinates": [
          120.05966720321237,
          36.955955158861435
        ]
      }
    },
    {
      "type": "Feature",
      "properties": {
        "norad_id": 32276,
        "name": "COSMOS 2432 (719)",
        "group": "glo-ops",
        "lat": 64.77601261632486,
        "lon": 33.69152285072074,
        "alt_km": 19134.87135933633,
        "timestamp": "2026-02-17T21:43:09.880627+00:00",
        "meta_object_name": "COSMOS 2432 (719)",
        "meta_object_id": "2007-052B",
        "meta_epoch": "2026-02-17T13:15:21.921120",
        "meta_mean_motion": 2.13103453,
        "meta_eccentricity": 0.00109271,
        "meta_inclination": 65.6601,
        "meta_ra_of_asc_node": 320.0872,
        "meta_arg_of_pericenter": 327.4649,
        "meta_mean_anomaly": 205.0096,
        "meta_ephemeris_type": 0,
        "meta_classification_type": "U",
        "meta_norad_cat_id": 32276,
        "meta_element_set_no": 999,
        "meta_rev_at_epoch": 14253,
        "meta_bstar": 0,
        "meta_mean_motion_dot": -3.3e-07,
        "meta_mean_motion_ddot": 0,
        "tle_line1": "1 32276U 07052B   26048.55233705 -.00000033  00000+0  00000+0 0  9999",
        "tle_line2": "2 32276  65.6601 320.0872 0010927 327.4649 205.0096  2.13103453142531"
      },
      "geometry": {
        "type": "Point",
        "coordinates": [
          33.69152285072074,
          64.77601261632486
        ]
      }
    },
    {
      "type": "Feature",
      "properties": {
        "norad_id": 32393,
        "name": "COSMOS 2434 (721)",
        "group": "glo-ops",
        "lat": 26.001195849780892,
        "lon": -150.4988976287875,
        "alt_km": 19118.97975073738,
        "timestamp": "2026-02-17T21:43:09.880642+00:00",
        "meta_object_name": "COSMOS 2434 (721)",
        "meta_object_id": "2007-065A",
        "meta_epoch": "2026-02-17T12:18:10.332576",
        "meta_mean_motion": 2.13101422,
        "meta_eccentricity": 0.00043067,
        "meta_inclination": 64.3187,
        "meta_ra_of_asc_node": 195.949,
        "meta_arg_of_pericenter": 71.9334,
        "meta_mean_anomaly": 16.1667,
        "meta_ephemeris_type": 0,
        "meta_classification_type": "U",
        "meta_norad_cat_id": 32393,
        "meta_element_set_no": 999,
        "meta_rev_at_epoch": 14122,
        "meta_bstar": 0,
        "meta_mean_motion_dot": 4.7e-07,
        "meta_mean_motion_ddot": 0,
        "tle_line1": "1 32393U 07065A   26048.51261959  .00000047  00000+0  00000+0 0  9995",
        "tle_line2": "2 32393  64.3187 195.9490 0004306  71.9334  16.1667  2.13101422141221"
      },
      "geometry": {
        "type": "Point",
        "coordinates": [
          -150.4988976287875,
          26.001195849780892
        ]
      }
    },
    {
      "type": "Feature",
      "properties": {
        "norad_id": 32395,
        "name": "COSMOS 2436 (723)",
        "group": "glo-ops",
        "lat": 16.0942520957383,
        "lon": 8.032324506379815,
        "alt_km": 19168.594227398877,
        "timestamp": "2026-02-17T21:43:09.880655+00:00",
        "meta_object_name": "COSMOS 2436 (723)",
        "meta_object_id": "2007-065C",
        "meta_epoch": "2026-02-16T17:56:03.467904",
        "meta_mean_motion": 2.13100323,
        "meta_eccentricity": 0.00176659,
        "meta_inclination": 64.3273,
        "meta_ra_of_asc_node": 196.0458,
        "meta_arg_of_pericenter": 9.0006,
        "meta_mean_anomaly": 344.7477,
        "meta_ephemeris_type": 0,
        "meta_classification_type": "U",
        "meta_norad_cat_id": 32395,
        "meta_element_set_no": 999,
        "meta_rev_at_epoch": 14115,
        "meta_bstar": 0,
        "meta_mean_motion_dot": 4.4e-07,
        "meta_mean_motion_ddot": 0,
        "tle_line1": "1 32395U 07065C   26047.74726236  .00000044  00000+0  00000+0 0  9992",
        "tle_line2": "2 32395  64.3273 196.0458 0017665   9.0006 344.7477  2.13100323141155"
      },
      "geometry": {
        "type": "Point",
        "coordinates": [
          8.032324506379815,
          16.0942520957383
        ]
      }
    },
    {
      "type": "Feature",
      "properties": {
        "norad_id": 36111,
        "name": "COSMOS 2456 (730)",
        "group": "glo-ops",
        "lat": -5.880590628375198,
        "lon": -102.19201588298816,
        "alt_km": 19137.284559951204,
        "timestamp": "2026-02-17T21:43:09.880668+00:00",
        "meta_object_name": "COSMOS 2456 (730)",
        "meta_object_id": "2009-070A",
        "meta_epoch": "2026-02-17T05:41:13.327584",
        "meta_mean_motion": 2.13103788,
        "meta_eccentricity": 0.00058717,
        "meta_inclination": 64.9385,
        "meta_ra_of_asc_node": 75.0637,
        "meta_arg_of_pericenter": 301.1089,
        "meta_mean_anomaly": 92.9778,
        "meta_ephemeris_type": 0,
        "meta_classification_type": "U",
        "meta_norad_cat_id": 36111,
        "meta_element_set_no": 999,
        "meta_rev_at_epoch": 12587,
        "meta_bstar": 0,
        "meta_mean_motion_dot": 4.4e-07,
        "meta_mean_motion_ddot": 0,
        "tle_line1": "1 36111U 09070A   26048.23695981  .00000044  00000+0  00000+0 0  9997",
        "tle_line2": "2 36111  64.9385  75.0637 0005871 301.1089  92.9778  2.13103788125878"
      },
      "geometry": {
        "type": "Point",
        "coordinates": [
          -102.19201588298816,
          -5.880590628375198
        ]
      }
    },
    {
      "type": "Feature",
      "properties": {
        "norad_id": 36112,
        "name": "COSMOS 2457 (733)",
        "group": "glo-ops",
        "lat": -39.7836334772286,
        "lon": 51.93895755068893,
        "alt_km": 19138.898807297428,
        "timestamp": "2026-02-17T21:43:09.880680+00:00",
        "meta_object_name": "COSMOS 2457 (733)",
        "meta_object_id": "2009-070B",
        "meta_epoch": "2026-02-17T14:50:53.067264",
        "meta_mean_motion": 2.13101168,
        "meta_eccentricity": 0.00027638,
        "meta_inclination": 64.9243,
        "meta_ra_of_asc_node": 74.8971,
        "meta_arg_of_pericenter": 190.7922,
        "meta_mean_anomaly": 264.6454,
        "meta_ephemeris_type": 0,
        "meta_classification_type": "U",
        "meta_norad_cat_id": 36112,
        "meta_element_set_no": 999,
        "meta_rev_at_epoch": 12588,
        "meta_bstar": 0,
        "meta_mean_motion_dot": 4.3e-07,
        "meta_mean_motion_ddot": 0,
        "tle_line1": "1 36112U 09070B   26048.61866976  .00000043  00000+0  00000+0 0  9993",
        "tle_line2": "2 36112  64.9243  74.8971 0002763 190.7922 264.6454  2.13101168125885"
      },
      "geometry": {
        "type": "Point",
        "coordinates": [
          51.93895755068893,
          -39.7836334772286
        ]
      }
    },
    {
      "type": "Feature",
      "properties": {
        "norad_id": 36402,
        "name": "COSMOS 2460 (732)",
        "group": "glo-ops",
        "lat": -39.58312154880508,
        "lon": -63.61633637477463,
        "alt_km": 19130.7654547403,
        "timestamp": "2026-02-17T21:43:09.880692+00:00",
        "meta_object_name": "COSMOS 2460 (732)",
        "meta_object_id": "2010-007C",
        "meta_epoch": "2026-02-17T00:48:51.844896",
        "meta_mean_motion": 2.13106348,
        "meta_eccentricity": 0.00018128,
        "meta_inclination": 65.4897,
        "meta_ra_of_asc_node": 318.5346,
        "meta_arg_of_pericenter": 351.1559,
        "meta_mean_anomaly": 16.2159,
        "meta_ephemeris_type": 0,
        "meta_classification_type": "U",
        "meta_norad_cat_id": 36402,
        "meta_element_set_no": 999,
        "meta_rev_at_epoch": 12417,
        "meta_bstar": 0,
        "meta_mean_motion_dot": -3.2e-07,
        "meta_mean_motion_ddot": 0,
        "tle_line1": "1 36402U 10007C   26048.03393339 -.00000032  00000+0  00000+0 0  9990",
        "tle_line2": "2 36402  65.4897 318.5346 0001812 351.1559  16.2159  2.13106348124174"
      },
      "geometry": {
        "type": "Point",
        "coordinates": [
          -63.61633637477463,
          -39.58312154880508
        ]
      }
    },
    {
      "type": "Feature",
      "properties": {
        "norad_id": 37867,
        "name": "COSMOS 2476 (744)",
        "group": "glo-ops",
        "lat": 64.7667621311944,
        "lon": 178.00243395463107,
        "alt_km": 19176.106099512097,
        "timestamp": "2026-02-17T21:43:09.880703+00:00",
        "meta_object_name": "COSMOS 2476 (744)",
        "meta_object_id": "2011-064A",
        "meta_epoch": "2026-02-17T10:23:40.817184",
        "meta_mean_motion": 2.13103986,
        "meta_eccentricity": 0.00253458,
        "meta_inclination": 65.1993,
        "meta_ra_of_asc_node": 76.9145,
        "meta_arg_of_pericenter": 240.0988,
        "meta_mean_anomaly": 212.8157,
        "meta_ephemeris_type": 0,
        "meta_classification_type": "U",
        "meta_norad_cat_id": 37867,
        "meta_element_set_no": 999,
        "meta_rev_at_epoch": 11121,
        "meta_bstar": 0,
        "meta_mean_motion_dot": 4.6e-07,
        "meta_mean_motion_ddot": 0,
        "tle_line1": "1 37867U 11064A   26048.43311131  .00000046  00000+0  00000+0 0  9998",
        "tle_line2": "2 37867  65.1993  76.9145 0025345 240.0988 212.8157  2.13103986111213"
      },
      "geometry": {
        "type": "Point",
        "coordinates": [
          178.00243395463107,
          64.7667621311944
        ]
      }
    },
    {
      "type": "Feature",
      "properties": {
        "norad_id": 37868,
        "name": "COSMOS 2477 (745)",
        "group": "glo-ops",
        "lat": -64.57822996791559,
        "lon": 0.4020359157425009,
        "alt_km": 19089.03995950207,
        "timestamp": "2026-02-17T21:43:09.880715+00:00",
        "meta_object_name": "COSMOS 2477 (745)",
        "meta_object_id": "2011-064B",
        "meta_epoch": "2026-02-16T18:17:44.967264",
        "meta_mean_motion": 2.13103088,
        "meta_eccentricity": 0.0022442,
        "meta_inclination": 65.2053,
        "meta_ra_of_asc_node": 77.0152,
        "meta_arg_of_pericenter": 241.3047,
        "meta_mean_anomaly": 237.713,
        "meta_ephemeris_type": 0,
        "meta_classification_type": "U",
        "meta_norad_cat_id": 37868,
        "meta_element_set_no": 999,
        "meta_rev_at_epoch": 11119,
        "meta_bstar": 0,
        "meta_mean_motion_dot": 4.6e-07,
        "meta_mean_motion_ddot": 0,
        "tle_line1": "1 37868U 11064B   26047.76232601  .00000046  00000+0  00000+0 0  9998",
        "tle_line2": "2 37868  65.2053  77.0152 0022442 241.3047 237.7130  2.13103088111194"
      },
      "geometry": {
        "type": "Point",
        "coordinates": [
          0.4020359157425009,
          -64.57822996791559
        ]
      }
    },
    {
      "type": "Feature",
      "properties": {
        "norad_id": 37869,
        "name": "COSMOS 2475 (743)",
        "group": "glo-ops",
        "lat": -44.95102239837817,
        "lon": -75.52149990831643,
        "alt_km": 19068.682520037113,
        "timestamp": "2026-02-17T21:43:09.880727+00:00",
        "meta_object_name": "COSMOS 2475 (743)",
        "meta_object_id": "2011-064C",
        "meta_epoch": "2026-02-16T23:20:06.949824",
        "meta_mean_motion": 2.13101842,
        "meta_eccentricity": 0.00281482,
        "meta_inclination": 65.2124,
        "meta_ra_of_asc_node": 77.0287,
        "meta_arg_of_pericenter": 253.185,
        "meta_mean_anomaly": 342.556,
        "meta_ephemeris_type": 0,
        "meta_classification_type": "U",
        "meta_norad_cat_id": 37869,
        "meta_element_set_no": 999,
        "meta_rev_at_epoch": 11120,
        "meta_bstar": 0,
        "meta_mean_motion_dot": 4.6e-07,
        "meta_mean_motion_ddot": 0,
        "tle_line1": "1 37869U 11064C   26047.97230266  .00000046  00000+0  00000+0 0  9997",
        "tle_line2": "2 37869  65.2124  77.0287 0028148 253.1850 342.5560  2.13101842111205"
      },
      "geometry": {
        "type": "Point",
        "coordinates": [
          -75.52149990831643,
          -44.95102239837817
        ]
      }
    },
    {
      "type": "Feature",
      "properties": {
        "norad_id": 39155,
        "name": "COSMOS 2485 (747)",
        "group": "glo-ops",
        "lat": 33.39243969186649,
        "lon": -120.00940142219736,
        "alt_km": 19129.376042517048,
        "timestamp": "2026-02-17T21:43:09.880738+00:00",
        "meta_object_name": "COSMOS 2485 (747)",
        "meta_object_id": "2013-019A",
        "meta_epoch": "2026-02-17T05:58:37.678944",
        "meta_mean_motion": 2.13103297,
        "meta_eccentricity": 0.00256886,
        "meta_inclination": 65.3498,
        "meta_ra_of_asc_node": 77.6299,
        "meta_arg_of_pericenter": 235.7178,
        "meta_mean_anomaly": 124.1165,
        "meta_ephemeris_type": 0,
        "meta_classification_type": "U",
        "meta_norad_cat_id": 39155,
        "meta_element_set_no": 999,
        "meta_rev_at_epoch": 9972,
        "meta_bstar": 0,
        "meta_mean_motion_dot": 4.7e-07,
        "meta_mean_motion_ddot": 0,
        "tle_line1": "1 39155U 13019A   26048.24904721  .00000047  00000+0  00000+0 0  9995",
        "tle_line2": "2 39155  65.3498  77.6299 0025688 235.7178 124.1165  2.13103297 99727"
      },
      "geometry": {
        "type": "Point",
        "coordinates": [
          -120.00940142219736,
          33.39243969186649
        ]
      }
    },
    {
      "type": "Feature",
      "properties": {
        "norad_id": 39620,
        "name": "COSMOS 2492 (754)",
        "group": "glo-ops",
        "lat": 4.792604692678317,
        "lon": 135.79504228398744,
        "alt_km": 19159.444006681522,
        "timestamp": "2026-02-17T21:43:09.880749+00:00",
        "meta_object_name": "COSMOS 2492 (754)",
        "meta_object_id": "2014-012A",
        "meta_epoch": "2026-02-17T04:59:14.655264",
        "meta_mean_motion": 2.13103497,
        "meta_eccentricity": 0.00136621,
        "meta_inclination": 65.3673,
        "meta_ra_of_asc_node": 318.0159,
        "meta_arg_of_pericenter": 323.1488,
        "meta_mean_anomaly": 36.8108,
        "meta_ephemeris_type": 0,
        "meta_classification_type": "U",
        "meta_norad_cat_id": 39620,
        "meta_element_set_no": 999,
        "meta_rev_at_epoch": 9268,
        "meta_bstar": 0,
        "meta_mean_motion_dot": -3.1e-07,
        "meta_mean_motion_ddot": 0,
        "tle_line1": "1 39620U 14012A   26048.20780851 -.00000031  00000+0  00000+0 0  9992",
        "tle_line2": "2 39620  65.3673 318.0159 0013662 323.1488  36.8108  2.13103497 92687"
      },
      "geometry": {
        "type": "Point",
        "coordinates": [
          135.79504228398744,
          4.792604692678317
        ]
      }
    },
    {
      "type": "Feature",
      "properties": {
        "norad_id": 40001,
        "name": "COSMOS 2500 (755)",
        "group": "glo-ops",
        "lat": 38.61848036443593,
        "lon": -20.71277826714769,
        "alt_km": 19138.666978897854,
        "timestamp": "2026-02-17T21:43:09.880760+00:00",
        "meta_object_name": "COSMOS 2500 (755)",
        "meta_object_id": "2014-032A",
        "meta_epoch": "2026-02-17T09:05:56.311008",
        "meta_mean_motion": 2.13106205,
        "meta_eccentricity": 0.000547,
        "meta_inclination": 65.3027,
        "meta_ra_of_asc_node": 317.7669,
        "meta_arg_of_pericenter": 209.4168,
        "meta_mean_anomaly": 150.6067,
        "meta_ephemeris_type": 0,
        "meta_classification_type": "U",
        "meta_norad_cat_id": 40001,
        "meta_element_set_no": 999,
        "meta_rev_at_epoch": 9090,
        "meta_bstar": 0,
        "meta_mean_motion_dot": -3e-07,
        "meta_mean_motion_ddot": 0,
        "tle_line1": "1 40001U 14032A   26048.37912397 -.00000030  00000+0  00000+0 0  9998",
        "tle_line2": "2 40001  65.3027 317.7669 0005470 209.4168 150.6067  2.13106205 90908"
      },
      "geometry": {
        "type": "Point",
        "coordinates": [
          -20.71277826714769,
          38.61848036443593
        ]
      }
    },
    {
      "type": "Feature",
      "properties": {
        "norad_id": 40315,
        "name": "COSMOS 2501 (702K)",
        "group": "glo-ops",
        "lat": -21.039802326697746,
        "lon": 25.49641907329388,
        "alt_km": 19080.851289669747,
        "timestamp": "2026-02-17T21:43:09.880771+00:00",
        "meta_object_name": "COSMOS 2501 (702K)",
        "meta_object_id": "2014-075A",
        "meta_epoch": "2026-02-17T04:05:07.969632",
        "meta_mean_motion": 2.13101434,
        "meta_eccentricity": 0.00204863,
        "meta_inclination": 63.6175,
        "meta_ra_of_asc_node": 194.5235,
        "meta_arg_of_pericenter": 204.9355,
        "meta_mean_anomaly": 154.9302,
        "meta_ephemeris_type": 0,
        "meta_classification_type": "U",
        "meta_norad_cat_id": 40315,
        "meta_element_set_no": 999,
        "meta_rev_at_epoch": 8729,
        "meta_bstar": 0,
        "meta_mean_motion_dot": 4.3e-07,
        "meta_mean_motion_ddot": 0,
        "tle_line1": "1 40315U 14075A   26048.17023113  .00000043  00000+0  00000+0 0  9993",
        "tle_line2": "2 40315  63.6175 194.5235 0020486 204.9355 154.9302  2.13101434 87299"
      },
      "geometry": {
        "type": "Point",
        "coordinates": [
          25.49641907329388,
          -21.039802326697746
        ]
      }
    },
    {
      "type": "Feature",
      "properties": {
        "norad_id": 41330,
        "name": "COSMOS 2514 (751)",
        "group": "glo-ops",
        "lat": -31.910987673084296,
        "lon": 153.9006891258781,
        "alt_km": 19109.98808881563,
        "timestamp": "2026-02-17T21:43:09.880783+00:00",
        "meta_object_name": "COSMOS 2514 (751)",
        "meta_object_id": "2016-008A",
        "meta_epoch": "2026-02-17T03:42:39.560256",
        "meta_mean_motion": 2.13102631,
        "meta_eccentricity": 0.00094593,
        "meta_inclination": 65.0921,
        "meta_ra_of_asc_node": 317.1287,
        "meta_arg_of_pericenter": 213.0426,
        "meta_mean_anomaly": 146.9528,
        "meta_ephemeris_type": 0,
        "meta_classification_type": "U",
        "meta_norad_cat_id": 41330,
        "meta_element_set_no": 999,
        "meta_rev_at_epoch": 7806,
        "meta_bstar": 0,
        "meta_mean_motion_dot": -3e-07,
        "meta_mean_motion_ddot": 0,
        "tle_line1": "1 41330U 16008A   26048.15462454 -.00000030  00000+0  00000+0 0  9999",
        "tle_line2": "2 41330  65.0921 317.1287 0009459 213.0426 146.9528  2.13102631 78065"
      },
      "geometry": {
        "type": "Point",
        "coordinates": [
          153.9006891258781,
          -31.910987673084296
        ]
      }
    },
    {
      "type": "Feature",
      "properties": {
        "norad_id": 42939,
        "name": "COSMOS 2522 (752)",
        "group": "glo-ops",
        "lat": -17.92038890725838,
        "lon": -173.10444254908305,
        "alt_km": 19140.008481322067,
        "timestamp": "2026-02-17T21:43:09.880794+00:00",
        "meta_object_name": "COSMOS 2522 (752)",
        "meta_object_id": "2017-055A",
        "meta_epoch": "2026-02-16T23:49:17.044896",
        "meta_mean_motion": 2.13101895,
        "meta_eccentricity": 0.00067134,
        "meta_inclination": 64.0797,
        "meta_ra_of_asc_node": 195.9719,
        "meta_arg_of_pericenter": 224.5558,
        "meta_mean_anomaly": 135.3554,
        "meta_ephemeris_type": 0,
        "meta_classification_type": "U",
        "meta_norad_cat_id": 42939,
        "meta_element_set_no": 999,
        "meta_rev_at_epoch": 6541,
        "meta_bstar": 0,
        "meta_mean_motion_dot": 4.4e-07,
        "meta_mean_motion_ddot": 0,
        "tle_line1": "1 42939U 17055A   26047.99255839  .00000044  00000+0  00000+0 0  9990",
        "tle_line2": "2 42939  64.0797 195.9719 0006713 224.5558 135.3554  2.13101895 65413"
      },
      "geometry": {
        "type": "Point",
        "coordinates": [
          -173.10444254908305,
          -17.92038890725838
        ]
      }
    },
    {
      "type": "Feature",
      "properties": {
        "norad_id": 43508,
        "name": "COSMOS 2527 (756)",
        "group": "glo-ops",
        "lat": 8.81032625788512,
        "lon": 81.9432653426494,
        "alt_km": 19144.5000260427,
        "timestamp": "2026-02-17T21:43:09.880805+00:00",
        "meta_object_name": "COSMOS 2527 (756)",
        "meta_object_id": "2018-053A",
        "meta_epoch": "2026-02-17T10:09:13.430304",
        "meta_mean_motion": 2.13102395,
        "meta_eccentricity": 0.00097569,
        "meta_inclination": 65.5084,
        "meta_ra_of_asc_node": 77.9022,
        "meta_arg_of_pericenter": 241.8865,
        "meta_mean_anomaly": 118.0929,
        "meta_ephemeris_type": 0,
        "meta_classification_type": "U",
        "meta_norad_cat_id": 43508,
        "meta_element_set_no": 999,
        "meta_rev_at_epoch": 5972,
        "meta_bstar": 0,
        "meta_mean_motion_dot": 4.7e-07,
        "meta_mean_motion_ddot": 0,
        "tle_line1": "1 43508U 18053A   26048.42307211  .00000047  00000+0  00000+0 0  9996",
        "tle_line2": "2 43508  65.5084  77.9022 0009756 241.8865 118.0929  2.13102395 59727"
      },
      "geometry": {
        "type": "Point",
        "coordinates": [
          81.9432653426494,
          8.81032625788512
        ]
      }
    },
    {
      "type": "Feature",
      "properties": {
        "norad_id": 43687,
        "name": "COSMOS 2529 (757)",
        "group": "glo-ops",
        "lat": -54.54539705673593,
        "lon": 154.07950583905225,
        "alt_km": 19122.067898531648,
        "timestamp": "2026-02-17T21:43:09.880816+00:00",
        "meta_object_name": "COSMOS 2529 (757)",
        "meta_object_id": "2018-086A",
        "meta_epoch": "2026-02-17T01:13:07.597632",
        "meta_mean_motion": 2.13102087,
        "meta_eccentricity": 0.00073948,
        "meta_inclination": 64.296,
        "meta_ra_of_asc_node": 196.6473,
        "meta_arg_of_pericenter": 252.6716,
        "meta_mean_anomaly": 107.2129,
        "meta_ephemeris_type": 0,
        "meta_classification_type": "U",
        "meta_norad_cat_id": 43687,
        "meta_element_set_no": 999,
        "meta_rev_at_epoch": 5672,
        "meta_bstar": 0,
        "meta_mean_motion_dot": 4.5e-07,
        "meta_mean_motion_ddot": 0,
        "tle_line1": "1 43687U 18086A   26048.05078238  .00000045  00000+0  00000+0 0  9991",
        "tle_line2": "2 43687  64.2960 196.6473 0007394 252.6716 107.2129  2.13102087 56721"
      },
      "geometry": {
        "type": "Point",
        "coordinates": [
          154.07950583905225,
          -54.54539705673593
        ]
      }
    },
    {
      "type": "Feature",
      "properties": {
        "norad_id": 44299,
        "name": "COSMOS 2534 (758)",
        "group": "glo-ops",
        "lat": 57.77240099640466,
        "lon": -113.80359436961685,
        "alt_km": 19142.9905208306,
        "timestamp": "2026-02-17T21:43:09.880827+00:00",
        "meta_object_name": "COSMOS 2534 (758)",
        "meta_object_id": "2019-030A",
        "meta_epoch": "2026-02-16T23:01:33.350592",
        "meta_mean_motion": 2.13102385,
        "meta_eccentricity": 0.00090245,
        "meta_inclination": 64.3695,
        "meta_ra_of_asc_node": 196.6612,
        "meta_arg_of_pericenter": 281.7684,
        "meta_mean_anomaly": 142.4826,
        "meta_ephemeris_type": 0,
        "meta_classification_type": "U",
        "meta_norad_cat_id": 44299,
        "meta_element_set_no": 999,
        "meta_rev_at_epoch": 5236,
        "meta_bstar": 0,
        "meta_mean_motion_dot": 4.5e-07,
        "meta_mean_motion_ddot": 0,
        "tle_line1": "1 44299U 19030A   26047.95941378  .00000045  00000+0  00000+0 0  9993",
        "tle_line2": "2 44299  64.3695 196.6612 0009024 281.7684 142.4826  2.13102385 52363"
      },
      "geometry": {
        "type": "Point",
        "coordinates": [
          -113.80359436961685,
          57.77240099640466
        ]
      }
    },
    {
      "type": "Feature",
      "properties": {
        "norad_id": 44850,
        "name": "COSMOS 2544 (759)",
        "group": "glo-ops",
        "lat": 45.875068635778554,
        "lon": 105.77197968322264,
        "alt_km": 19160.872235595478,
        "timestamp": "2026-02-17T21:43:09.880838+00:00",
        "meta_object_name": "COSMOS 2544 (759)",
        "meta_object_id": "2019-088A",
        "meta_epoch": "2026-02-10T07:53:25.455840",
        "meta_mean_motion": 2.13102019,
        "meta_eccentricity": 0.0015707,
        "meta_inclination": 65.4921,
        "meta_ra_of_asc_node": 77.9649,
        "meta_arg_of_pericenter": 257.6447,
        "meta_mean_anomaly": 102.2449,
        "meta_ephemeris_type": 0,
        "meta_classification_type": "U",
        "meta_norad_cat_id": 44850,
        "meta_element_set_no": 999,
        "meta_rev_at_epoch": 4801,
        "meta_bstar": 0,
        "meta_mean_motion_dot": -8e-08,
        "meta_mean_motion_ddot": 0,
        "tle_line1": "1 44850U 19088A   26041.32876685 -.00000008  00000+0  00000+0 0  9992",
        "tle_line2": "2 44850  65.4921  77.9649 0015707 257.6447 102.2449  2.13102019 48011"
      },
      "geometry": {
        "type": "Point",
        "coordinates": [
          105.77197968322264,
          45.875068635778554
        ]
      }
    },
    {
      "type": "Feature",
      "properties": {
        "norad_id": 45358,
        "name": "COSMOS 2545 (760)",
        "group": "glo-ops",
        "lat": -63.32984672142178,
        "lon": -151.2201540238292,
        "alt_km": 19114.023558190984,
        "timestamp": "2026-02-17T21:43:09.880849+00:00",
        "meta_object_name": "COSMOS 2545 (760)",
        "meta_object_id": "2020-018A",
        "meta_epoch": "2026-02-17T02:15:22.652352",
        "meta_mean_motion": 2.13102719,
        "meta_eccentricity": 0.00089021,
        "meta_inclination": 64.4276,
        "meta_ra_of_asc_node": 316.6422,
        "meta_arg_of_pericenter": 252.4585,
        "meta_mean_anomaly": 107.4992,
        "meta_ephemeris_type": 0,
        "meta_classification_type": "U",
        "meta_norad_cat_id": 45358,
        "meta_element_set_no": 999,
        "meta_rev_at_epoch": 4610,
        "meta_bstar": 0,
        "meta_mean_motion_dot": -3e-07,
        "meta_mean_motion_ddot": 0,
        "tle_line1": "1 45358U 20018A   26048.09401218 -.00000030  00000+0  00000+0 0  9993",
        "tle_line2": "2 45358  64.4276 316.6422 0008902 252.4585 107.4992  2.13102719 46109"
      },
      "geometry": {
        "type": "Point",
        "coordinates": [
          -151.2201540238292,
          -63.32984672142178
        ]
      }
    },
    {
      "type": "Feature",
      "properties": {
        "norad_id": 46805,
        "name": "COSMOS 2547 (705K)",
        "group": "glo-ops",
        "lat": 53.23515837019081,
        "lon": -23.015772917214807,
        "alt_km": 19129.756695610977,
        "timestamp": "2026-02-17T21:43:09.880860+00:00",
        "meta_object_name": "COSMOS 2547 (705K)",
        "meta_object_id": "2020-075A",
        "meta_epoch": "2026-02-16T08:15:12.685248",
        "meta_mean_motion": 2.13100353,
        "meta_eccentricity": 0.00064124,
        "meta_inclination": 64.5999,
        "meta_ra_of_asc_node": 196.505,
        "meta_arg_of_pericenter": 228.1057,
        "meta_mean_anomaly": 131.8065,
        "meta_ephemeris_type": 0,
        "meta_classification_type": "U",
        "meta_norad_cat_id": 46805,
        "meta_element_set_no": 999,
        "meta_rev_at_epoch": 4133,
        "meta_bstar": 0,
        "meta_mean_motion_dot": 4.4e-07,
        "meta_mean_motion_ddot": 0,
        "tle_line1": "1 46805U 20075A   26047.34389682  .00000044  00000+0  00000+0 0  9995",
        "tle_line2": "2 46805  64.5999 196.5050 0006412 228.1057 131.8065  2.13100353 41334"
      },
      "geometry": {
        "type": "Point",
        "coordinates": [
          -23.015772917214807,
          53.23515837019081
        ]
      }
    },
    {
      "type": "Feature",
      "properties": {
        "norad_id": 52984,
        "name": "COSMOS 2557 (706K)",
        "group": "glo-ops",
        "lat": -8.205362812495766,
        "lon": -45.26964747035232,
        "alt_km": 19119.626894607143,
        "timestamp": "2026-02-17T21:43:09.880871+00:00",
        "meta_object_name": "COSMOS 2557 (706K)",
        "meta_object_id": "2022-075A",
        "meta_epoch": "2026-02-16T12:13:01.890624",
        "meta_mean_motion": 2.13101947,
        "meta_eccentricity": 0.00121026,
        "meta_inclination": 64.3695,
        "meta_ra_of_asc_node": 318.7392,
        "meta_arg_of_pericenter": 283.4429,
        "meta_mean_anomaly": 76.472,
        "meta_ephemeris_type": 0,
        "meta_classification_type": "U",
        "meta_norad_cat_id": 52984,
        "meta_element_set_no": 999,
        "meta_rev_at_epoch": 2814,
        "meta_bstar": 0,
        "meta_mean_motion_dot": -3.6e-07,
        "meta_mean_motion_ddot": 0,
        "tle_line1": "1 52984U 22075A   26047.50904966 -.00000036  00000+0  00000+0 0  9990",
        "tle_line2": "2 52984  64.3695 318.7392 0012102 283.4429  76.4720  2.13101947 28143"
      },
      "geometry": {
        "type": "Point",
        "coordinates": [
          -45.26964747035232,
          -8.205362812495766
        ]
      }
    },
    {
      "type": "Feature",
      "properties": {
        "norad_id": 54031,
        "name": "COSMOS 2559 (707K)",
        "group": "glo-ops",
        "lat": 44.13401379651401,
        "lon": 111.02634212269984,
        "alt_km": 19109.190933881615,
        "timestamp": "2026-02-17T21:43:09.880883+00:00",
        "meta_object_name": "COSMOS 2559 (707K)",
        "meta_object_id": "2022-130A",
        "meta_epoch": "2026-02-17T06:24:21.959712",
        "meta_mean_motion": 2.13101196,
        "meta_eccentricity": 0.00106048,
        "meta_inclination": 64.3411,
        "meta_ra_of_asc_node": 318.7996,
        "meta_arg_of_pericenter": 184.1042,
        "meta_mean_anomaly": 175.9391,
        "meta_ephemeris_type": 0,
        "meta_classification_type": "U",
        "meta_norad_cat_id": 54031,
        "meta_element_set_no": 999,
        "meta_rev_at_epoch": 2613,
        "meta_bstar": 0,
        "meta_mean_motion_dot": -3.3e-07,
        "meta_mean_motion_ddot": 0,
        "tle_line1": "1 54031U 22130A   26048.26692083 -.00000033  00000+0  00000+0 0  9992",
        "tle_line2": "2 54031  64.3411 318.7996 0010604 184.1042 175.9391  2.13101196 26139"
      },
      "geometry": {
        "type": "Point",
        "coordinates": [
          111.02634212269984,
          44.13401379651401
        ]
      }
    },
    {
      "type": "Feature",
      "properties": {
        "norad_id": 54377,
        "name": "COSMOS 2564 (761)",
        "group": "glo-ops",
        "lat": -57.920444760669014,
        "lon": 65.5035029446268,
        "alt_km": 19119.16937084403,
        "timestamp": "2026-02-17T21:43:09.880893+00:00",
        "meta_object_name": "COSMOS 2564 (761)",
        "meta_object_id": "2022-161A",
        "meta_epoch": "2026-02-17T02:39:09.486144",
        "meta_mean_motion": 2.13101908,
        "meta_eccentricity": 0.00090651,
        "meta_inclination": 64.742,
        "meta_ra_of_asc_node": 196.6941,
        "meta_arg_of_pericenter": 206.9659,
        "meta_mean_anomaly": 152.9527,
        "meta_ephemeris_type": 0,
        "meta_classification_type": "U",
        "meta_norad_cat_id": 54377,
        "meta_element_set_no": 999,
        "meta_rev_at_epoch": 2507,
        "meta_bstar": 0,
        "meta_mean_motion_dot": 4.6e-07,
        "meta_mean_motion_ddot": 0,
        "tle_line1": "1 54377U 22161A   26048.11052646  .00000046  00000+0  00000+0 0  9991",
        "tle_line2": "2 54377  64.7420 196.6941 0009065 206.9659 152.9527  2.13101908 25074"
      },
      "geometry": {
        "type": "Point",
        "coordinates": [
          65.5035029446268,
          -57.920444760669014
        ]
      }
    },
    {
      "type": "Feature",
      "properties": {
        "norad_id": 57517,
        "name": "COSMOS 2569 (703K)",
        "group": "glo-ops",
        "lat": -51.2568480768275,
        "lon": -68.21819945219265,
        "alt_km": 19115.2407211305,
        "timestamp": "2026-02-17T21:43:09.880904+00:00",
        "meta_object_name": "COSMOS 2569 (703K)",
        "meta_object_id": "2023-114A",
        "meta_epoch": "2026-02-17T02:58:02.546112",
        "meta_mean_motion": 2.13103974,
        "meta_eccentricity": 0.00127077,
        "meta_inclination": 65.2317,
        "meta_ra_of_asc_node": 76.6691,
        "meta_arg_of_pericenter": 290.4326,
        "meta_mean_anomaly": 69.5081,
        "meta_ephemeris_type": 0,
        "meta_classification_type": "U",
        "meta_norad_cat_id": 57517,
        "meta_element_set_no": 999,
        "meta_rev_at_epoch": 1970,
        "meta_bstar": 0,
        "meta_mean_motion_dot": 4.6e-07,
        "meta_mean_motion_ddot": 0,
        "tle_line1": "1 57517U 23114A   26048.12364058  .00000046  00000+0  00000+0 0  9993",
        "tle_line2": "2 57517  65.2317  76.6691 0012707 290.4326  69.5081  2.13103974 19705"
      },
      "geometry": {
        "type": "Point",
        "coordinates": [
          -68.21819945219265,
          -51.2568480768275
        ]
      }
    },
    {
      "type": "Feature",
      "properties": {
        "norad_id": 63130,
        "name": "COSMOS 2584 (704K)",
        "group": "glo-ops",
        "lat": -30.219219859209986,
        "lon": 61.09898718035019,
        "alt_km": 19134.3829523907,
        "timestamp": "2026-02-17T21:43:09.880916+00:00",
        "meta_object_name": "COSMOS 2584 (704K)",
        "meta_object_id": "2025-042A",
        "meta_epoch": "2026-02-17T11:30:47.877984",
        "meta_mean_motion": 2.13103231,
        "meta_eccentricity": 0.00079016,
        "meta_inclination": 65.0139,
        "meta_ra_of_asc_node": 76.8714,
        "meta_arg_of_pericenter": 234.7533,
        "meta_mean_anomaly": 125.2493,
        "meta_ephemeris_type": 0,
        "meta_classification_type": "U",
        "meta_norad_cat_id": 63130,
        "meta_element_set_no": 999,
        "meta_rev_at_epoch": 749,
        "meta_bstar": 0,
        "meta_mean_motion_dot": 4.5e-07,
        "meta_mean_motion_ddot": 0,
        "tle_line1": "1 63130U 25042A   26048.47972081  .00000045  00000+0  00000+0 0  9991",
        "tle_line2": "2 63130  65.0139  76.8714 0007901 234.7533 125.2493  2.13103231  7498"
      },
      "geometry": {
        "type": "Point",
        "coordinates": [
          61.09898718035019,
          -30.219219859209986
        ]
      }
    },
    {
      "type": "Feature",
      "properties": {
        "norad_id": 65590,
        "name": "COSMOS 2596 (708K)",
        "group": "glo-ops",
        "lat": 64.0796698064772,
        "lon": 35.459321515026915,
        "alt_km": 19144.890228709468,
        "timestamp": "2026-02-17T21:43:09.880927+00:00",
        "meta_object_name": "COSMOS 2596 (708K)",
        "meta_object_id": "2025-206B",
        "meta_epoch": "2026-02-17T11:40:42.984768",
        "meta_mean_motion": 2.13100207,
        "meta_eccentricity": 0.00133261,
        "meta_inclination": 64.7036,
        "meta_ra_of_asc_node": 319.1556,
        "meta_arg_of_pericenter": 314.1449,
        "meta_mean_anomaly": 168.8746,
        "meta_ephemeris_type": 0,
        "meta_classification_type": "U",
        "meta_norad_cat_id": 65590,
        "meta_element_set_no": 999,
        "meta_rev_at_epoch": 336,
        "meta_bstar": 0,
        "meta_mean_motion_dot": -3.3e-07,
        "meta_mean_motion_ddot": 0,
        "tle_line1": "1 65590U 25206B   26048.48660862 -.00000033  00000+0  00000+0 0  9995",
        "tle_line2": "2 65590  64.7036 319.1556 0013326 314.1449 168.8746  2.13100207  3362"
      },
      "geometry": {
        "type": "Point",
        "coordinates": [
          35.459321515026915,
          64.0796698064772
        ]
      }
    }
  ]
}