{
  "type": "FeatureCollection",
  "features": [
    {
      "type": "Feature",
      "properties": {
        "norad_id": 24876,
        "name": "GPS BIIR-2  (PRN 13)",
        "group": "gps-ops",
        "lat": 50.426267053590486,
        "lon": 159.48639300155017,
        "alt_km": 19923.850382689736,
        "timestamp": "2026-01-14T17:34:28.190154+00:00",
        "meta_object_name": "GPS BIIR-2  (PRN 13)",
        "meta_object_id": "1997-035A",
        "meta_epoch": "2026-01-14T03:22:12.639648",
        "meta_mean_motion": 2.00563937,
        "meta_eccentricity": 0.0097036,
        "meta_inclination": 55.91,
        "meta_ra_of_asc_node": 104.6007,
        "meta_arg_of_pericenter": 56.7649,
        "meta_mean_anomaly": 304.1736,
        "meta_ephemeris_type": 0,
        "meta_classification_type": "U",
        "meta_norad_cat_id": 24876,
        "meta_element_set_no": 999,
        "meta_rev_at_epoch": 20886,
        "meta_bstar": 0,
        "meta_mean_motion_dot": -4.7e-07,
        "meta_mean_motion_ddot": 0,
        "tle_line1": "1 24876U 97035A   26014.14042407 -.00000047  00000+0  00000+0 0  9996",
        "tle_line2": "2 24876  55.9100 104.6007 0097036  56.7649 304.1736  2.00563937208862"
      },
      "geometry": {
        "type": "Point",
        "coordinates": [
          159.48639300155017,
          50.426267053590486
        ]
      }
    },
    {
      "type": "Feature",
      "properties": {
        "norad_id": 26407,
        "name": "GPS BIIR-5  (PRN 22)",
        "group": "gps-ops",
        "lat": 1.3242458036408282,
        "lon": -137.79865578836012,
        "alt_km": 20010.762637118336,
        "timestamp": "2026-01-14T17:34:28.190181+00:00",
        "meta_object_name": "GPS BIIR-5  (PRN 22)",
        "meta_object_id": "2000-040A",
        "meta_epoch": "2026-01-13T23:21:37.915200",
        "meta_mean_motion": 2.00568467,
        "meta_eccentricity": 0.01243967,
        "meta_inclination": 54.8843,
        "meta_ra_of_asc_node": 221.2864,
        "meta_arg_of_pericenter": 302.26,
        "meta_mean_anomaly": 230.2118,
        "meta_ephemeris_type": 0,
        "meta_classification_type": "U",
        "meta_norad_cat_id": 26407,
        "meta_element_set_no": 999,
        "meta_rev_at_epoch": 18685,
        "meta_bstar": 0,
        "meta_mean_motion_dot": 9.9e-07,
        "meta_mean_motion_ddot": 0,
        "tle_line1": "1 26407U 00040A   26013.97335550  .00000099  00000+0  00000+0 0  9998",
        "tle_line2": "2 26407  54.8843 221.2864 0124396 302.2600 230.2118  2.00568467186859"
      },
      "geometry": {
        "type": "Point",
        "coordinates": [
          -137.79865578836012,
          1.3242458036408282
        ]
      }
    },
    {
      "type": "Feature",
      "properties": {
        "norad_id": 27663,
        "name": "GPS BIIR-8  (PRN 16)",
        "group": "gps-ops",
        "lat": 33.01791146250973,
        "lon": 13.894695771503157,
        "alt_km": 20144.07690518066,
        "timestamp": "2026-01-14T17:34:28.190196+00:00",
        "meta_object_name": "GPS BIIR-8  (PRN 16)",
        "meta_object_id": "2003-005A",
        "meta_epoch": "2026-01-13T13:28:31.681920",
        "meta_mean_motion": 2.00569212,
        "meta_eccentricity": 0.01483937,
        "meta_inclination": 54.9169,
        "meta_ra_of_asc_node": 221.1118,
        "meta_arg_of_pericenter": 52.228,
        "meta_mean_anomaly": 318.9289,
        "meta_ephemeris_type": 0,
        "meta_classification_type": "U",
        "meta_norad_cat_id": 27663,
        "meta_element_set_no": 999,
        "meta_rev_at_epoch": 16821,
        "meta_bstar": 0,
        "meta_mean_motion_dot": 9.8e-07,
        "meta_mean_motion_ddot": 0,
        "tle_line1": "1 27663U 03005A   26013.56147780  .00000098  00000+0  00000+0 0  9997",
        "tle_line2": "2 27663  54.9169 221.1118 0148393  52.2280 318.9289  2.00569212168218"
      },
      "geometry": {
        "type": "Point",
        "coordinates": [
          13.894695771503157,
          33.01791146250973
        ]
      }
    },
    {
      "type": "Feature",
      "properties": {
        "norad_id": 28190,
        "name": "GPS BIIR-11 (PRN 19)",
        "group": "gps-ops",
        "lat": -47.89860436885768,
        "lon": -128.97405769886737,
        "alt_km": 20359.88431385371,
        "timestamp": "2026-01-14T17:34:28.190213+00:00",
        "meta_object_name": "GPS BIIR-11 (PRN 19)",
        "meta_object_id": "2004-009A",
        "meta_epoch": "2026-01-12T20:08:55.978656",
        "meta_mean_motion": 2.00559773,
        "meta_eccentricity": 0.01089912,
        "meta_inclination": 54.9575,
        "meta_ra_of_asc_node": 281.9645,
        "meta_arg_of_pericenter": 168.0793,
        "meta_mean_anomaly": 199.3637,
        "meta_ephemeris_type": 0,
        "meta_classification_type": "U",
        "meta_norad_cat_id": 28190,
        "meta_element_set_no": 999,
        "meta_rev_at_epoch": 15983,
        "meta_bstar": 0,
        "meta_mean_motion_dot": -4.6e-07,
        "meta_mean_motion_ddot": 0,
        "tle_line1": "1 28190U 04009A   26012.83953679 -.00000046  00000+0  00000+0 0  9993",
        "tle_line2": "2 28190  54.9575 281.9645 0108991 168.0793 199.3637  2.00559773159836"
      },
      "geometry": {
        "type": "Point",
        "coordinates": [
          -128.97405769886737,
          -47.89860436885768
        ]
      }
    },
    {
      "type": "Feature",
      "properties": {
        "norad_id": 28474,
        "name": "GPS BIIR-13 (PRN 02)",
        "group": "gps-ops",
        "lat": -2.7241645429614456,
        "lon": -30.832182984700562,
        "alt_km": 19861.800541552424,
        "timestamp": "2026-01-14T17:34:28.190230+00:00",
        "meta_object_name": "GPS BIIR-13 (PRN 02)",
        "meta_object_id": "2004-045A",
        "meta_epoch": "2026-01-13T11:40:54.398208",
        "meta_mean_motion": 2.00571103,
        "meta_eccentricity": 0.0171141,
        "meta_inclination": 55.224,
        "meta_ra_of_asc_node": 331.1288,
        "meta_arg_of_pericenter": 310.6801,
        "meta_mean_anomaly": 225.2327,
        "meta_ephemeris_type": 0,
        "meta_classification_type": "U",
        "meta_norad_cat_id": 28474,
        "meta_element_set_no": 999,
        "meta_rev_at_epoch": 15532,
        "meta_bstar": 0,
        "meta_mean_motion_dot": -1e-06,
        "meta_mean_motion_ddot": 0,
        "tle_line1": "1 28474U 04045A   26013.48674072 -.00000100  00000+0  00000+0 0  9998",
        "tle_line2": "2 28474  55.2240 331.1288 0171141 310.6801 225.2327  2.00571103155323"
      },
      "geometry": {
        "type": "Point",
        "coordinates": [
          -30.832182984700562,
          -2.7241645429614456
        ]
      }
    },
    {
      "type": "Feature",
      "properties": {
        "norad_id": 28874,
        "name": "GPS BIIRM-1 (PRN 17)",
        "group": "gps-ops",
        "lat": -34.99263243250745,
        "lon": -109.95336289233892,
        "alt_km": 19861.730526208386,
        "timestamp": "2026-01-14T17:34:28.190243+00:00",
        "meta_object_name": "GPS BIIRM-1 (PRN 17)",
        "meta_object_id": "2005-038A",
        "meta_epoch": "2026-01-13T12:45:34.565184",
        "meta_mean_motion": 2.00576443,
        "meta_eccentricity": 0.01305419,
        "meta_inclination": 55.0035,
        "meta_ra_of_asc_node": 279.4196,
        "meta_arg_of_pericenter": 294.3627,
        "meta_mean_anomaly": 233.7697,
        "meta_ephemeris_type": 0,
        "meta_classification_type": "U",
        "meta_norad_cat_id": 28874,
        "meta_element_set_no": 999,
        "meta_rev_at_epoch": 14873,
        "meta_bstar": 0,
        "meta_mean_motion_dot": -3.3e-07,
        "meta_mean_motion_ddot": 0,
        "tle_line1": "1 28874U 05038A   26013.53165006 -.00000033  00000+0  00000+0 0  9998",
        "tle_line2": "2 28874  55.0035 279.4196 0130541 294.3627 233.7697  2.00576443148735"
      },
      "geometry": {
        "type": "Point",
        "coordinates": [
          -109.95336289233892,
          -34.99263243250745
        ]
      }
    },
    {
      "type": "Feature",
      "properties": {
        "norad_id": 29486,
        "name": "GPS BIIRM-2 (PRN 31)",
        "group": "gps-ops",
        "lat": -28.600171112690084,
        "lon": 0.14029419192879236,
        "alt_km": 20458.661020351763,
        "timestamp": "2026-01-14T17:34:28.190255+00:00",
        "meta_object_name": "GPS BIIRM-2 (PRN 31)",
        "meta_object_id": "2006-042A",
        "meta_epoch": "2026-01-13T04:23:15.241920",
        "meta_mean_motion": 2.00553014,
        "meta_eccentricity": 0.01070625,
        "meta_inclination": 54.6973,
        "meta_ra_of_asc_node": 157.4931,
        "meta_arg_of_pericenter": 52.5783,
        "meta_mean_anomaly": 124.1711,
        "meta_ephemeris_type": 0,
        "meta_classification_type": "U",
        "meta_norad_cat_id": 29486,
        "meta_element_set_no": 999,
        "meta_rev_at_epoch": 14128,
        "meta_bstar": 0,
        "meta_mean_motion_dot": 4.5e-07,
        "meta_mean_motion_ddot": 0,
        "tle_line1": "1 29486U 06042A   26013.18281530  .00000045  00000+0  00000+0 0  9998",
        "tle_line2": "2 29486  54.6973 157.4931 0107062  52.5783 124.1711  2.00553014141284"
      },
      "geometry": {
        "type": "Point",
        "coordinates": [
          0.14029419192879236,
          -28.600171112690084
        ]
      }
    },
    {
      "type": "Feature",
      "properties": {
        "norad_id": 29601,
        "name": "GPS BIIRM-3 (PRN 12)",
        "group": "gps-ops",
        "lat": -54.57236178072005,
        "lon": 139.54274615868405,
        "alt_km": 20419.516713184068,
        "timestamp": "2026-01-14T17:34:28.190267+00:00",
        "meta_object_name": "GPS BIIRM-3 (PRN 12)",
        "meta_object_id": "2006-052A",
        "meta_epoch": "2026-01-12T08:35:18.363552",
        "meta_mean_motion": 2.00575748,
        "meta_eccentricity": 0.00883413,
        "meta_inclination": 54.9652,
        "meta_ra_of_asc_node": 220.1823,
        "meta_arg_of_pericenter": 87.8687,
        "meta_mean_anomaly": 273.1995,
        "meta_ephemeris_type": 0,
        "meta_classification_type": "U",
        "meta_norad_cat_id": 29601,
        "meta_element_set_no": 999,
        "meta_rev_at_epoch": 14028,
        "meta_bstar": 0,
        "meta_mean_motion_dot": 9e-07,
        "meta_mean_motion_ddot": 0,
        "tle_line1": "1 29601U 06052A   26012.35785143  .00000090  00000+0  00000+0 0  9995",
        "tle_line2": "2 29601  54.9652 220.1823 0088341  87.8687 273.1995  2.00575748140286"
      },
      "geometry": {
        "type": "Point",
        "coordinates": [
          139.54274615868405,
          -54.57236178072005
        ]
      }
    },
    {
      "type": "Feature",
      "properties": {
        "norad_id": 32260,
        "name": "GPS BIIRM-4 (PRN 15)",
        "group": "gps-ops",
        "lat": 40.47264429743504,
        "lon": 124.7279780067862,
        "alt_km": 19807.151788560936,
        "timestamp": "2026-01-14T17:34:28.190279+00:00",
        "meta_object_name": "GPS BIIRM-4 (PRN 15)",
        "meta_object_id": "2007-047A",
        "meta_epoch": "2026-01-14T03:51:53.080992",
        "meta_mean_motion": 2.00563223,
        "meta_eccentricity": 0.01637474,
        "meta_inclination": 53.9775,
        "meta_ra_of_asc_node": 86.4184,
        "meta_arg_of_pericenter": 85.5873,
        "meta_mean_anomaly": 276.32,
        "meta_ephemeris_type": 0,
        "meta_classification_type": "U",
        "meta_norad_cat_id": 32260,
        "meta_element_set_no": 999,
        "meta_rev_at_epoch": 13372,
        "meta_bstar": 0,
        "meta_mean_motion_dot": -5.7e-07,
        "meta_mean_motion_ddot": 0,
        "tle_line1": "1 32260U 07047A   26014.16103103 -.00000057  00000+0  00000+0 0  9990",
        "tle_line2": "2 32260  53.9775  86.4184 0163747  85.5873 276.3200  2.00563223133725"
      },
      "geometry": {
        "type": "Point",
        "coordinates": [
          124.7279780067862,
          40.47264429743504
        ]
      }
    },
    {
      "type": "Feature",
      "properties": {
        "norad_id": 32384,
        "name": "GPS BIIRM-5 (PRN 29)",
        "group": "gps-ops",
        "lat": -2.0840346846429054,
        "lon": 101.774077537098,
        "alt_km": 20105.19473887393,
        "timestamp": "2026-01-14T17:34:28.190291+00:00",
        "meta_object_name": "GPS BIIRM-5 (PRN 29)",
        "meta_object_id": "2007-062A",
        "meta_epoch": "2026-01-14T05:23:04.106976",
        "meta_mean_motion": 2.00550594,
        "meta_eccentricity": 0.00316718,
        "meta_inclination": 55.1539,
        "meta_ra_of_asc_node": 280.3419,
        "meta_arg_of_pericenter": 161.5262,
        "meta_mean_anomaly": 14.1686,
        "meta_ephemeris_type": 0,
        "meta_classification_type": "U",
        "meta_norad_cat_id": 32384,
        "meta_element_set_no": 999,
        "meta_rev_at_epoch": 13242,
        "meta_bstar": 0,
        "meta_mean_motion_dot": -2.8e-07,
        "meta_mean_motion_ddot": 0,
        "tle_line1": "1 32384U 07062A   26014.22435309 -.00000028  00000+0  00000+0 0  9995",
        "tle_line2": "2 32384  55.1539 280.3419 0031671 161.5262  14.1686  2.00550594132426"
      },
      "geometry": {
        "type": "Point",
        "coordinates": [
          101.774077537098,
          -2.0840346846429054
        ]
      }
    },
    {
      "type": "Feature",
      "properties": {
        "norad_id": 32711,
        "name": "GPS BIIRM-6 (PRN 07)",
        "group": "gps-ops",
        "lat": 51.20118343021391,
        "lon": -86.58585626591669,
        "alt_km": 20577.28913386948,
        "timestamp": "2026-01-14T17:34:28.190303+00:00",
        "meta_object_name": "GPS BIIRM-6 (PRN 07)",
        "meta_object_id": "2008-012A",
        "meta_epoch": "2026-01-13T13:58:25.421088",
        "meta_mean_motion": 2.00567058,
        "meta_eccentricity": 0.02040101,
        "meta_inclination": 54.4806,
        "meta_ra_of_asc_node": 156.1016,
        "meta_arg_of_pericenter": 245.3623,
        "meta_mean_anomaly": 112.4708,
        "meta_ephemeris_type": 0,
        "meta_classification_type": "U",
        "meta_norad_cat_id": 32711,
        "meta_element_set_no": 999,
        "meta_rev_at_epoch": 13065,
        "meta_bstar": 0,
        "meta_mean_motion_dot": 3.8e-07,
        "meta_mean_motion_ddot": 0,
        "tle_line1": "1 32711U 08012A   26013.58223867  .00000038  00000+0  00000+0 0  9997",
        "tle_line2": "2 32711  54.4806 156.1016 0204010 245.3623 112.4708  2.00567058130656"
      },
      "geometry": {
        "type": "Point",
        "coordinates": [
          -86.58585626591669,
          51.20118343021391
        ]
      }
    },
    {
      "type": "Feature",
      "properties": {
        "norad_id": 35752,
        "name": "GPS BIIRM-8 (PRN 05)",
        "group": "gps-ops",
        "lat": 40.72289175530819,
        "lon": 178.15092111654369,
        "alt_km": 20083.458957191942,
        "timestamp": "2026-01-14T17:34:28.190315+00:00",
        "meta_object_name": "GPS BIIRM-8 (PRN 05)",
        "meta_object_id": "2009-043A",
        "meta_epoch": "2026-01-14T03:14:28.796064",
        "meta_mean_motion": 2.00563751,
        "meta_eccentricity": 0.00513288,
        "meta_inclination": 56.114,
        "meta_ra_of_asc_node": 33.5058,
        "meta_arg_of_pericenter": 81.314,
        "meta_mean_anomaly": 335.2324,
        "meta_ephemeris_type": 0,
        "meta_classification_type": "U",
        "meta_norad_cat_id": 35752,
        "meta_element_set_no": 999,
        "meta_rev_at_epoch": 12027,
        "meta_bstar": 0,
        "meta_mean_motion_dot": -6.1e-07,
        "meta_mean_motion_ddot": 0,
        "tle_line1": "1 35752U 09043A   26014.13505551 -.00000061  00000+0  00000+0 0  9992",
        "tle_line2": "2 35752  56.1140  33.5058 0051328  81.3140 335.2324  2.00563751120274"
      },
      "geometry": {
        "type": "Point",
        "coordinates": [
          178.15092111654369,
          40.72289175530819
        ]
      }
    },
    {
      "type": "Feature",
      "properties": {
        "norad_id": 36585,
        "name": "GPS BIIF-1  (PRN 25)",
        "group": "gps-ops",
        "lat": -47.44888128921077,
        "lon": 86.35159841364596,
        "alt_km": 20526.170936337738,
        "timestamp": "2026-01-14T17:34:28.190327+00:00",
        "meta_object_name": "GPS BIIF-1  (PRN 25)",
        "meta_object_id": "2010-022A",
        "meta_epoch": "2026-01-14T03:22:03.296352",
        "meta_mean_motion": 2.00554937,
        "meta_eccentricity": 0.01271032,
        "meta_inclination": 54.2959,
        "meta_ra_of_asc_node": 214.7666,
        "meta_arg_of_pericenter": 65.4449,
        "meta_mean_anomaly": 112.3179,
        "meta_ephemeris_type": 0,
        "meta_classification_type": "U",
        "meta_norad_cat_id": 36585,
        "meta_element_set_no": 999,
        "meta_rev_at_epoch": 11450,
        "meta_bstar": 0,
        "meta_mean_motion_dot": 1.03e-06,
        "meta_mean_motion_ddot": 0,
        "tle_line1": "1 36585U 10022A   26014.14031593  .00000103  00000+0  00000+0 0  9993",
        "tle_line2": "2 36585  54.2959 214.7666 0127103  65.4449 112.3179  2.00554937114501"
      },
      "geometry": {
        "type": "Point",
        "coordinates": [
          86.35159841364596,
          -47.44888128921077
        ]
      }
    },
    {
      "type": "Feature",
      "properties": {
        "norad_id": 38833,
        "name": "GPS BIIF-3  (PRN 24)",
        "group": "gps-ops",
        "lat": -14.357308456234808,
        "lon": 138.98379362250273,
        "alt_km": 20113.535764379587,
        "timestamp": "2026-01-14T17:34:28.190337+00:00",
        "meta_object_name": "GPS BIIF-3  (PRN 24)",
        "meta_object_id": "2012-053A",
        "meta_epoch": "2026-01-13T06:16:04.840032",
        "meta_mean_motion": 2.00565291,
        "meta_eccentricity": 0.0176403,
        "meta_inclination": 53.5621,
        "meta_ra_of_asc_node": 149.9477,
        "meta_arg_of_pericenter": 64.3779,
        "meta_mean_anomaly": 297.3996,
        "meta_ephemeris_type": 0,
        "meta_classification_type": "U",
        "meta_norad_cat_id": 38833,
        "meta_element_set_no": 999,
        "meta_rev_at_epoch": 9633,
        "meta_bstar": 0,
        "meta_mean_motion_dot": 2.7e-07,
        "meta_mean_motion_ddot": 0,
        "tle_line1": "1 38833U 12053A   26013.26116713  .00000027  00000+0  00000+0 0  9992",
        "tle_line2": "2 38833  53.5621 149.9477 0176403  64.3779 297.3996  2.00565291 96333"
      },
      "geometry": {
        "type": "Point",
        "coordinates": [
          138.98379362250273,
          -14.357308456234808
        ]
      }
    },
    {
      "type": "Feature",
      "properties": {
        "norad_id": 39166,
        "name": "GPS BIIF-4  (PRN 27)",
        "group": "gps-ops",
        "lat": 53.9044344087824,
        "lon": -8.039367646067559,
        "alt_km": 19863.795113735203,
        "timestamp": "2026-01-14T17:34:28.190348+00:00",
        "meta_object_name": "GPS BIIF-4  (PRN 27)",
        "meta_object_id": "2013-023A",
        "meta_epoch": "2026-01-13T14:58:44.768064",
        "meta_mean_motion": 2.00564611,
        "meta_eccentricity": 0.01397413,
        "meta_inclination": 54.6246,
        "meta_ra_of_asc_node": 275.2707,
        "meta_arg_of_pericenter": 49.0627,
        "meta_mean_anomaly": 312.1959,
        "meta_ephemeris_type": 0,
        "meta_classification_type": "U",
        "meta_norad_cat_id": 39166,
        "meta_element_set_no": 999,
        "meta_rev_at_epoch": 9278,
        "meta_bstar": 0,
        "meta_mean_motion_dot": -2.2e-07,
        "meta_mean_motion_ddot": 0,
        "tle_line1": "1 39166U 13023A   26013.62412926 -.00000022  00000+0  00000+0 0  9991",
        "tle_line2": "2 39166  54.6246 275.2707 0139741  49.0627 312.1959  2.00564611 92788"
      },
      "geometry": {
        "type": "Point",
        "coordinates": [
          -8.039367646067559,
          53.9044344087824
        ]
      }
    },
    {
      "type": "Feature",
      "properties": {
        "norad_id": 39533,
        "name": "GPS BIIF-5  (PRN 30)",
        "group": "gps-ops",
        "lat": 52.8979017681943,
        "lon": -127.58457752670706,
        "alt_km": 20350.162259052817,
        "timestamp": "2026-01-14T17:34:28.190360+00:00",
        "meta_object_name": "GPS BIIF-5  (PRN 30)",
        "meta_object_id": "2014-008A",
        "meta_epoch": "2026-01-13T14:52:21.315360",
        "meta_mean_motion": 2.00550099,
        "meta_eccentricity": 0.00804024,
        "meta_inclination": 53.6351,
        "meta_ra_of_asc_node": 155.6251,
        "meta_arg_of_pericenter": 226.598,
        "meta_mean_anomaly": 132.6996,
        "meta_ephemeris_type": 0,
        "meta_classification_type": "U",
        "meta_norad_cat_id": 39533,
        "meta_element_set_no": 999,
        "meta_rev_at_epoch": 8658,
        "meta_bstar": 0,
        "meta_mean_motion_dot": 3.6e-07,
        "meta_mean_motion_ddot": 0,
        "tle_line1": "1 39533U 14008A   26013.61969115  .00000036  00000+0  00000+0 0  9993",
        "tle_line2": "2 39533  53.6351 155.6251 0080402 226.5980 132.6996  2.00550099 86582"
      },
      "geometry": {
        "type": "Point",
        "coordinates": [
          -127.58457752670706,
          52.8979017681943
        ]
      }
    },
    {
      "type": "Feature",
      "properties": {
        "norad_id": 39741,
        "name": "GPS BIIF-6  (PRN 06)",
        "group": "gps-ops",
        "lat": -45.72583132648715,
        "lon": -159.9067866079526,
        "alt_km": 20171.87088974381,
        "timestamp": "2026-01-14T17:34:28.190371+00:00",
        "meta_object_name": "GPS BIIF-6  (PRN 06)",
        "meta_object_id": "2014-026A",
        "meta_epoch": "2026-01-13T21:38:20.825088",
        "meta_mean_motion": 2.00572341,
        "meta_eccentricity": 0.00399056,
        "meta_inclination": 56.5704,
        "meta_ra_of_asc_node": 337.5257,
        "meta_arg_of_pericenter": 321.3236,
        "meta_mean_anomaly": 38.3873,
        "meta_ephemeris_type": 0,
        "meta_classification_type": "U",
        "meta_norad_cat_id": 39741,
        "meta_element_set_no": 999,
        "meta_rev_at_epoch": 8544,
        "meta_bstar": 0,
        "meta_mean_motion_dot": -9.7e-07,
        "meta_mean_motion_ddot": 0,
        "tle_line1": "1 39741U 14026A   26013.90162992 -.00000097  00000+0  00000+0 0  9992",
        "tle_line2": "2 39741  56.5704 337.5257 0039905 321.3236  38.3873  2.00572341 85448"
      },
      "geometry": {
        "type": "Point",
        "coordinates": [
          -159.9067866079526,
          -45.72583132648715
        ]
      }
    },
    {
      "type": "Feature",
      "properties": {
        "norad_id": 40105,
        "name": "GPS BIIF-7  (PRN 09)",
        "group": "gps-ops",
        "lat": 1.264817519286338,
        "lon": -86.28152414141135,
        "alt_km": 20136.380939410814,
        "timestamp": "2026-01-14T17:34:28.190382+00:00",
        "meta_object_name": "GPS BIIF-7  (PRN 09)",
        "meta_object_id": "2014-045A",
        "meta_epoch": "2026-01-12T23:46:10.656768",
        "meta_mean_motion": 2.00574585,
        "meta_eccentricity": 0.00318307,
        "meta_inclination": 55.2479,
        "meta_ra_of_asc_node": 94.6512,
        "meta_arg_of_pericenter": 120.4545,
        "meta_mean_anomaly": 239.8868,
        "meta_ephemeris_type": 0,
        "meta_classification_type": "U",
        "meta_norad_cat_id": 40105,
        "meta_element_set_no": 999,
        "meta_rev_at_epoch": 8296,
        "meta_bstar": 0,
        "meta_mean_motion_dot": -5.7e-07,
        "meta_mean_motion_ddot": 0,
        "tle_line1": "1 40105U 14045A   26012.99040112 -.00000057  00000+0  00000+0 0  9992",
        "tle_line2": "2 40105  55.2479  94.6512 0031830 120.4545 239.8868  2.00574585 82962"
      },
      "geometry": {
        "type": "Point",
        "coordinates": [
          -86.28152414141135,
          1.264817519286338
        ]
      }
    },
    {
      "type": "Feature",
      "properties": {
        "norad_id": 40294,
        "name": "GPS BIIF-8  (PRN 03)",
        "group": "gps-ops",
        "lat": -56.58205176244935,
        "lon": -61.58240496490738,
        "alt_km": 20343.687444658703,
        "timestamp": "2026-01-14T17:34:28.190394+00:00",
        "meta_object_name": "GPS BIIF-8  (PRN 03)",
        "meta_object_id": "2014-068A",
        "meta_epoch": "2026-01-13T20:48:17.036640",
        "meta_mean_motion": 2.00566978,
        "meta_eccentricity": 0.00611466,
        "meta_inclination": 56.8822,
        "meta_ra_of_asc_node": 36.9034,
        "meta_arg_of_pericenter": 68.564,
        "meta_mean_anomaly": 292.141,
        "meta_ephemeris_type": 0,
        "meta_classification_type": "U",
        "meta_norad_cat_id": 40294,
        "meta_element_set_no": 999,
        "meta_rev_at_epoch": 8211,
        "meta_bstar": 0,
        "meta_mean_motion_dot": -6e-07,
        "meta_mean_motion_ddot": 0,
        "tle_line1": "1 40294U 14068A   26013.86686385 -.00000060  00000+0  00000+0 0  9995",
        "tle_line2": "2 40294  56.8822  36.9034 0061146  68.5640 292.1410  2.00566978 82118"
      },
      "geometry": {
        "type": "Point",
        "coordinates": [
          -61.58240496490738,
          -56.58205176244935
        ]
      }
    },
    {
      "type": "Feature",
      "properties": {
        "norad_id": 40534,
        "name": "GPS BIIF-9  (PRN 26)",
        "group": "gps-ops",
        "lat": 5.829848524521373,
        "lon": 26.146518088921354,
        "alt_km": 20377.88265262383,
        "timestamp": "2026-01-14T17:34:28.190404+00:00",
        "meta_object_name": "GPS BIIF-9  (PRN 26)",
        "meta_object_id": "2015-013A",
        "meta_epoch": "2026-01-13T11:57:34.412544",
        "meta_mean_motion": 2.00560759,
        "meta_eccentricity": 0.0108093,
        "meta_inclination": 53.1938,
        "meta_ra_of_asc_node": 210.5744,
        "meta_arg_of_pericenter": 39.1588,
        "meta_mean_anomaly": 321.6633,
        "meta_ephemeris_type": 0,
        "meta_classification_type": "U",
        "meta_norad_cat_id": 40534,
        "meta_element_set_no": 999,
        "meta_rev_at_epoch": 7872,
        "meta_bstar": 0,
        "meta_mean_motion_dot": 1.01e-06,
        "meta_mean_motion_ddot": 0,
        "tle_line1": "1 40534U 15013A   26013.49831496  .00000101  00000+0  00000+0 0  9992",
        "tle_line2": "2 40534  53.1938 210.5744 0108093  39.1588 321.6633  2.00560759 78727"
      },
      "geometry": {
        "type": "Point",
        "coordinates": [
          26.146518088921354,
          5.829848524521373
        ]
      }
    },
    {
      "type": "Feature",
      "properties": {
        "norad_id": 40730,
        "name": "GPS BIIF-10 (PRN 08)",
        "group": "gps-ops",
        "lat": 42.126537883142646,
        "lon": -45.71548925344103,
        "alt_km": 19912.20039533775,
        "timestamp": "2026-01-14T17:34:28.190416+00:00",
        "meta_object_name": "GPS BIIF-10 (PRN 08)",
        "meta_object_id": "2015-033A",
        "meta_epoch": "2026-01-13T03:51:34.958592",
        "meta_mean_motion": 2.00564179,
        "meta_eccentricity": 0.0112732,
        "meta_inclination": 54.1036,
        "meta_ra_of_asc_node": 273.4785,
        "meta_arg_of_pericenter": 27.6581,
        "meta_mean_anomaly": 332.9957,
        "meta_ephemeris_type": 0,
        "meta_classification_type": "U",
        "meta_norad_cat_id": 40730,
        "meta_element_set_no": 999,
        "meta_rev_at_epoch": 7688,
        "meta_bstar": 0,
        "meta_mean_motion_dot": -2.3e-07,
        "meta_mean_motion_ddot": 0,
        "tle_line1": "1 40730U 15033A   26013.16082128 -.00000023  00000+0  00000+0 0  9990",
        "tle_line2": "2 40730  54.1036 273.4785 0112732  27.6581 332.9957  2.00564179 76887"
      },
      "geometry": {
        "type": "Point",
        "coordinates": [
          -45.71548925344103,
          42.126537883142646
        ]
      }
    },
    {
      "type": "Feature",
      "properties": {
        "norad_id": 41019,
        "name": "GPS BIIF-11 (PRN 10)",
        "group": "gps-ops",
        "lat": 9.742484614096584,
        "lon": 43.178268467965125,
        "alt_km": 20409.327676322187,
        "timestamp": "2026-01-14T17:34:28.190427+00:00",
        "meta_object_name": "GPS BIIF-11 (PRN 10)",
        "meta_object_id": "2015-062A",
        "meta_epoch": "2026-01-13T17:14:56.980320",
        "meta_mean_motion": 2.0056723,
        "meta_eccentricity": 0.01114179,
        "meta_inclination": 56.8559,
        "meta_ra_of_asc_node": 36.7654,
        "meta_arg_of_pericenter": 230.729,
        "meta_mean_anomaly": 128.3273,
        "meta_ephemeris_type": 0,
        "meta_classification_type": "U",
        "meta_norad_cat_id": 41019,
        "meta_element_set_no": 999,
        "meta_rev_at_epoch": 7473,
        "meta_bstar": 0,
        "meta_mean_motion_dot": -6.1e-07,
        "meta_mean_motion_ddot": 0,
        "tle_line1": "1 41019U 15062A   26013.71871505 -.00000061  00000+0  00000+0 0  9991",
        "tle_line2": "2 41019  56.8559  36.7654 0111417 230.7290 128.3273  2.00567230 74736"
      },
      "geometry": {
        "type": "Point",
        "coordinates": [
          43.178268467965125,
          9.742484614096584
        ]
      }
    },
    {
      "type": "Feature",
      "properties": {
        "norad_id": 41328,
        "name": "GPS BIIF-12 (PRN 32)",
        "group": "gps-ops",
        "lat": -38.011645384404936,
        "lon": 62.994934286487926,
        "alt_km": 20088.776261039093,
        "timestamp": "2026-01-14T17:34:28.190438+00:00",
        "meta_object_name": "GPS BIIF-12 (PRN 32)",
        "meta_object_id": "2016-007A",
        "meta_epoch": "2026-01-13T07:17:06.950688",
        "meta_mean_motion": 2.00559235,
        "meta_eccentricity": 0.0093677,
        "meta_inclination": 55.4238,
        "meta_ra_of_asc_node": 95.6034,
        "meta_arg_of_pericenter": 244.4727,
        "meta_mean_anomaly": 114.5822,
        "meta_ephemeris_type": 0,
        "meta_classification_type": "U",
        "meta_norad_cat_id": 41328,
        "meta_element_set_no": 999,
        "meta_rev_at_epoch": 7273,
        "meta_bstar": 0,
        "meta_mean_motion_dot": -5.6e-07,
        "meta_mean_motion_ddot": 0,
        "tle_line1": "1 41328U 16007A   26013.30355267 -.00000056  00000+0  00000+0 0  9995",
        "tle_line2": "2 41328  55.4238  95.6034 0093677 244.4727 114.5822  2.00559235 72739"
      },
      "geometry": {
        "type": "Point",
        "coordinates": [
          62.994934286487926,
          -38.011645384404936
        ]
      }
    },
    {
      "type": "Feature",
      "properties": {
        "norad_id": 43873,
        "name": "GPS BIII-1  (PRN 04)",
        "group": "gps-ops",
        "lat": -20.13490853887179,
        "lon": -67.20948299604022,
        "alt_km": 20086.234199718238,
        "timestamp": "2026-01-14T17:34:28.190449+00:00",
        "meta_object_name": "GPS BIII-1  (PRN 04)",
        "meta_object_id": "2018-109A",
        "meta_epoch": "2026-01-13T22:45:06.412896",
        "meta_mean_motion": 2.00554786,
        "meta_eccentricity": 0.00378121,
        "meta_inclination": 55.5847,
        "meta_ra_of_asc_node": 98.2745,
        "meta_arg_of_pericenter": 196.4347,
        "meta_mean_anomaly": 161.8676,
        "meta_ephemeris_type": 0,
        "meta_classification_type": "U",
        "meta_norad_cat_id": 43873,
        "meta_element_set_no": 999,
        "meta_rev_at_epoch": 5197,
        "meta_bstar": 0,
        "meta_mean_motion_dot": -5.2e-07,
        "meta_mean_motion_ddot": 0,
        "tle_line1": "1 43873U 18109A   26013.94799089 -.00000052  00000+0  00000+0 0  9997",
        "tle_line2": "2 43873  55.5847  98.2745 0037812 196.4347 161.8676  2.00554786 51975"
      },
      "geometry": {
        "type": "Point",
        "coordinates": [
          -67.20948299604022,
          -20.13490853887179
        ]
      }
    },
    {
      "type": "Feature",
      "properties": {
        "norad_id": 44506,
        "name": "GPS BIII-2  (PRN 18)",
        "group": "gps-ops",
        "lat": 53.824461049384645,
        "lon": 88.37802864998027,
        "alt_km": 20191.483871530552,
        "timestamp": "2026-01-14T17:34:28.190461+00:00",
        "meta_object_name": "GPS BIII-2  (PRN 18)",
        "meta_object_id": "2019-056A",
        "meta_epoch": "2026-01-13T07:57:28.721088",
        "meta_mean_motion": 2.00567307,
        "meta_eccentricity": 0.0057668,
        "meta_inclination": 55.7087,
        "meta_ra_of_asc_node": 337.2982,
        "meta_arg_of_pericenter": 198.6197,
        "meta_mean_anomaly": 332.9174,
        "meta_ephemeris_type": 0,
        "meta_classification_type": "U",
        "meta_norad_cat_id": 44506,
        "meta_element_set_no": 999,
        "meta_rev_at_epoch": 4696,
        "meta_bstar": 0,
        "meta_mean_motion_dot": -9.9e-07,
        "meta_mean_motion_ddot": 0,
        "tle_line1": "1 44506U 19056A   26013.33158242 -.00000099  00000+0  00000+0 0  9997",
        "tle_line2": "2 44506  55.7087 337.2982 0057668 198.6197 332.9174  2.00567307 46964"
      },
      "geometry": {
        "type": "Point",
        "coordinates": [
          88.37802864998027,
          53.824461049384645
        ]
      }
    },
    {
      "type": "Feature",
      "properties": {
        "norad_id": 45854,
        "name": "GPS BIII-3  (PRN 23)",
        "group": "gps-ops",
        "lat": 36.91538421428927,
        "lon": 64.65766120139281,
        "alt_km": 20328.377626739395,
        "timestamp": "2026-01-14T17:34:28.190472+00:00",
        "meta_object_name": "GPS BIII-3  (PRN 23)",
        "meta_object_id": "2020-041A",
        "meta_epoch": "2026-01-12T16:07:02.852256",
        "meta_mean_motion": 2.00561597,
        "meta_eccentricity": 0.00609663,
        "meta_inclination": 56.5692,
        "meta_ra_of_asc_node": 34.9805,
        "meta_arg_of_pericenter": 204.4149,
        "meta_mean_anomaly": 154.0126,
        "meta_ephemeris_type": 0,
        "meta_classification_type": "U",
        "meta_norad_cat_id": 45854,
        "meta_element_set_no": 999,
        "meta_rev_at_epoch": 4091,
        "meta_bstar": 0,
        "meta_mean_motion_dot": -6.9e-07,
        "meta_mean_motion_ddot": 0,
        "tle_line1": "1 45854U 20041A   26012.67156079 -.00000069  00000+0  00000+0 0  9999",
        "tle_line2": "2 45854  56.5692  34.9805 0060966 204.4149 154.0126  2.00561597 40919"
      },
      "geometry": {
        "type": "Point",
        "coordinates": [
          64.65766120139281,
          36.91538421428927
        ]
      }
    },
    {
      "type": "Feature",
      "properties": {
        "norad_id": 46826,
        "name": "GPS BIII-4  (PRN 14)",
        "group": "gps-ops",
        "lat": 14.709019769058242,
        "lon": -131.98506565415965,
        "alt_km": 20352.03747207198,
        "timestamp": "2026-01-14T17:34:28.190484+00:00",
        "meta_object_name": "GPS BIII-4  (PRN 14)",
        "meta_object_id": "2020-078A",
        "meta_epoch": "2025-12-16T01:06:13.902336",
        "meta_mean_motion": 2.00566891,
        "meta_eccentricity": 0.0064754,
        "meta_inclination": 54.0144,
        "meta_ra_of_asc_node": 218.2068,
        "meta_arg_of_pericenter": 203.376,
        "meta_mean_anomaly": 339.4004,
        "meta_ephemeris_type": 0,
        "meta_classification_type": "U",
        "meta_norad_cat_id": 46826,
        "meta_element_set_no": 999,
        "meta_rev_at_epoch": 3783,
        "meta_bstar": 0,
        "meta_mean_motion_dot": 6.7e-07,
        "meta_mean_motion_ddot": 0,
        "tle_line1": "1 46826U 20078A   25350.04599424  .00000067  00000+0  00000+0 0  9996",
        "tle_line2": "2 46826  54.0144 218.2068 0064754 203.3760 339.4004  2.00566891 37831"
      },
      "geometry": {
        "type": "Point",
        "coordinates": [
          -131.98506565415965,
          14.709019769058242
        ]
      }
    },
    {
      "type": "Feature",
      "properties": {
        "norad_id": 48859,
        "name": "GPS BIII-5  (PRN 11)",
        "group": "gps-ops",
        "lat": -17.611238808843833,
        "lon": 171.3377607525869,
        "alt_km": 20131.213233580627,
        "timestamp": "2026-01-14T17:34:28.190495+00:00",
        "meta_object_name": "GPS BIII-5  (PRN 11)",
        "meta_object_id": "2021-054A",
        "meta_epoch": "2026-01-03T02:13:51.069216",
        "meta_mean_motion": 2.00552257,
        "meta_eccentricity": 0.00245147,
        "meta_inclination": 55.2484,
        "meta_ra_of_asc_node": 339.0966,
        "meta_arg_of_pericenter": 234.4034,
        "meta_mean_anomaly": 203.6283,
        "meta_ephemeris_type": 0,
        "meta_classification_type": "U",
        "meta_norad_cat_id": 48859,
        "meta_element_set_no": 999,
        "meta_rev_at_epoch": 3344,
        "meta_bstar": 0,
        "meta_mean_motion_dot": -9.1e-07,
        "meta_mean_motion_ddot": 0,
        "tle_line1": "1 48859U 21054A   26003.09295219 -.00000091  00000+0  00000+0 0  9993",
        "tle_line2": "2 48859  55.2484 339.0966 0024514 234.4034 203.6283  2.00552257 33442"
      },
      "geometry": {
        "type": "Point",
        "coordinates": [
          171.3377607525869,
          -17.611238808843833
        ]
      }
    },
    {
      "type": "Feature",
      "properties": {
        "norad_id": 55268,
        "name": "GPS BIII-6  (PRN 28)",
        "group": "gps-ops",
        "lat": -47.72940014987002,
        "lon": 24.659571862243205,
        "alt_km": 20191.105789741585,
        "timestamp": "2026-01-14T17:34:28.190507+00:00",
        "meta_object_name": "GPS BIII-6  (PRN 28)",
        "meta_object_id": "2023-009A",
        "meta_epoch": "2026-01-13T21:24:11.278944",
        "meta_mean_motion": 2.00553121,
        "meta_eccentricity": 0.00038614,
        "meta_inclination": 55.1086,
        "meta_ra_of_asc_node": 154.5827,
        "meta_arg_of_pericenter": 349.185,
        "meta_mean_anomaly": 8.4007,
        "meta_ephemeris_type": 0,
        "meta_classification_type": "U",
        "meta_norad_cat_id": 55268,
        "meta_element_set_no": 999,
        "meta_rev_at_epoch": 2214,
        "meta_bstar": 0,
        "meta_mean_motion_dot": 3.3e-07,
        "meta_mean_motion_ddot": 0,
        "tle_line1": "1 55268U 23009A   26013.89179721  .00000033  00000+0  00000+0 0  9990",
        "tle_line2": "2 55268  55.1086 154.5827 0003861 349.1850   8.4007  2.00553121 22140"
      },
      "geometry": {
        "type": "Point",
        "coordinates": [
          24.659571862243205,
          -47.72940014987002
        ]
      }
    },
    {
      "type": "Feature",
      "properties": {
        "norad_id": 62339,
        "name": "GPS BIII-7  (PRN 01)",
        "group": "gps-ops",
        "lat": -29.258765954604247,
        "lon": -42.79121521675332,
        "alt_km": 20152.468064340963,
        "timestamp": "2026-01-14T17:34:28.190522+00:00",
        "meta_object_name": "GPS BIII-7  (PRN 01)",
        "meta_object_id": "2024-242A",
        "meta_epoch": "2026-01-13T12:40:01.104384",
        "meta_mean_motion": 2.00568777,
        "meta_eccentricity": 0.0013836,
        "meta_inclination": 54.9128,
        "meta_ra_of_asc_node": 340.4526,
        "meta_arg_of_pericenter": 349.4598,
        "meta_mean_anomaly": 184.2077,
        "meta_ephemeris_type": 0,
        "meta_classification_type": "U",
        "meta_norad_cat_id": 62339,
        "meta_element_set_no": 999,
        "meta_rev_at_epoch": 815,
        "meta_bstar": 0,
        "meta_mean_motion_dot": -9.9e-07,
        "meta_mean_motion_ddot": 0,
        "tle_line1": "1 62339U 24242A   26013.52779056 -.00000099  00000+0  00000+0 0  9997",
        "tle_line2": "2 62339  54.9128 340.4526 0013836 349.4598 184.2077  2.00568777  8156"
      },
      "geometry": {
        "type": "Point",
        "coordinates": [
          -42.79121521675332,
          -29.258765954604247
        ]
      }
    },
    {
      "type": "Feature",
      "properties": {
        "norad_id": 64202,
        "name": "GPS BIII-8  (PRN 21)",
        "group": "gps-ops",
        "lat": 23.00532495374055,
        "lon": -159.89628936894934,
        "alt_km": 20197.25864804046,
        "timestamp": "2026-01-14T17:34:28.190537+00:00",
        "meta_object_name": "GPS BIII-8  (PRN 21)",
        "meta_object_id": "2025-116A",
        "meta_epoch": "2026-01-13T18:29:05.550432",
        "meta_mean_motion": 2.00556449,
        "meta_eccentricity": 0.0006774,
        "meta_inclination": 55.1297,
        "meta_ra_of_asc_node": 37.3471,
        "meta_arg_of_pericenter": 314.4191,
        "meta_mean_anomaly": 222.5208,
        "meta_ephemeris_type": 0,
        "meta_classification_type": "U",
        "meta_norad_cat_id": 64202,
        "meta_element_set_no": 999,
        "meta_rev_at_epoch": 477,
        "meta_bstar": 0,
        "meta_mean_motion_dot": -6.5e-07,
        "meta_mean_motion_ddot": 0,
        "tle_line1": "1 64202U 25116A   26013.77020313 -.00000065  00000+0  00000+0 0  9994",
        "tle_line2": "2 64202  55.1297  37.3471 0006774 314.4191 222.5208  2.00556449  4771"
      },
      "geometry": {
        "type": "Point",
        "coordinates": [
          -159.89628936894934,
          23.00532495374055
        ]
      }
    }
  ]
}