{
  "type": "FeatureCollection",
  "features": [
    {
      "type": "Feature",
      "properties": {
        "norad_id": 26766,
        "name": "INTELSAT 10 (IS-10)",
        "group": "intelsat",
        "lat": -8.656183673887327,
        "lon": -41.78239037518656,
        "alt_km": 36114.7257431166,
        "timestamp": "2026-03-21T04:43:58.074904+00:00",
        "meta_object_name": "INTELSAT 10 (IS-10)",
        "meta_object_id": "2001-019A",
        "meta_epoch": "2026-03-20T22:17:28.857408",
        "meta_mean_motion": 0.99036434,
        "meta_eccentricity": 0.00054745,
        "meta_inclination": 8.8648,
        "meta_ra_of_asc_node": 60.1425,
        "meta_arg_of_pericenter": 274.2231,
        "meta_mean_anomaly": 248.3147,
        "meta_ephemeris_type": 0,
        "meta_classification_type": "U",
        "meta_norad_cat_id": 26766,
        "meta_element_set_no": 999,
        "meta_rev_at_epoch": 4470,
        "meta_bstar": 0,
        "meta_mean_motion_dot": 7.3e-07,
        "meta_mean_motion_ddot": 0,
        "tle_line1": "1 26766U 01019A   26079.92880622  .00000073  00000+0  00000+0 0  9997",
        "tle_line2": "2 26766   8.8648  60.1425 0005474 274.2231 248.3147  0.99036434 44704"
      },
      "geometry": {
        "type": "Point",
        "coordinates": [
          -41.78239037518656,
          -8.656183673887327
        ]
      }
    },
    {
      "type": "Feature",
      "properties": {
        "norad_id": 26900,
        "name": "INTELSAT 902 (IS-902)",
        "group": "intelsat",
        "lat": 4.721528734219405,
        "lon": -160.26359574567851,
        "alt_km": 35803.696286536295,
        "timestamp": "2026-03-21T04:43:58.074928+00:00",
        "meta_object_name": "INTELSAT 902 (IS-902)",
        "meta_object_id": "2001-039A",
        "meta_epoch": "2026-03-20T20:00:34.487136",
        "meta_mean_motion": 1.00272452,
        "meta_eccentricity": 0.00046053,
        "meta_inclination": 5.8949,
        "meta_ra_of_asc_node": 72.8519,
        "meta_arg_of_pericenter": 286.9409,
        "meta_mean_anomaly": 68.6073,
        "meta_ephemeris_type": 0,
        "meta_classification_type": "U",
        "meta_norad_cat_id": 26900,
        "meta_element_set_no": 999,
        "meta_rev_at_epoch": 8980,
        "meta_bstar": 0,
        "meta_mean_motion_dot": -2.78e-06,
        "meta_mean_motion_ddot": 0,
        "tle_line1": "1 26900U 01039A   26079.83373249 -.00000278  00000+0  00000+0 0  9999",
        "tle_line2": "2 26900   5.8949  72.8519 0004605 286.9409  68.6073  1.00272452 89807"
      },
      "geometry": {
        "type": "Point",
        "coordinates": [
          -160.26359574567851,
          4.721528734219405
        ]
      }
    },
    {
      "type": "Feature",
      "properties": {
        "norad_id": 27380,
        "name": "INTELSAT 904 (IS-904)",
        "group": "intelsat",
        "lat": 3.551874558201439,
        "lon": -141.6016447277607,
        "alt_km": 35813.14636275485,
        "timestamp": "2026-03-21T04:43:58.074943+00:00",
        "meta_object_name": "INTELSAT 904 (IS-904)",
        "meta_object_id": "2002-007A",
        "meta_epoch": "2026-03-20T20:05:48.984864",
        "meta_mean_motion": 1.00271845,
        "meta_eccentricity": 0.000664,
        "meta_inclination": 6.6988,
        "meta_ra_of_asc_node": 70.2322,
        "meta_arg_of_pericenter": 316.3925,
        "meta_mean_anomaly": 61.7184,
        "meta_ephemeris_type": 0,
        "meta_classification_type": "U",
        "meta_norad_cat_id": 27380,
        "meta_element_set_no": 999,
        "meta_rev_at_epoch": 5088,
        "meta_bstar": 0,
        "meta_mean_motion_dot": -2.19e-06,
        "meta_mean_motion_ddot": 0,
        "tle_line1": "1 27380U 02007A   26079.83737251 -.00000219  00000+0  00000+0 0  9990",
        "tle_line2": "2 27380   6.6988  70.2322 0006640 316.3925  61.7184  1.00271845 50886"
      },
      "geometry": {
        "type": "Point",
        "coordinates": [
          -141.6016447277607,
          3.551874558201439
        ]
      }
    },
    {
      "type": "Feature",
      "properties": {
        "norad_id": 27426,
        "name": "DIRECTV 5 (TEMPO 1)",
        "group": "intelsat",
        "lat": 4.132396558357214,
        "lon": 139.56599470324966,
        "alt_km": 35795.41405703108,
        "timestamp": "2026-03-21T04:43:58.074957+00:00",
        "meta_object_name": "DIRECTV 5 (TEMPO 1)",
        "meta_object_id": "2002-023A",
        "meta_epoch": "2026-03-20T14:35:21.224256",
        "meta_mean_motion": 1.00271861,
        "meta_eccentricity": 0.00034568,
        "meta_inclination": 4.6505,
        "meta_ra_of_asc_node": 76.402,
        "meta_arg_of_pericenter": 290.7507,
        "meta_mean_anomaly": 279.7245,
        "meta_ephemeris_type": 0,
        "meta_classification_type": "U",
        "meta_norad_cat_id": 27426,
        "meta_element_set_no": 999,
        "meta_rev_at_epoch": 8723,
        "meta_bstar": 0,
        "meta_mean_motion_dot": -5.2e-07,
        "meta_mean_motion_ddot": 0,
        "tle_line1": "1 27426U 02023A   26079.60788454 -.00000052  00000+0  00000+0 0  9990",
        "tle_line2": "2 27426   4.6505  76.4020 0003456 290.7507 279.7245  1.00271861 87232"
      },
      "geometry": {
        "type": "Point",
        "coordinates": [
          139.56599470324966,
          4.132396558357214
        ]
      }
    },
    {
      "type": "Feature",
      "properties": {
        "norad_id": 27438,
        "name": "INTELSAT 905 (IS-905)",
        "group": "intelsat",
        "lat": 4.31674930136512,
        "lon": 112.37575090243307,
        "alt_km": 35788.61033455536,
        "timestamp": "2026-03-21T04:43:58.074970+00:00",
        "meta_object_name": "INTELSAT 905 (IS-905)",
        "meta_object_id": "2002-027A",
        "meta_epoch": "2026-03-19T00:48:41.730048",
        "meta_mean_motion": 1.00273125,
        "meta_eccentricity": 0.00029338,
        "meta_inclination": 6.5262,
        "meta_ra_of_asc_node": 70.8745,
        "meta_arg_of_pericenter": 294.4311,
        "meta_mean_anomaly": 46.2596,
        "meta_ephemeris_type": 0,
        "meta_classification_type": "U",
        "meta_norad_cat_id": 27438,
        "meta_element_set_no": 999,
        "meta_rev_at_epoch": 5045,
        "meta_bstar": 0,
        "meta_mean_motion_dot": 1e-06,
        "meta_mean_motion_ddot": 0,
        "tle_line1": "1 27438U 02027A   26078.03381632  .00000100  00000+0  00000+0 0  9993",
        "tle_line2": "2 27438   6.5262  70.8745 0002933 294.4311  46.2596  1.00273125 50456"
      },
      "geometry": {
        "type": "Point",
        "coordinates": [
          112.37575090243307,
          4.31674930136512
        ]
      }
    },
    {
      "type": "Feature",
      "properties": {
        "norad_id": 27445,
        "name": "GALAXY 3C (G-3C)",
        "group": "intelsat",
        "lat": 3.3792425802428396,
        "lon": 154.85432142146936,
        "alt_km": 35782.361283058926,
        "timestamp": "2026-03-21T04:43:58.074983+00:00",
        "meta_object_name": "GALAXY 3C (G-3C)",
        "meta_object_id": "2002-030A",
        "meta_epoch": "2026-03-20T21:30:25.869600",
        "meta_mean_motion": 1.00270871,
        "meta_eccentricity": 0.00011883,
        "meta_inclination": 3.5032,
        "meta_ra_of_asc_node": 79.2078,
        "meta_arg_of_pericenter": 30.902,
        "meta_mean_anomaly": 296.0788,
        "meta_ephemeris_type": 0,
        "meta_classification_type": "U",
        "meta_norad_cat_id": 27445,
        "meta_element_set_no": 999,
        "meta_rev_at_epoch": 4560,
        "meta_bstar": 0,
        "meta_mean_motion_dot": -1.48e-06,
        "meta_mean_motion_ddot": 0,
        "tle_line1": "1 27445U 02030A   26079.89613275 -.00000148  00000+0  00000+0 0  9994",
        "tle_line2": "2 27445   3.5032  79.2078 0001188  30.9020 296.0788  1.00270871 45603"
      },
      "geometry": {
        "type": "Point",
        "coordinates": [
          154.85432142146936,
          3.3792425802428396
        ]
      }
    },
    {
      "type": "Feature",
      "properties": {
        "norad_id": 27513,
        "name": "INTELSAT 906 (IS-906)",
        "group": "intelsat",
        "lat": -4.799125545656508,
        "lon": -46.30449490641589,
        "alt_km": 35778.05893550339,
        "timestamp": "2026-03-21T04:43:58.075009+00:00",
        "meta_object_name": "INTELSAT 906 (IS-906)",
        "meta_object_id": "2002-041A",
        "meta_epoch": "2026-03-20T20:33:59.058720",
        "meta_mean_motion": 1.00272566,
        "meta_eccentricity": 0.00030773,
        "meta_inclination": 5.5787,
        "meta_ra_of_asc_node": 73.9994,
        "meta_arg_of_pericenter": 289.611,
        "meta_mean_anomaly": 187.3961,
        "meta_ephemeris_type": 0,
        "meta_classification_type": "U",
        "meta_norad_cat_id": 27513,
        "meta_element_set_no": 999,
        "meta_rev_at_epoch": 8614,
        "meta_bstar": 0,
        "meta_mean_motion_dot": 1.8e-07,
        "meta_mean_motion_ddot": 0,
        "tle_line1": "1 27513U 02041A   26079.85693355  .00000018  00000+0  00000+0 0  9990",
        "tle_line2": "2 27513   5.5787  73.9994 0003077 289.6110 187.3961  1.00272566 86140"
      },
      "geometry": {
        "type": "Point",
        "coordinates": [
          -46.30449490641589,
          -4.799125545656508
        ]
      }
    },
    {
      "type": "Feature",
      "properties": {
        "norad_id": 27954,
        "name": "GALAXY 13 (HORIZONS-1)",
        "group": "intelsat",
        "lat": 0.27708416712005746,
        "lon": 99.7374958239163,
        "alt_km": 35785.89603623602,
        "timestamp": "2026-03-21T04:43:58.075024+00:00",
        "meta_object_name": "GALAXY 13 (HORIZONS-1)",
        "meta_object_id": "2003-044A",
        "meta_epoch": "2026-03-20T17:49:21.310464",
        "meta_mean_motion": 1.00274427,
        "meta_eccentricity": 0.00022337,
        "meta_inclination": 1.19,
        "meta_ra_of_asc_node": 85.0168,
        "meta_arg_of_pericenter": 280.8422,
        "meta_mean_anomaly": 289.7448,
        "meta_ephemeris_type": 0,
        "meta_classification_type": "U",
        "meta_norad_cat_id": 27954,
        "meta_element_set_no": 999,
        "meta_rev_at_epoch": 4568,
        "meta_bstar": 0,
        "meta_mean_motion_dot": 1.36e-06,
        "meta_mean_motion_ddot": 0,
        "tle_line1": "1 27954U 03044A   26079.74260776  .00000136  00000+0  00000+0 0  9999",
        "tle_line2": "2 27954   1.1900  85.0168 0002233 280.8422 289.7448  1.00274427 45686"
      },
      "geometry": {
        "type": "Point",
        "coordinates": [
          99.7374958239163,
          0.27708416712005746
        ]
      }
    },
    {
      "type": "Feature",
      "properties": {
        "norad_id": 28358,
        "name": "INTELSAT 10-02",
        "group": "intelsat",
        "lat": 0.03221598015893949,
        "lon": -111.30507387912175,
        "alt_km": 35790.86207028219,
        "timestamp": "2026-03-21T04:43:58.075036+00:00",
        "meta_object_name": "INTELSAT 10-02",
        "meta_object_id": "2004-022A",
        "meta_epoch": "2026-03-20T08:15:44.897760",
        "meta_mean_motion": 1.00270187,
        "meta_eccentricity": 0.00010699,
        "meta_inclination": 0.0263,
        "meta_ra_of_asc_node": 107.6748,
        "meta_arg_of_pericenter": 307.4636,
        "meta_mean_anomaly": 245.6613,
        "meta_ephemeris_type": 0,
        "meta_classification_type": "U",
        "meta_norad_cat_id": 28358,
        "meta_element_set_no": 999,
        "meta_rev_at_epoch": 7966,
        "meta_bstar": 0,
        "meta_mean_motion_dot": -9e-08,
        "meta_mean_motion_ddot": 0,
        "tle_line1": "1 28358U 04022A   26079.34426965 -.00000009  00000+0  00000+0 0  9995",
        "tle_line2": "2 28358   0.0263 107.6748 0001069 307.4636 245.6613  1.00270187 79668"
      },
      "geometry": {
        "type": "Point",
        "coordinates": [
          -111.30507387912175,
          0.03221598015893949
        ]
      }
    },
    {
      "type": "Feature",
      "properties": {
        "norad_id": 28659,
        "name": "DIRECTV 8",
        "group": "intelsat",
        "lat": -0.009941255733477247,
        "lon": 130.6899876346914,
        "alt_km": 35793.14345882216,
        "timestamp": "2026-03-21T04:43:58.075049+00:00",
        "meta_object_name": "DIRECTV 8",
        "meta_object_id": "2005-019A",
        "meta_epoch": "2026-03-20T16:15:32.213952",
        "meta_mean_motion": 1.00271343,
        "meta_eccentricity": 0.0003224,
        "meta_inclination": 0.0151,
        "meta_ra_of_asc_node": 121.275,
        "meta_arg_of_pericenter": 248.8497,
        "meta_mean_anomaly": 292.9069,
        "meta_ephemeris_type": 0,
        "meta_classification_type": "U",
        "meta_norad_cat_id": 28659,
        "meta_element_set_no": 999,
        "meta_rev_at_epoch": 7618,
        "meta_bstar": 0,
        "meta_mean_motion_dot": 4e-08,
        "meta_mean_motion_ddot": 0,
        "tle_line1": "1 28659U 05019A   26079.67745618  .00000004  00000+0  00000+0 0  9995",
        "tle_line2": "2 28659   0.0151 121.2750 0003224 248.8497 292.9069  1.00271343 76180"
      },
      "geometry": {
        "type": "Point",
        "coordinates": [
          130.6899876346914,
          -0.009941255733477247
        ]
      }
    },
    {
      "type": "Feature",
      "properties": {
        "norad_id": 28702,
        "name": "GALAXY 28 (G-28)",
        "group": "intelsat",
        "lat": 1.878770722801752,
        "lon": -137.35446794382202,
        "alt_km": 35793.3613894668,
        "timestamp": "2026-03-21T04:43:58.075060+00:00",
        "meta_object_name": "GALAXY 28 (G-28)",
        "meta_object_id": "2005-022A",
        "meta_epoch": "2026-03-20T21:49:46.513632",
        "meta_mean_motion": 1.00271663,
        "meta_eccentricity": 0.00020761,
        "meta_inclination": 3.0713,
        "meta_ra_of_asc_node": 80.0253,
        "meta_arg_of_pericenter": 290.7504,
        "meta_mean_anomaly": 108.0072,
        "meta_ephemeris_type": 0,
        "meta_classification_type": "U",
        "meta_norad_cat_id": 28702,
        "meta_element_set_no": 999,
        "meta_rev_at_epoch": 5109,
        "meta_bstar": 0,
        "meta_mean_motion_dot": -1.96e-06,
        "meta_mean_motion_ddot": 0,
        "tle_line1": "1 28702U 05022A   26079.90956613 -.00000196  00000+0  00000+0 0  9996",
        "tle_line2": "2 28702   3.0713  80.0253 0002076 290.7504 108.0072  1.00271663 51094"
      },
      "geometry": {
        "type": "Point",
        "coordinates": [
          -137.35446794382202,
          1.878770722801752
        ]
      }
    },
    {
      "type": "Feature",
      "properties": {
        "norad_id": 29236,
        "name": "GALAXY 16 (G-16)",
        "group": "intelsat",
        "lat": -0.03399563809261125,
        "lon": 150.72209919600493,
        "alt_km": 35796.028357300376,
        "timestamp": "2026-03-21T04:43:58.075072+00:00",
        "meta_object_name": "GALAXY 16 (G-16)",
        "meta_object_id": "2006-023A",
        "meta_epoch": "2026-03-20T21:29:18.478464",
        "meta_mean_motion": 1.00271587,
        "meta_eccentricity": 0.00026045,
        "meta_inclination": 0.0215,
        "meta_ra_of_asc_node": 209.8599,
        "meta_arg_of_pericenter": 147.2936,
        "meta_mean_anomaly": 44.5859,
        "meta_ephemeris_type": 0,
        "meta_classification_type": "U",
        "meta_norad_cat_id": 29236,
        "meta_element_set_no": 999,
        "meta_rev_at_epoch": 7208,
        "meta_bstar": 0,
        "meta_mean_motion_dot": -1.24e-06,
        "meta_mean_motion_ddot": 0,
        "tle_line1": "1 29236U 06023A   26079.89535276 -.00000124  00000+0  00000+0 0  9998",
        "tle_line2": "2 29236   0.0215 209.8599 0002604 147.2936  44.5859  1.00271587 72081"
      },
      "geometry": {
        "type": "Point",
        "coordinates": [
          150.72209919600493,
          -0.03399563809261125
        ]
      }
    },
    {
      "type": "Feature",
      "properties": {
        "norad_id": 29494,
        "name": "DIRECTV 9S",
        "group": "intelsat",
        "lat": 1.9947904085675483,
        "lon": 148.52631462297808,
        "alt_km": 35796.443451399704,
        "timestamp": "2026-03-21T04:43:58.075084+00:00",
        "meta_object_name": "DIRECTV 9S",
        "meta_object_id": "2006-043A",
        "meta_epoch": "2026-03-20T21:28:41.037024",
        "meta_mean_motion": 1.00271543,
        "meta_eccentricity": 0.0003278,
        "meta_inclination": 2.1917,
        "meta_ra_of_asc_node": 81.9653,
        "meta_arg_of_pericenter": 287.2355,
        "meta_mean_anomaly": 30.1939,
        "meta_ephemeris_type": 0,
        "meta_classification_type": "U",
        "meta_norad_cat_id": 29494,
        "meta_element_set_no": 999,
        "meta_rev_at_epoch": 5049,
        "meta_bstar": 0,
        "meta_mean_motion_dot": -1.1e-06,
        "meta_mean_motion_ddot": 0,
        "tle_line1": "1 29494U 06043A   26079.89491941 -.00000110  00000+0  00000+0 0  9991",
        "tle_line2": "2 29494   2.1917  81.9653 0003278 287.2355  30.1939  1.00271543 50490"
      },
      "geometry": {
        "type": "Point",
        "coordinates": [
          148.52631462297808,
          1.9947904085675483
        ]
      }
    },
    {
      "type": "Feature",
      "properties": {
        "norad_id": 31307,
        "name": "GALAXY 17 (G-17)",
        "group": "intelsat",
        "lat": 2.720157009041818,
        "lon": 164.7221448604601,
        "alt_km": 35799.43887968598,
        "timestamp": "2026-03-21T04:43:58.075097+00:00",
        "meta_object_name": "GALAXY 17 (G-17)",
        "meta_object_id": "2007-016B",
        "meta_epoch": "2026-03-20T21:33:18.095040",
        "meta_mean_motion": 1.00271135,
        "meta_eccentricity": 0.00034547,
        "meta_inclination": 2.7473,
        "meta_ra_of_asc_node": 81.0039,
        "meta_arg_of_pericenter": 286.4436,
        "meta_mean_anomaly": 49.3029,
        "meta_ephemeris_type": 0,
        "meta_classification_type": "U",
        "meta_norad_cat_id": 31307,
        "meta_element_set_no": 999,
        "meta_rev_at_epoch": 6891,
        "meta_bstar": 0,
        "meta_mean_motion_dot": -2.02e-06,
        "meta_mean_motion_ddot": 0,
        "tle_line1": "1 31307U 07016B   26079.89812610 -.00000202  00000+0  00000+0 0  9990",
        "tle_line2": "2 31307   2.7473  81.0039 0003454 286.4436  49.3029  1.00271135 68910"
      },
      "geometry": {
        "type": "Point",
        "coordinates": [
          164.7221448604601,
          2.720157009041818
        ]
      }
    },
    {
      "type": "Feature",
      "properties": {
        "norad_id": 31862,
        "name": "DIRECTV 10",
        "group": "intelsat",
        "lat": 0.17079216722588242,
        "lon": -177.48117922727363,
        "alt_km": 36365.1067035244,
        "timestamp": "2026-03-21T04:43:58.075112+00:00",
        "meta_object_name": "DIRECTV 10",
        "meta_object_id": "2007-032A",
        "meta_epoch": "2026-03-20T21:38:55.055904",
        "meta_mean_motion": 0.98337069,
        "meta_eccentricity": 0.00067429,
        "meta_inclination": 0.1736,
        "meta_ra_of_asc_node": 96.5981,
        "meta_arg_of_pericenter": 282.3645,
        "meta_mean_anomaly": 59.0302,
        "meta_ephemeris_type": 0,
        "meta_classification_type": "U",
        "meta_norad_cat_id": 31862,
        "meta_element_set_no": 999,
        "meta_rev_at_epoch": 4469,
        "meta_bstar": 0,
        "meta_mean_motion_dot": -8.3e-07,
        "meta_mean_motion_ddot": 0,
        "tle_line1": "1 31862U 07032A   26079.90202611 -.00000083  00000+0  00000+0 0  9997",
        "tle_line2": "2 31862   0.1736  96.5981 0006742 282.3645  59.0302  0.98337069 44693"
      },
      "geometry": {
        "type": "Point",
        "coordinates": [
          -177.48117922727363,
          0.17079216722588242
        ]
      }
    },
    {
      "type": "Feature",
      "properties": {
        "norad_id": 32253,
        "name": "INTELSAT 11 (IS-11)",
        "group": "intelsat",
        "lat": -2.0294386715302477,
        "lon": 42.55024854964462,
        "alt_km": 36138.00880969164,
        "timestamp": "2026-03-21T04:43:58.075123+00:00",
        "meta_object_name": "INTELSAT 11 (IS-11)",
        "meta_object_id": "2007-044B",
        "meta_epoch": "2026-03-20T19:16:08.748192",
        "meta_mean_motion": 0.99053107,
        "meta_eccentricity": 0.00040954,
        "meta_inclination": 3.3339,
        "meta_ra_of_asc_node": 79.7353,
        "meta_arg_of_pericenter": 210.5556,
        "meta_mean_anomaly": 331.5533,
        "meta_ephemeris_type": 0,
        "meta_classification_type": "U",
        "meta_norad_cat_id": 32253,
        "meta_element_set_no": 999,
        "meta_rev_at_epoch": 6757,
        "meta_bstar": 0,
        "meta_mean_motion_dot": -2.71e-06,
        "meta_mean_motion_ddot": 0,
        "tle_line1": "1 32253U 07044B   26079.80287903 -.00000271  00000+0  00000+0 0  9990",
        "tle_line2": "2 32253   3.3339  79.7353 0004095 210.5556 331.5533  0.99053107 67576"
      },
      "geometry": {
        "type": "Point",
        "coordinates": [
          42.55024854964462,
          -2.0294386715302477
        ]
      }
    },
    {
      "type": "Feature",
      "properties": {
        "norad_id": 32388,
        "name": "HORIZONS-2",
        "group": "intelsat",
        "lat": 2.3610855355411053,
        "lon": 175.91810088973713,
        "alt_km": 35796.19589797787,
        "timestamp": "2026-03-21T04:43:58.075135+00:00",
        "meta_object_name": "HORIZONS-2",
        "meta_object_id": "2007-063B",
        "meta_epoch": "2026-03-20T21:36:32.782752",
        "meta_mean_motion": 1.00270187,
        "meta_eccentricity": 0.00023693,
        "meta_inclination": 2.3732,
        "meta_ra_of_asc_node": 81.7169,
        "meta_arg_of_pericenter": 282.1997,
        "meta_mean_anomaly": 64.8444,
        "meta_ephemeris_type": 0,
        "meta_classification_type": "U",
        "meta_norad_cat_id": 32388,
        "meta_element_set_no": 999,
        "meta_rev_at_epoch": 6692,
        "meta_bstar": 0,
        "meta_mean_motion_dot": -2.5e-06,
        "meta_mean_motion_ddot": 0,
        "tle_line1": "1 32388U 07063B   26079.90037943 -.00000250  00000+0  00000+0 0  9995",
        "tle_line2": "2 32388   2.3732  81.7169 0002369 282.1997  64.8444  1.00270187 66922"
      },
      "geometry": {
        "type": "Point",
        "coordinates": [
          175.91810088973713,
          2.3610855355411053
        ]
      }
    },
    {
      "type": "Feature",
      "properties": {
        "norad_id": 32729,
        "name": "DIRECTV 11",
        "group": "intelsat",
        "lat": 0.0021605385369243904,
        "lon": 150.52080732242015,
        "alt_km": 35786.73394915767,
        "timestamp": "2026-03-21T04:43:58.075146+00:00",
        "meta_object_name": "DIRECTV 11",
        "meta_object_id": "2008-013A",
        "meta_epoch": "2026-03-20T21:29:10.990176",
        "meta_mean_motion": 1.0027188,
        "meta_eccentricity": 2.018e-05,
        "meta_inclination": 0.0216,
        "meta_ra_of_asc_node": 358.6699,
        "meta_arg_of_pericenter": 10.1101,
        "meta_mean_anomaly": 32.7384,
        "meta_ephemeris_type": 0,
        "meta_classification_type": "U",
        "meta_norad_cat_id": 32729,
        "meta_element_set_no": 999,
        "meta_rev_at_epoch": 4470,
        "meta_bstar": 0,
        "meta_mean_motion_dot": -1.23e-06,
        "meta_mean_motion_ddot": 0,
        "tle_line1": "1 32729U 08013A   26079.89526609 -.00000123  00000+0  00000+0 0  9999",
        "tle_line2": "2 32729   0.0216 358.6699 0000201  10.1101  32.7384  1.00271880 44706"
      },
      "geometry": {
        "type": "Point",
        "coordinates": [
          150.52080732242015,
          0.0021605385369243904
        ]
      }
    },
    {
      "type": "Feature",
      "properties": {
        "norad_id": 32951,
        "name": "GALAXY 18 (G-18)",
        "group": "intelsat",
        "lat": -0.04163207179359986,
        "lon": 126.75397955236636,
        "alt_km": 35793.40492863279,
        "timestamp": "2026-03-21T04:43:58.075158+00:00",
        "meta_object_name": "GALAXY 18 (G-18)",
        "meta_object_id": "2008-024A",
        "meta_epoch": "2026-03-20T16:14:24.822816",
        "meta_mean_motion": 1.00271724,
        "meta_eccentricity": 0.0002814,
        "meta_inclination": 0.0223,
        "meta_ra_of_asc_node": 189.0666,
        "meta_arg_of_pericenter": 169.707,
        "meta_mean_anomaly": 300.0461,
        "meta_ephemeris_type": 0,
        "meta_classification_type": "U",
        "meta_norad_cat_id": 32951,
        "meta_element_set_no": 999,
        "meta_rev_at_epoch": 4496,
        "meta_bstar": 0,
        "meta_mean_motion_dot": 0,
        "meta_mean_motion_ddot": 0,
        "tle_line1": "1 32951U 08024A   26079.67667619  .00000000  00000+0  00000+0 0  9994",
        "tle_line2": "2 32951   0.0223 189.0666 0002814 169.7070 300.0461  1.00271724 44961"
      },
      "geometry": {
        "type": "Point",
        "coordinates": [
          126.75397955236636,
          -0.04163207179359986
        ]
      }
    },
    {
      "type": "Feature",
      "properties": {
        "norad_id": 33153,
        "name": "INTELSAT 25 (IS-25)",
        "group": "intelsat",
        "lat": 1.7082494598365143,
        "lon": -141.78524393375037,
        "alt_km": 35791.68788603919,
        "timestamp": "2026-03-21T04:43:58.075185+00:00",
        "meta_object_name": "INTELSAT 25 (IS-25)",
        "meta_object_id": "2008-034A",
        "meta_epoch": "2026-03-20T21:48:31.634208",
        "meta_mean_motion": 1.00271389,
        "meta_eccentricity": 0.000316,
        "meta_inclination": 2.4785,
        "meta_ra_of_asc_node": 81.3824,
        "meta_arg_of_pericenter": 251.7808,
        "meta_mean_anomaly": 140.9092,
        "meta_ephemeris_type": 0,
        "meta_classification_type": "U",
        "meta_norad_cat_id": 33153,
        "meta_element_set_no": 999,
        "meta_rev_at_epoch": 6481,
        "meta_bstar": 0,
        "meta_mean_motion_dot": -2.2e-06,
        "meta_mean_motion_ddot": 0,
        "tle_line1": "1 33153U 08034A   26079.90869947 -.00000220  00000+0  00000+0 0  9999",
        "tle_line2": "2 33153   2.4785  81.3824 0003160 251.7808 140.9092  1.00271389 64815"
      },
      "geometry": {
        "type": "Point",
        "coordinates": [
          -141.78524393375037,
          1.7082494598365143
        ]
      }
    },
    {
      "type": "Feature",
      "properties": {
        "norad_id": 33376,
        "name": "GALAXY 19 (G-19)",
        "group": "intelsat",
        "lat": -0.03813282804780414,
        "lon": 152.73038899955063,
        "alt_km": 35795.46162065117,
        "timestamp": "2026-03-21T04:43:58.075199+00:00",
        "meta_object_name": "GALAXY 19 (G-19)",
        "meta_object_id": "2008-045A",
        "meta_epoch": "2026-03-20T21:29:48.429888",
        "meta_mean_motion": 1.00272003,
        "meta_eccentricity": 0.00027698,
        "meta_inclination": 0.0296,
        "meta_ra_of_asc_node": 248.7864,
        "meta_arg_of_pericenter": 120.5728,
        "meta_mean_anomaly": 34.5075,
        "meta_ephemeris_type": 0,
        "meta_classification_type": "U",
        "meta_norad_cat_id": 33376,
        "meta_element_set_no": 999,
        "meta_rev_at_epoch": 6401,
        "meta_bstar": 0,
        "meta_mean_motion_dot": -1.37e-06,
        "meta_mean_motion_ddot": 0,
        "tle_line1": "1 33376U 08045A   26079.89569942 -.00000137  00000+0  00000+0 0  9995",
        "tle_line2": "2 33376   0.0296 248.7864 0002769 120.5728  34.5075  1.00272003 64019"
      },
      "geometry": {
        "type": "Point",
        "coordinates": [
          152.73038899955063,
          -0.03813282804780414
        ]
      }
    },
    {
      "type": "Feature",
      "properties": {
        "norad_id": 35493,
        "name": "FM-5",
        "group": "intelsat",
        "lat": -0.037021860335678225,
        "lon": 163.5525737872416,
        "alt_km": 35785.420613500246,
        "timestamp": "2026-03-21T04:43:58.075212+00:00",
        "meta_object_name": "FM-5",
        "meta_object_id": "2009-034A",
        "meta_epoch": "2026-03-20T21:32:55.630176",
        "meta_mean_motion": 1.00272282,
        "meta_eccentricity": 7.209e-05,
        "meta_inclination": 0.0348,
        "meta_ra_of_asc_node": 262.584,
        "meta_arg_of_pericenter": 340.7752,
        "meta_mean_anomaly": 172.1386,
        "meta_ephemeris_type": 0,
        "meta_classification_type": "U",
        "meta_norad_cat_id": 35493,
        "meta_element_set_no": 999,
        "meta_rev_at_epoch": 4575,
        "meta_bstar": 0,
        "meta_mean_motion_dot": -1.98e-06,
        "meta_mean_motion_ddot": 0,
        "tle_line1": "1 35493U 09034A   26079.89786609 -.00000198  00000+0  00000+0 0  9994",
        "tle_line2": "2 35493   0.0348 262.5840 0000720 340.7752 172.1386  1.00272282 45758"
      },
      "geometry": {
        "type": "Point",
        "coordinates": [
          163.5525737872416,
          -0.037021860335678225
        ]
      }
    },
    {
      "type": "Feature",
      "properties": {
        "norad_id": 36097,
        "name": "INTELSAT 14 (IS-14)",
        "group": "intelsat",
        "lat": 0.0352784312252861,
        "lon": -155.30337844525522,
        "alt_km": 35794.48899001946,
        "timestamp": "2026-03-21T04:43:58.075224+00:00",
        "meta_object_name": "INTELSAT 14 (IS-14)",
        "meta_object_id": "2009-064A",
        "meta_epoch": "2026-03-20T20:02:04.344000",
        "meta_mean_motion": 1.00272581,
        "meta_eccentricity": 0.00023471,
        "meta_inclination": 0.0395,
        "meta_ra_of_asc_node": 84.3355,
        "meta_arg_of_pericenter": 270.0779,
        "meta_mean_anomaly": 79.4577,
        "meta_ephemeris_type": 0,
        "meta_classification_type": "U",
        "meta_norad_cat_id": 36097,
        "meta_element_set_no": 999,
        "meta_rev_at_epoch": 5971,
        "meta_bstar": 0,
        "meta_mean_motion_dot": -2.71e-06,
        "meta_mean_motion_ddot": 0,
        "tle_line1": "1 36097U 09064A   26079.83477250 -.00000271  00000+0  00000+0 0  9993",
        "tle_line2": "2 36097   0.0395  84.3355 0002347 270.0779  79.4577  1.00272581 59717"
      },
      "geometry": {
        "type": "Point",
        "coordinates": [
          -155.30337844525522,
          0.0352784312252861
        ]
      }
    },
    {
      "type": "Feature",
      "properties": {
        "norad_id": 36106,
        "name": "INTELSAT 15 (IS-15)",
        "group": "intelsat",
        "lat": 0.026167033282582852,
        "lon": -25.1431467624603,
        "alt_km": 35777.6813080949,
        "timestamp": "2026-03-21T04:43:58.075236+00:00",
        "meta_object_name": "INTELSAT 15 (IS-15)",
        "meta_object_id": "2009-067A",
        "meta_epoch": "2026-03-20T22:21:50.937984",
        "meta_mean_motion": 1.00270214,
        "meta_eccentricity": 0.0002255,
        "meta_inclination": 0.0195,
        "meta_ra_of_asc_node": 194.089,
        "meta_arg_of_pericenter": 162.8016,
        "meta_mean_anomaly": 242.1792,
        "meta_ephemeris_type": 0,
        "meta_classification_type": "U",
        "meta_norad_cat_id": 36106,
        "meta_element_set_no": 999,
        "meta_rev_at_epoch": 4034,
        "meta_bstar": 0,
        "meta_mean_motion_dot": 0,
        "meta_mean_motion_ddot": 0,
        "tle_line1": "1 36106U 09067A   26079.93183956  .00000000  00000+0  00000+0 0  9994",
        "tle_line2": "2 36106   0.0195 194.0890 0002255 162.8016 242.1792  1.00270214 40347"
      },
      "geometry": {
        "type": "Point",
        "coordinates": [
          -25.1431467624603,
          0.026167033282582852
        ]
      }
    },
    {
      "type": "Feature",
      "properties": {
        "norad_id": 36131,
        "name": "DIRECTV 12",
        "group": "intelsat",
        "lat": 0.0011414192481347587,
        "lon": 146.97539801476253,
        "alt_km": 35786.88209472186,
        "timestamp": "2026-03-21T04:43:58.075248+00:00",
        "meta_object_name": "DIRECTV 12",
        "meta_object_id": "2009-075A",
        "meta_epoch": "2026-03-20T16:20:09.271104",
        "meta_mean_motion": 1.00270825,
        "meta_eccentricity": 3.49e-05,
        "meta_inclination": 0.0236,
        "meta_ra_of_asc_node": 357.8706,
        "meta_arg_of_pericenter": 38.56,
        "meta_mean_anomaly": 284.0732,
        "meta_ephemeris_type": 0,
        "meta_classification_type": "U",
        "meta_norad_cat_id": 36131,
        "meta_element_set_no": 999,
        "meta_rev_at_epoch": 4566,
        "meta_bstar": 0,
        "meta_mean_motion_dot": -1.01e-06,
        "meta_mean_motion_ddot": 0,
        "tle_line1": "1 36131U 09075A   26079.68066286 -.00000101  00000+0  00000+0 0  9992",
        "tle_line2": "2 36131   0.0236 357.8706 0000349  38.5600 284.0732  1.00270825 45663"
      },
      "geometry": {
        "type": "Point",
        "coordinates": [
          146.97539801476253,
          0.0011414192481347587
        ]
      }
    },
    {
      "type": "Feature",
      "properties": {
        "norad_id": 36397,
        "name": "INTELSAT 16 (IS-16)",
        "group": "intelsat",
        "lat": -0.009146780683421488,
        "lon": 173.5290579739146,
        "alt_km": 35794.15216967352,
        "timestamp": "2026-03-21T04:43:58.075260+00:00",
        "meta_object_name": "INTELSAT 16 (IS-16)",
        "meta_object_id": "2010-006A",
        "meta_epoch": "2026-03-20T21:35:47.854752",
        "meta_mean_motion": 1.00269493,
        "meta_eccentricity": 0.00017945,
        "meta_inclination": 0.0157,
        "meta_ra_of_asc_node": 187.2949,
        "meta_arg_of_pericenter": 179.6302,
        "meta_mean_anomaly": 59.259,
        "meta_ephemeris_type": 0,
        "meta_classification_type": "U",
        "meta_norad_cat_id": 36397,
        "meta_element_set_no": 999,
        "meta_rev_at_epoch": 5876,
        "meta_bstar": 0,
        "meta_mean_motion_dot": 0,
        "meta_mean_motion_ddot": 0,
        "tle_line1": "1 36397U 10006A   26079.89985943  .00000000  00000+0  00000+0 0  9992",
        "tle_line2": "2 36397   0.0157 187.2949 0001794 179.6302  59.2590  1.00269493 58762"
      },
      "geometry": {
        "type": "Point",
        "coordinates": [
          173.5290579739146,
          -0.009146780683421488
        ]
      }
    },
    {
      "type": "Feature",
      "properties": {
        "norad_id": 37185,
        "name": "XM-5",
        "group": "intelsat",
        "lat": -0.06094524031963401,
        "lon": 134.48030982734176,
        "alt_km": 35773.76684655761,
        "timestamp": "2026-03-21T04:43:58.075278+00:00",
        "meta_object_name": "XM-5",
        "meta_object_id": "2010-053A",
        "meta_epoch": "2026-03-20T16:16:24.631104",
        "meta_mean_motion": 1.00272469,
        "meta_eccentricity": 0.00037618,
        "meta_inclination": 0.0674,
        "meta_ra_of_asc_node": 270.7667,
        "meta_arg_of_pericenter": 264.1695,
        "meta_mean_anomaly": 132.1626,
        "meta_ephemeris_type": 0,
        "meta_classification_type": "U",
        "meta_norad_cat_id": 37185,
        "meta_element_set_no": 999,
        "meta_rev_at_epoch": 5659,
        "meta_bstar": 0,
        "meta_mean_motion_dot": -2.1e-07,
        "meta_mean_motion_ddot": 0,
        "tle_line1": "1 37185U 10053A   26079.67806286 -.00000021  00000+0  00000+0 0  9992",
        "tle_line2": "2 37185   0.0674 270.7667 0003761 264.1695 132.1626  1.00272469 56595"
      },
      "geometry": {
        "type": "Point",
        "coordinates": [
          134.48030982734176,
          -0.06094524031963401
        ]
      }
    },
    {
      "type": "Feature",
      "properties": {
        "norad_id": 37238,
        "name": "INTELSAT 17 (IS-17)",
        "group": "intelsat",
        "lat": 0.03030778340396763,
        "lon": -44.31325617446187,
        "alt_km": 35779.24363050963,
        "timestamp": "2026-03-21T04:43:58.075289+00:00",
        "meta_object_name": "INTELSAT 17 (IS-17)",
        "meta_object_id": "2010-065B",
        "meta_epoch": "2026-03-20T22:16:21.464544",
        "meta_mean_motion": 1.00271487,
        "meta_eccentricity": 0.00024786,
        "meta_inclination": 0.0138,
        "meta_ra_of_asc_node": 186.7635,
        "meta_arg_of_pericenter": 177.8293,
        "meta_mean_anomaly": 213.9408,
        "meta_ephemeris_type": 0,
        "meta_classification_type": "U",
        "meta_norad_cat_id": 37238,
        "meta_element_set_no": 999,
        "meta_rev_at_epoch": 5236,
        "meta_bstar": 0,
        "meta_mean_motion_dot": 1e-08,
        "meta_mean_motion_ddot": 0,
        "tle_line1": "1 37238U 10065B   26079.92802621  .00000001  00000+0  00000+0 0  9998",
        "tle_line2": "2 37238   0.0138 186.7635 0002478 177.8293 213.9408  1.00271487 52364"
      },
      "geometry": {
        "type": "Point",
        "coordinates": [
          -44.31325617446187,
          0.03030778340396763
        ]
      }
    },
    {
      "type": "Feature",
      "properties": {
        "norad_id": 37392,
        "name": "INTELSAT 28 (IS-28)",
        "group": "intelsat",
        "lat": 1.1420053902817855,
        "lon": -142.00691657052175,
        "alt_km": 35801.502013232726,
        "timestamp": "2026-03-21T04:43:58.075301+00:00",
        "meta_object_name": "INTELSAT 28 (IS-28)",
        "meta_object_id": "2011-016A",
        "meta_epoch": "2026-03-20T21:48:31.634208",
        "meta_mean_motion": 1.00270886,
        "meta_eccentricity": 0.00045469,
        "meta_inclination": 1.5766,
        "meta_ra_of_asc_node": 83.7229,
        "meta_arg_of_pericenter": 276.7853,
        "meta_mean_anomaly": 113.3571,
        "meta_ephemeris_type": 0,
        "meta_classification_type": "U",
        "meta_norad_cat_id": 37392,
        "meta_element_set_no": 999,
        "meta_rev_at_epoch": 5240,
        "meta_bstar": 0,
        "meta_mean_motion_dot": -2.22e-06,
        "meta_mean_motion_ddot": 0,
        "tle_line1": "1 37392U 11016A   26079.90869947 -.00000222  00000+0  00000+0 0  9994",
        "tle_line2": "2 37392   1.5766  83.7229 0004546 276.7853 113.3571  1.00270886 52403"
      },
      "geometry": {
        "type": "Point",
        "coordinates": [
          -142.00691657052175,
          1.1420053902817855
        ]
      }
    },
    {
      "type": "Feature",
      "properties": {
        "norad_id": 37834,
        "name": "INTELSAT 18 (IS-18)",
        "group": "intelsat",
        "lat": -0.014460013773198098,
        "lon": 69.72938747653177,
        "alt_km": 35782.94624038834,
        "timestamp": "2026-03-21T04:43:58.075312+00:00",
        "meta_object_name": "INTELSAT 18 (IS-18)",
        "meta_object_id": "2011-056A",
        "meta_epoch": "2026-03-20T21:06:13.191840",
        "meta_mean_motion": 1.00273117,
        "meta_eccentricity": 0.00016633,
        "meta_inclination": 0.0278,
        "meta_ra_of_asc_node": 254.1922,
        "meta_arg_of_pericenter": 108.4327,
        "meta_mean_anomaly": 312.3278,
        "meta_ephemeris_type": 0,
        "meta_classification_type": "U",
        "meta_norad_cat_id": 37834,
        "meta_element_set_no": 999,
        "meta_rev_at_epoch": 5292,
        "meta_bstar": 0,
        "meta_mean_motion_dot": 5.5e-07,
        "meta_mean_motion_ddot": 0,
        "tle_line1": "1 37834U 11056A   26079.87931935  .00000055  00000+0  00000+0 0  9995",
        "tle_line2": "2 37834   0.0278 254.1922 0001663 108.4327 312.3278  1.00273117 52926"
      },
      "geometry": {
        "type": "Point",
        "coordinates": [
          69.72938747653177,
          -0.014460013773198098
        ]
      }
    },
    {
      "type": "Feature",
      "properties": {
        "norad_id": 38098,
        "name": "INTELSAT 22 (IS-22)",
        "group": "intelsat",
        "lat": 0.01713010483549785,
        "lon": -38.20659758828407,
        "alt_km": 35781.310912046836,
        "timestamp": "2026-03-21T04:43:58.075325+00:00",
        "meta_object_name": "INTELSAT 22 (IS-22)",
        "meta_object_id": "2012-011A",
        "meta_epoch": "2026-03-20T21:42:21.696192",
        "meta_mean_motion": 1.00271814,
        "meta_eccentricity": 0.00017054,
        "meta_inclination": 0.0016,
        "meta_ra_of_asc_node": 177.4198,
        "meta_arg_of_pericenter": 193.2643,
        "meta_mean_anomaly": 205.4268,
        "meta_ephemeris_type": 0,
        "meta_classification_type": "U",
        "meta_norad_cat_id": 38098,
        "meta_element_set_no": 999,
        "meta_rev_at_epoch": 630,
        "meta_bstar": 0,
        "meta_mean_motion_dot": -5.6e-07,
        "meta_mean_motion_ddot": 0,
        "tle_line1": "1 38098U 12011A   26079.90441778 -.00000056  00000+0  00000+0 0  9997",
        "tle_line2": "2 38098   0.0016 177.4198 0001705 193.2643 205.4268  1.00271814  6305"
      },
      "geometry": {
        "type": "Point",
        "coordinates": [
          -38.20659758828407,
          0.01713010483549785
        ]
      }
    },
    {
      "type": "Feature",
      "properties": {
        "norad_id": 38356,
        "name": "INTELSAT 19 (IS-19)",
        "group": "intelsat",
        "lat": -0.040525412177632454,
        "lon": 55.743917883067326,
        "alt_km": 35779.1096610831,
        "timestamp": "2026-03-21T04:43:58.075337+00:00",
        "meta_object_name": "INTELSAT 19 (IS-19)",
        "meta_object_id": "2012-030A",
        "meta_epoch": "2026-03-20T21:02:13.575264",
        "meta_mean_motion": 1.00269999,
        "meta_eccentricity": 0.0002979,
        "meta_inclination": 0.0207,
        "meta_ra_of_asc_node": 162.9986,
        "meta_arg_of_pericenter": 199.0395,
        "meta_mean_anomaly": 297.9217,
        "meta_ephemeris_type": 0,
        "meta_classification_type": "U",
        "meta_norad_cat_id": 38356,
        "meta_element_set_no": 999,
        "meta_rev_at_epoch": 4956,
        "meta_bstar": 0,
        "meta_mean_motion_dot": 0,
        "meta_mean_motion_ddot": 0,
        "tle_line1": "1 38356U 12030A   26079.87654601  .00000000  00000+0  00000+0 0  9990",
        "tle_line2": "2 38356   0.0207 162.9986 0002979 199.0395 297.9217  1.00269999 49566"
      },
      "geometry": {
        "type": "Point",
        "coordinates": [
          55.743917883067326,
          -0.040525412177632454
        ]
      }
    },
    {
      "type": "Feature",
      "properties": {
        "norad_id": 38740,
        "name": "INTELSAT 20 (IS-20)",
        "group": "intelsat",
        "lat": 0.005984731770183777,
        "lon": -41.77929027600394,
        "alt_km": 35797.32967886282,
        "timestamp": "2026-03-21T04:43:58.075349+00:00",
        "meta_object_name": "INTELSAT 20 (IS-20)",
        "meta_object_id": "2012-043A",
        "meta_epoch": "2026-03-20T17:44:38.810112",
        "meta_mean_motion": 1.00271544,
        "meta_eccentricity": 0.000283,
        "meta_inclination": 0.0135,
        "meta_ra_of_asc_node": 118.1287,
        "meta_arg_of_pericenter": 40.6682,
        "meta_mean_anomaly": 354.1239,
        "meta_ephemeris_type": 0,
        "meta_classification_type": "U",
        "meta_norad_cat_id": 38740,
        "meta_element_set_no": 999,
        "meta_rev_at_epoch": 4986,
        "meta_bstar": 0,
        "meta_mean_motion_dot": -2.2e-07,
        "meta_mean_motion_ddot": 0,
        "tle_line1": "1 38740U 12043A   26079.73933808 -.00000022  00000+0  00000+0 0  9990",
        "tle_line2": "2 38740   0.0135 118.1287 0002830  40.6682 354.1239  1.00271544 49868"
      },
      "geometry": {
        "type": "Point",
        "coordinates": [
          -41.77929027600394,
          0.005984731770183777
        ]
      }
    },
    {
      "type": "Feature",
      "properties": {
        "norad_id": 38749,
        "name": "INTELSAT 21 (IS-21)",
        "group": "intelsat",
        "lat": 0.01914180689579086,
        "lon": -168.29256490231987,
        "alt_km": 35793.92471498102,
        "timestamp": "2026-03-21T04:43:58.075361+00:00",
        "meta_object_name": "INTELSAT 21 (IS-21)",
        "meta_object_id": "2012-045A",
        "meta_epoch": "2026-03-20T21:37:59.060928",
        "meta_mean_motion": 1.0027214,
        "meta_eccentricity": 0.0001877,
        "meta_inclination": 0.019,
        "meta_ra_of_asc_node": 112.1259,
        "meta_arg_of_pericenter": 253.492,
        "meta_mean_anomaly": 79.297,
        "meta_ephemeris_type": 0,
        "meta_classification_type": "U",
        "meta_norad_cat_id": 38749,
        "meta_element_set_no": 999,
        "meta_rev_at_epoch": 4963,
        "meta_bstar": 0,
        "meta_mean_motion_dot": -2.82e-06,
        "meta_mean_motion_ddot": 0,
        "tle_line1": "1 38749U 12045A   26079.90137802 -.00000282  00000+0  00000+0 0  9998",
        "tle_line2": "2 38749   0.0190 112.1259 0001877 253.4920  79.2970  1.00272140 49635"
      },
      "geometry": {
        "type": "Point",
        "coordinates": [
          -168.29256490231987,
          0.01914180689579086
        ]
      }
    },
    {
      "type": "Feature",
      "properties": {
        "norad_id": 38867,
        "name": "INTELSAT 23 (IS-23)",
        "group": "intelsat",
        "lat": -0.02217474624592237,
        "lon": -163.2999227247605,
        "alt_km": 35789.66735821561,
        "timestamp": "2026-03-21T04:43:58.075372+00:00",
        "meta_object_name": "INTELSAT 23 (IS-23)",
        "meta_object_id": "2012-057A",
        "meta_epoch": "2026-03-20T19:59:42.070848",
        "meta_mean_motion": 1.00269745,
        "meta_eccentricity": 7.459e-05,
        "meta_inclination": 0.0337,
        "meta_ra_of_asc_node": 253.2125,
        "meta_arg_of_pericenter": 103.4709,
        "meta_mean_anomaly": 68.5897,
        "meta_ephemeris_type": 0,
        "meta_classification_type": "U",
        "meta_norad_cat_id": 38867,
        "meta_element_set_no": 999,
        "meta_rev_at_epoch": 4906,
        "meta_bstar": 0,
        "meta_mean_motion_dot": -2.82e-06,
        "meta_mean_motion_ddot": 0,
        "tle_line1": "1 38867U 12057A   26079.83312582 -.00000282  00000+0  00000+0 0  9994",
        "tle_line2": "2 38867   0.0337 253.2125 0000745 103.4709  68.5897  1.00269745 49063"
      },
      "geometry": {
        "type": "Point",
        "coordinates": [
          -163.2999227247605,
          -0.02217474624592237
        ]
      }
    },
    {
      "type": "Feature",
      "properties": {
        "norad_id": 39360,
        "name": "FM-6",
        "group": "intelsat",
        "lat": -0.01210167703971636,
        "lon": 133.33674429913373,
        "alt_km": 35779.2702032762,
        "timestamp": "2026-03-21T04:43:58.075384+00:00",
        "meta_object_name": "FM-6",
        "meta_object_id": "2013-058A",
        "meta_epoch": "2026-03-20T21:24:03.979872",
        "meta_mean_motion": 1.00268908,
        "meta_eccentricity": 0.0002902,
        "meta_inclination": 0.0259,
        "meta_ra_of_asc_node": 129.7503,
        "meta_arg_of_pericenter": 55.4022,
        "meta_mean_anomaly": 197.9301,
        "meta_ephemeris_type": 0,
        "meta_classification_type": "U",
        "meta_norad_cat_id": 39360,
        "meta_element_set_no": 999,
        "meta_rev_at_epoch": 4518,
        "meta_bstar": 0,
        "meta_mean_motion_dot": -1.3e-07,
        "meta_mean_motion_ddot": 0,
        "tle_line1": "1 39360U 13058A   26079.89171273 -.00000013  00000+0  00000+0 0  9993",
        "tle_line2": "2 39360   0.0259 129.7503 0002902  55.4022 197.9301  1.00268908 45189"
      },
      "geometry": {
        "type": "Point",
        "coordinates": [
          133.33674429913373,
          -0.01210167703971636
        ]
      }
    },
    {
      "type": "Feature",
      "properties": {
        "norad_id": 40271,
        "name": "INTELSAT 30 (IS-30)",
        "group": "intelsat",
        "lat": 0.003211563481826107,
        "lon": 154.66416927419166,
        "alt_km": 35781.241380015475,
        "timestamp": "2026-03-21T04:43:58.075395+00:00",
        "meta_object_name": "INTELSAT 30 (IS-30)",
        "meta_object_id": "2014-062A",
        "meta_epoch": "2026-03-20T21:30:25.869600",
        "meta_mean_motion": 1.00272967,
        "meta_eccentricity": 0.00011886,
        "meta_inclination": 0.0184,
        "meta_ra_of_asc_node": 105.5138,
        "meta_arg_of_pericenter": 23.5705,
        "meta_mean_anomaly": 276.8848,
        "meta_ephemeris_type": 0,
        "meta_classification_type": "U",
        "meta_norad_cat_id": 40271,
        "meta_element_set_no": 999,
        "meta_rev_at_epoch": 590,
        "meta_bstar": 0,
        "meta_mean_motion_dot": -1.49e-06,
        "meta_mean_motion_ddot": 0,
        "tle_line1": "1 40271U 14062A   26079.89613275 -.00000149  00000+0  00000+0 0  9995",
        "tle_line2": "2 40271   0.0184 105.5138 0001188  23.5705 276.8848  1.00272967  5903"
      },
      "geometry": {
        "type": "Point",
        "coordinates": [
          154.66416927419166,
          0.003211563481826107
        ]
      }
    },
    {
      "type": "Feature",
      "properties": {
        "norad_id": 40333,
        "name": "DIRECTV 14",
        "group": "intelsat",
        "lat": -0.015387135235403235,
        "lon": 150.48302920157502,
        "alt_km": 35785.52309199424,
        "timestamp": "2026-03-21T04:43:58.075407+00:00",
        "meta_object_name": "DIRECTV 14",
        "meta_object_id": "2014-078B",
        "meta_epoch": "2026-03-20T21:29:10.990176",
        "meta_mean_motion": 1.00269367,
        "meta_eccentricity": 3.493e-05,
        "meta_inclination": 0.0175,
        "meta_ra_of_asc_node": 164.3146,
        "meta_arg_of_pericenter": 18.6255,
        "meta_mean_anomaly": 218.5469,
        "meta_ephemeris_type": 0,
        "meta_classification_type": "U",
        "meta_norad_cat_id": 40333,
        "meta_element_set_no": 999,
        "meta_rev_at_epoch": 4115,
        "meta_bstar": 0,
        "meta_mean_motion_dot": 0,
        "meta_mean_motion_ddot": 0,
        "tle_line1": "1 40333U 14078B   26079.89526609  .00000000  00000+0  00000+0 0  9990",
        "tle_line2": "2 40333   0.0175 164.3146 0000349  18.6255 218.5469  1.00269367 41156"
      },
      "geometry": {
        "type": "Point",
        "coordinates": [
          150.48302920157502,
          -0.015387135235403235
        ]
      }
    },
    {
      "type": "Feature",
      "properties": {
        "norad_id": 40663,
        "name": "DIRECTV 15",
        "group": "intelsat",
        "lat": 0.0043405214681726135,
        "lon": 146.82426560314755,
        "alt_km": 35783.52491191615,
        "timestamp": "2026-03-21T04:43:58.075418+00:00",
        "meta_object_name": "DIRECTV 15",
        "meta_object_id": "2015-026A",
        "meta_epoch": "2026-03-20T16:20:09.271104",
        "meta_mean_motion": 1.00273031,
        "meta_eccentricity": 6.44e-05,
        "meta_inclination": 0.0265,
        "meta_ra_of_asc_node": 102.0266,
        "meta_arg_of_pericenter": 80.5798,
        "meta_mean_anomaly": 137.7503,
        "meta_ephemeris_type": 0,
        "meta_classification_type": "U",
        "meta_norad_cat_id": 40663,
        "meta_element_set_no": 999,
        "meta_rev_at_epoch": 3957,
        "meta_bstar": 0,
        "meta_mean_motion_dot": -1e-06,
        "meta_mean_motion_ddot": 0,
        "tle_line1": "1 40663U 15026A   26079.68066286 -.00000100  00000+0  00000+0 0  9999",
        "tle_line2": "2 40663   0.0265 102.0266 0000644  80.5798 137.7503  1.00273031 39579"
      },
      "geometry": {
        "type": "Point",
        "coordinates": [
          146.82426560314755,
          0.0043405214681726135
        ]
      }
    },
    {
      "type": "Feature",
      "properties": {
        "norad_id": 40664,
        "name": "SKY MEXICO-1",
        "group": "intelsat",
        "lat": 0.006977253270999541,
        "lon": 170.91579157918622,
        "alt_km": 35794.411582806875,
        "timestamp": "2026-03-21T04:43:58.075430+00:00",
        "meta_object_name": "SKY MEXICO-1",
        "meta_object_id": "2015-026B",
        "meta_epoch": "2026-03-20T21:35:02.926752",
        "meta_mean_motion": 1.00271506,
        "meta_eccentricity": 0.00021435,
        "meta_inclination": 0.02,
        "meta_ra_of_asc_node": 146.087,
        "meta_arg_of_pericenter": 229.9844,
        "meta_mean_anomaly": 47.3039,
        "meta_ephemeris_type": 0,
        "meta_classification_type": "U",
        "meta_norad_cat_id": 40664,
        "meta_element_set_no": 999,
        "meta_rev_at_epoch": 3956,
        "meta_bstar": 0,
        "meta_mean_motion_dot": -2.32e-06,
        "meta_mean_motion_ddot": 0,
        "tle_line1": "1 40664U 15026B   26079.89933943 -.00000232  00000+0  00000+0 0  9992",
        "tle_line2": "2 40664   0.0200 146.0870 0002143 229.9844  47.3039  1.00271506 39569"
      },
      "geometry": {
        "type": "Point",
        "coordinates": [
          170.91579157918622,
          0.006977253270999541
        ]
      }
    },
    {
      "type": "Feature",
      "properties": {
        "norad_id": 40874,
        "name": "INTELSAT 34 (IS-34)",
        "group": "intelsat",
        "lat": -0.010611125073972598,
        "lon": -165.778302173868,
        "alt_km": 35785.586215904725,
        "timestamp": "2026-03-21T04:43:58.075441+00:00",
        "meta_object_name": "INTELSAT 34 (IS-34)",
        "meta_object_id": "2015-039A",
        "meta_epoch": "2026-03-20T19:59:04.631136",
        "meta_mean_motion": 1.0027201,
        "meta_eccentricity": 1.671e-05,
        "meta_inclination": 0.0181,
        "meta_ra_of_asc_node": 259.6689,
        "meta_arg_of_pericenter": 341.9843,
        "meta_mean_anomaly": 180.9806,
        "meta_ephemeris_type": 0,
        "meta_classification_type": "U",
        "meta_norad_cat_id": 40874,
        "meta_element_set_no": 999,
        "meta_rev_at_epoch": 3873,
        "meta_bstar": 0,
        "meta_mean_motion_dot": -2.83e-06,
        "meta_mean_motion_ddot": 0,
        "tle_line1": "1 40874U 15039A   26079.83269249 -.00000283  00000+0  00000+0 0  9990",
        "tle_line2": "2 40874   0.0181 259.6689 0000167 341.9843 180.9806  1.00272010 38732"
      },
      "geometry": {
        "type": "Point",
        "coordinates": [
          -165.778302173868,
          -0.010611125073972598
        ]
      }
    },
    {
      "type": "Feature",
      "properties": {
        "norad_id": 41581,
        "name": "INTELSAT 31 (IS-31)",
        "group": "intelsat",
        "lat": -0.042227629278900655,
        "lon": 154.63629703112966,
        "alt_km": 35786.43091943098,
        "timestamp": "2026-03-21T04:43:58.075453+00:00",
        "meta_object_name": "INTELSAT 31 (IS-31)",
        "meta_object_id": "2016-035A",
        "meta_epoch": "2026-03-20T21:30:25.869600",
        "meta_mean_motion": 1.0027228,
        "meta_eccentricity": 0.00019097,
        "meta_inclination": 0.033,
        "meta_ra_of_asc_node": 244.5412,
        "meta_arg_of_pericenter": 3.6709,
        "meta_mean_anomaly": 157.7574,
        "meta_ephemeris_type": 0,
        "meta_classification_type": "U",
        "meta_norad_cat_id": 41581,
        "meta_element_set_no": 999,
        "meta_rev_at_epoch": 3579,
        "meta_bstar": 0,
        "meta_mean_motion_dot": -1.48e-06,
        "meta_mean_motion_ddot": 0,
        "tle_line1": "1 41581U 16035A   26079.89613275 -.00000148  00000+0  00000+0 0  9991",
        "tle_line2": "2 41581   0.0330 244.5412 0001909   3.6709 157.7574  1.00272280 35795"
      },
      "geometry": {
        "type": "Point",
        "coordinates": [
          154.63629703112966,
          -0.042227629278900655
        ]
      }
    },
    {
      "type": "Feature",
      "properties": {
        "norad_id": 41747,
        "name": "INTELSAT 36 (IS-36)",
        "group": "intelsat",
        "lat": 0.02142509949458648,
        "lon": -41.782820894054055,
        "alt_km": 35782.15360906373,
        "timestamp": "2026-03-21T04:43:58.075464+00:00",
        "meta_object_name": "INTELSAT 36 (IS-36)",
        "meta_object_id": "2016-053A",
        "meta_epoch": "2026-03-20T18:51:45.324864",
        "meta_mean_motion": 1.00267353,
        "meta_eccentricity": 0.0001223,
        "meta_inclination": 0.0098,
        "meta_ra_of_asc_node": 169.9158,
        "meta_arg_of_pericenter": 150.0174,
        "meta_mean_anomaly": 209.8254,
        "meta_ephemeris_type": 0,
        "meta_classification_type": "U",
        "meta_norad_cat_id": 41747,
        "meta_element_set_no": 999,
        "meta_rev_at_epoch": 3507,
        "meta_bstar": 0,
        "meta_mean_motion_dot": 0,
        "meta_mean_motion_ddot": 0,
        "tle_line1": "1 41747U 16053A   26079.78594126  .00000000  00000+0  00000+0 0  9992",
        "tle_line2": "2 41747   0.0098 169.9158 0001223 150.0174 209.8254  1.00267353 35079"
      },
      "geometry": {
        "type": "Point",
        "coordinates": [
          -41.782820894054055,
          0.02142509949458648
        ]
      }
    },
    {
      "type": "Feature",
      "properties": {
        "norad_id": 41945,
        "name": "INTELSAT 32E (IS-32E)",
        "group": "intelsat",
        "lat": 0.027302446904687753,
        "lon": -153.48404304749658,
        "alt_km": 35787.00800372352,
        "timestamp": "2026-03-21T04:43:58.075476+00:00",
        "meta_object_name": "INTELSAT 32E (IS-32E)",
        "meta_object_id": "2017-007B",
        "meta_epoch": "2026-03-20T20:02:34.296288",
        "meta_mean_motion": 1.00270131,
        "meta_eccentricity": 5.271e-05,
        "meta_inclination": 0.0192,
        "meta_ra_of_asc_node": 153.6195,
        "meta_arg_of_pericenter": 153.6968,
        "meta_mean_anomaly": 128.4948,
        "meta_ephemeris_type": 0,
        "meta_classification_type": "U",
        "meta_norad_cat_id": 41945,
        "meta_element_set_no": 999,
        "meta_rev_at_epoch": 3333,
        "meta_bstar": 0,
        "meta_mean_motion_dot": -2.67e-06,
        "meta_mean_motion_ddot": 0,
        "tle_line1": "1 41945U 17007B   26079.83511917 -.00000267  00000+0  00000+0 0  9991",
        "tle_line2": "2 41945   0.0192 153.6195 0000527 153.6968 128.4948  1.00270131 33332"
      },
      "geometry": {
        "type": "Point",
        "coordinates": [
          -153.48404304749658,
          0.027302446904687753
        ]
      }
    },
    {
      "type": "Feature",
      "properties": {
        "norad_id": 42818,
        "name": "INTELSAT 35E (IS-35E)",
        "group": "intelsat",
        "lat": 0.004978396261713289,
        "lon": -144.8120840626933,
        "alt_km": 35792.51728438016,
        "timestamp": "2026-03-21T04:43:58.075488+00:00",
        "meta_object_name": "INTELSAT 35E (IS-35E)",
        "meta_object_id": "2017-041A",
        "meta_epoch": "2026-03-20T21:47:39.217920",
        "meta_mean_motion": 1.00271927,
        "meta_eccentricity": 0.0001996,
        "meta_inclination": 0.012,
        "meta_ra_of_asc_node": 223.3496,
        "meta_arg_of_pericenter": 131.451,
        "meta_mean_anomaly": 116.0315,
        "meta_ephemeris_type": 0,
        "meta_classification_type": "U",
        "meta_norad_cat_id": 42818,
        "meta_element_set_no": 999,
        "meta_rev_at_epoch": 3193,
        "meta_bstar": 0,
        "meta_mean_motion_dot": -2.36e-06,
        "meta_mean_motion_ddot": 0,
        "tle_line1": "1 42818U 17041A   26079.90809280 -.00000236  00000+0  00000+0 0  9996",
        "tle_line2": "2 42818   0.0120 223.3496 0001996 131.4510 116.0315  1.00271927 31939"
      },
      "geometry": {
        "type": "Point",
        "coordinates": [
          -144.8120840626933,
          0.004978396261713289
        ]
      }
    },
    {
      "type": "Feature",
      "properties": {
        "norad_id": 42950,
        "name": "INTELSAT 37E (IS-37E)",
        "group": "intelsat",
        "lat": 0.03618245569042358,
        "lon": -128.29894232320174,
        "alt_km": 35791.53042620298,
        "timestamp": "2026-03-21T04:43:58.075500+00:00",
        "meta_object_name": "INTELSAT 37E (IS-37E)",
        "meta_object_id": "2017-059A",
        "meta_epoch": "2026-03-20T21:52:23.763360",
        "meta_mean_motion": 1.00271604,
        "meta_eccentricity": 0.00020262,
        "meta_inclination": 0.0187,
        "meta_ra_of_asc_node": 141.6843,
        "meta_arg_of_pericenter": 218.9039,
        "meta_mean_anomaly": 127.9495,
        "meta_ephemeris_type": 0,
        "meta_classification_type": "U",
        "meta_norad_cat_id": 42950,
        "meta_element_set_no": 999,
        "meta_rev_at_epoch": 3118,
        "meta_bstar": 0,
        "meta_mean_motion_dot": -1.38e-06,
        "meta_mean_motion_ddot": 0,
        "tle_line1": "1 42950U 17059A   26079.91138615 -.00000138  00000+0  00000+0 0  9991",
        "tle_line2": "2 42950   0.0187 141.6843 0002026 218.9039 127.9495  1.00271604 31188"
      },
      "geometry": {
        "type": "Point",
        "coordinates": [
          -128.29894232320174,
          0.03618245569042358
        ]
      }
    },
    {
      "type": "Feature",
      "properties": {
        "norad_id": 43632,
        "name": "AZERSPACE 2 (IS-38)",
        "group": "intelsat",
        "lat": 0.04416240621970603,
        "lon": -65.18953445803956,
        "alt_km": 35782.95275908931,
        "timestamp": "2026-03-21T04:43:58.075511+00:00",
        "meta_object_name": "AZERSPACE 2 (IS-38)",
        "meta_object_id": "2018-074A",
        "meta_epoch": "2026-03-20T22:10:22.038816",
        "meta_mean_motion": 1.00270961,
        "meta_eccentricity": 0.00013749,
        "meta_inclination": 0.0211,
        "meta_ra_of_asc_node": 186.3709,
        "meta_arg_of_pericenter": 163.5106,
        "meta_mean_anomaly": 206.2661,
        "meta_ephemeris_type": 0,
        "meta_classification_type": "U",
        "meta_norad_cat_id": 43632,
        "meta_element_set_no": 999,
        "meta_rev_at_epoch": 2756,
        "meta_bstar": 0,
        "meta_mean_motion_dot": 0,
        "meta_mean_motion_ddot": 0,
        "tle_line1": "1 43632U 18074A   26079.92386619  .00000000  00000+0  00000+0 0  9994",
        "tle_line2": "2 43632   0.0211 186.3709 0001374 163.5106 206.2661  1.00270961 27564"
      },
      "geometry": {
        "type": "Point",
        "coordinates": [
          -65.18953445803956,
          0.04416240621970603
        ]
      }
    },
    {
      "type": "Feature",
      "properties": {
        "norad_id": 43633,
        "name": "HORIZONS-3E",
        "group": "intelsat",
        "lat": 0.006038112837587051,
        "lon": 58.71353658426852,
        "alt_km": 35786.396308358475,
        "timestamp": "2026-03-21T04:43:58.075523+00:00",
        "meta_object_name": "HORIZONS-3E",
        "meta_object_id": "2018-074B",
        "meta_epoch": "2026-03-20T17:37:24.364128",
        "meta_mean_motion": 1.00272019,
        "meta_eccentricity": 8.281e-05,
        "meta_inclination": 0.0176,
        "meta_ra_of_asc_node": 11.5278,
        "meta_arg_of_pericenter": 310.4363,
        "meta_mean_anomaly": 289.6357,
        "meta_ephemeris_type": 0,
        "meta_classification_type": "U",
        "meta_norad_cat_id": 43633,
        "meta_element_set_no": 999,
        "meta_rev_at_epoch": 2745,
        "meta_bstar": 0,
        "meta_mean_motion_dot": -2.8e-07,
        "meta_mean_motion_ddot": 0,
        "tle_line1": "1 43633U 18074B   26079.73430977 -.00000028  00000+0  00000+0 0  9992",
        "tle_line2": "2 43633   0.0176  11.5278 0000828 310.4363 289.6357  1.00272019 27457"
      },
      "geometry": {
        "type": "Point",
        "coordinates": [
          58.71353658426852,
          0.006038112837587051
        ]
      }
    },
    {
      "type": "Feature",
      "properties": {
        "norad_id": 44333,
        "name": "AT&T T-16",
        "group": "intelsat",
        "lat": 0.0012360554662125317,
        "lon": 148.84227358506374,
        "alt_km": 35782.078775660746,
        "timestamp": "2026-03-21T04:43:58.075534+00:00",
        "meta_object_name": "AT&T T-16",
        "meta_object_id": "2019-034A",
        "meta_epoch": "2026-03-20T12:55:23.310336",
        "meta_mean_motion": 1.00271492,
        "meta_eccentricity": 0.0001138,
        "meta_inclination": 0.0191,
        "meta_ra_of_asc_node": 111.2086,
        "meta_arg_of_pericenter": 69.4385,
        "meta_mean_anomaly": 90.4015,
        "meta_ephemeris_type": 0,
        "meta_classification_type": "U",
        "meta_norad_cat_id": 44333,
        "meta_element_set_no": 999,
        "meta_rev_at_epoch": 2474,
        "meta_bstar": 0,
        "meta_mean_motion_dot": -1.13e-06,
        "meta_mean_motion_ddot": 0,
        "tle_line1": "1 44333U 19034A   26079.53846424 -.00000113  00000+0  00000+0 0  9998",
        "tle_line2": "2 44333   0.0191 111.2086 0001138  69.4385  90.4015  1.00271492 24749"
      },
      "geometry": {
        "type": "Point",
        "coordinates": [
          148.84227358506374,
          0.0012360554662125317
        ]
      }
    },
    {
      "type": "Feature",
      "properties": {
        "norad_id": 44476,
        "name": "INTELSAT 39 (IS-39)",
        "group": "intelsat",
        "lat": 0.036531240726307916,
        "lon": -48.33302043684044,
        "alt_km": 35787.62429770917,
        "timestamp": "2026-03-21T04:43:58.075546+00:00",
        "meta_object_name": "INTELSAT 39 (IS-39)",
        "meta_object_id": "2019-049B",
        "meta_epoch": "2026-03-20T23:01:44.065920",
        "meta_mean_motion": 1.00269902,
        "meta_eccentricity": 5.768e-05,
        "meta_inclination": 0.0213,
        "meta_ra_of_asc_node": 181.6514,
        "meta_arg_of_pericenter": 15.126,
        "meta_mean_anomaly": 29.0855,
        "meta_ephemeris_type": 0,
        "meta_classification_type": "U",
        "meta_norad_cat_id": 44476,
        "meta_element_set_no": 999,
        "meta_rev_at_epoch": 2424,
        "meta_bstar": 0,
        "meta_mean_motion_dot": 0,
        "meta_mean_motion_ddot": 0,
        "tle_line1": "1 44476U 19049B   26079.95953780  .00000000  00000+0  00000+0 0  9996",
        "tle_line2": "2 44476   0.0213 181.6514 0000576  15.1260  29.0855  1.00269902 24242"
      },
      "geometry": {
        "type": "Point",
        "coordinates": [
          -48.33302043684044,
          0.036531240726307916
        ]
      }
    },
    {
      "type": "Feature",
      "properties": {
        "norad_id": 46114,
        "name": "GALAXY 30 (G-30)",
        "group": "intelsat",
        "lat": -0.03879360350491774,
        "lon": 124.73133882116457,
        "alt_km": 35790.26040195053,
        "timestamp": "2026-03-21T04:43:58.075557+00:00",
        "meta_object_name": "GALAXY 30 (G-30)",
        "meta_object_id": "2020-056C",
        "meta_epoch": "2026-03-20T16:13:47.381376",
        "meta_mean_motion": 1.00271119,
        "meta_eccentricity": 0.0001972,
        "meta_inclination": 0.0209,
        "meta_ra_of_asc_node": 179.4279,
        "meta_arg_of_pericenter": 186.5749,
        "meta_mean_anomaly": 290.6446,
        "meta_ephemeris_type": 0,
        "meta_classification_type": "U",
        "meta_norad_cat_id": 46114,
        "meta_element_set_no": 999,
        "meta_rev_at_epoch": 2040,
        "meta_bstar": 0,
        "meta_mean_motion_dot": 0,
        "meta_mean_motion_ddot": 0,
        "tle_line1": "1 46114U 20056C   26079.67624284  .00000000  00000+0  00000+0 0  9990",
        "tle_line2": "2 46114   0.0209 179.4279 0001972 186.5749 290.6446  1.00271119 20406"
      },
      "geometry": {
        "type": "Point",
        "coordinates": [
          124.73133882116457,
          -0.03879360350491774
        ]
      }
    },
    {
      "type": "Feature",
      "properties": {
        "norad_id": 54026,
        "name": "GALAXY 33 (G-33)",
        "group": "intelsat",
        "lat": -0.03790990470904779,
        "lon": 116.73339244391492,
        "alt_km": 35790.769542022506,
        "timestamp": "2026-03-21T04:43:58.075569+00:00",
        "meta_object_name": "GALAXY 33 (G-33)",
        "meta_object_id": "2022-128A",
        "meta_epoch": "2026-03-20T23:19:30.990144",
        "meta_mean_motion": 1.00270767,
        "meta_eccentricity": 0.00018314,
        "meta_inclination": 0.016,
        "meta_ra_of_asc_node": 180.8315,
        "meta_arg_of_pericenter": 171.1031,
        "meta_mean_anomaly": 43.4403,
        "meta_ephemeris_type": 0,
        "meta_classification_type": "U",
        "meta_norad_cat_id": 54026,
        "meta_element_set_no": 999,
        "meta_rev_at_epoch": 1285,
        "meta_bstar": 0,
        "meta_mean_motion_dot": 0,
        "meta_mean_motion_ddot": 0,
        "tle_line1": "1 54026U 22128A   26079.97188646  .00000000  00000+0  00000+0 0  9993",
        "tle_line2": "2 54026   0.0160 180.8315 0001831 171.1031  43.4403  1.00270767 12853"
      },
      "geometry": {
        "type": "Point",
        "coordinates": [
          116.73339244391492,
          -0.03790990470904779
        ]
      }
    },
    {
      "type": "Feature",
      "properties": {
        "norad_id": 54027,
        "name": "GALAXY 34 (G-34)",
        "group": "intelsat",
        "lat": -0.020307562032940246,
        "lon": 120.7162731469436,
        "alt_km": 35788.822258902626,
        "timestamp": "2026-03-21T04:43:58.075580+00:00",
        "meta_object_name": "GALAXY 34 (G-34)",
        "meta_object_id": "2022-128B",
        "meta_epoch": "2026-03-20T23:26:08.704896",
        "meta_mean_motion": 1.00271669,
        "meta_eccentricity": 0.00014256,
        "meta_inclination": 0.014,
        "meta_ra_of_asc_node": 139.6066,
        "meta_arg_of_pericenter": 224.3537,
        "meta_mean_anomaly": 37.0611,
        "meta_ephemeris_type": 0,
        "meta_classification_type": "U",
        "meta_norad_cat_id": 54027,
        "meta_element_set_no": 999,
        "meta_rev_at_epoch": 1302,
        "meta_bstar": 0,
        "meta_mean_motion_dot": 6.1e-07,
        "meta_mean_motion_ddot": 0,
        "tle_line1": "1 54027U 22128B   26079.97648964  .00000061  00000+0  00000+0 0  9995",
        "tle_line2": "2 54027   0.0140 139.6066 0001425 224.3537  37.0611  1.00271669 13020"
      },
      "geometry": {
        "type": "Point",
        "coordinates": [
          120.7162731469436,
          -0.020307562032940246
        ]
      }
    },
    {
      "type": "Feature",
      "properties": {
        "norad_id": 54243,
        "name": "GALAXY 31 (G-31)",
        "group": "intelsat",
        "lat": -0.031387836628487265,
        "lon": 128.7240192267382,
        "alt_km": 35789.27485241358,
        "timestamp": "2026-03-21T04:43:58.075592+00:00",
        "meta_object_name": "GALAXY 31 (G-31)",
        "meta_object_id": "2022-153A",
        "meta_epoch": "2026-03-20T16:15:02.261664",
        "meta_mean_motion": 1.00272033,
        "meta_eccentricity": 0.000143,
        "meta_inclination": 0.0104,
        "meta_ra_of_asc_node": 199.1979,
        "meta_arg_of_pericenter": 166.7304,
        "meta_mean_anomaly": 295.029,
        "meta_ephemeris_type": 0,
        "meta_classification_type": "U",
        "meta_norad_cat_id": 54243,
        "meta_element_set_no": 999,
        "meta_rev_at_epoch": 624,
        "meta_bstar": 0,
        "meta_mean_motion_dot": 1.6e-07,
        "meta_mean_motion_ddot": 0,
        "tle_line1": "1 54243U 22153A   26079.67710951  .00000016  00000+0  00000+0 0  9996",
        "tle_line2": "2 54243   0.0104 199.1979 0001430 166.7304 295.0290  1.00272033  6242"
      },
      "geometry": {
        "type": "Point",
        "coordinates": [
          128.7240192267382,
          -0.031387836628487265
        ]
      }
    },
    {
      "type": "Feature",
      "properties": {
        "norad_id": 54244,
        "name": "GALAXY 32 (G-32)",
        "group": "intelsat",
        "lat": 0.0035118153348821495,
        "lon": 158.7186944671115,
        "alt_km": 35797.87069331986,
        "timestamp": "2026-03-21T04:43:58.075603+00:00",
        "meta_object_name": "GALAXY 32 (G-32)",
        "meta_object_id": "2022-153B",
        "meta_epoch": "2026-03-20T21:31:33.262464",
        "meta_mean_motion": 1.00271809,
        "meta_eccentricity": 0.00029092,
        "meta_inclination": 0.0192,
        "meta_ra_of_asc_node": 129.5323,
        "meta_arg_of_pericenter": 226.2785,
        "meta_mean_anomaly": 54.4916,
        "meta_ephemeris_type": 0,
        "meta_classification_type": "U",
        "meta_norad_cat_id": 54244,
        "meta_element_set_no": 999,
        "meta_rev_at_epoch": 1225,
        "meta_bstar": 0,
        "meta_mean_motion_dot": -1.72e-06,
        "meta_mean_motion_ddot": 0,
        "tle_line1": "1 54244U 22153B   26079.89691276 -.00000172  00000+0  00000+0 0  9993",
        "tle_line2": "2 54244   0.0192 129.5323 0002909 226.2785  54.4916  1.00271809 12257"
      },
      "geometry": {
        "type": "Point",
        "coordinates": [
          158.7186944671115,
          0.0035118153348821495
        ]
      }
    },
    {
      "type": "Feature",
      "properties": {
        "norad_id": 54741,
        "name": "GALAXY 35 (G-35)",
        "group": "intelsat",
        "lat": -0.024043476510581557,
        "lon": 156.5937214697928,
        "alt_km": 35794.28965705398,
        "timestamp": "2026-03-21T04:43:58.075615+00:00",
        "meta_object_name": "GALAXY 35 (G-35)",
        "meta_object_id": "2022-170A",
        "meta_epoch": "2026-03-20T21:30:55.821888",
        "meta_mean_motion": 1.0027065,
        "meta_eccentricity": 0.0001942,
        "meta_inclination": 0.0123,
        "meta_ra_of_asc_node": 211.6542,
        "meta_arg_of_pericenter": 141.8075,
        "meta_mean_anomaly": 54.5639,
        "meta_ephemeris_type": 0,
        "meta_classification_type": "U",
        "meta_norad_cat_id": 54741,
        "meta_element_set_no": 999,
        "meta_rev_at_epoch": 1200,
        "meta_bstar": 0,
        "meta_mean_motion_dot": -1.6e-06,
        "meta_mean_motion_ddot": 0,
        "tle_line1": "1 54741U 22170A   26079.89647942 -.00000160  00000+0  00000+0 0  9992",
        "tle_line2": "2 54741   0.0123 211.6542 0001942 141.8075  54.5639  1.00270650 12008"
      },
      "geometry": {
        "type": "Point",
        "coordinates": [
          156.5937214697928,
          -0.024043476510581557
        ]
      }
    },
    {
      "type": "Feature",
      "properties": {
        "norad_id": 54742,
        "name": "GALAXY 36 (G-36)",
        "group": "intelsat",
        "lat": 0.0003669206952413339,
        "lon": 160.73232727393693,
        "alt_km": 35789.947118436496,
        "timestamp": "2026-03-21T04:43:58.075626+00:00",
        "meta_object_name": "GALAXY 36 (G-36)",
        "meta_object_id": "2022-170B",
        "meta_epoch": "2026-03-20T21:32:10.702176",
        "meta_mean_motion": 1.00271699,
        "meta_eccentricity": 0.00020738,
        "meta_inclination": 0.0187,
        "meta_ra_of_asc_node": 144.0543,
        "meta_arg_of_pericenter": 261.0428,
        "meta_mean_anomaly": 7.364,
        "meta_ephemeris_type": 0,
        "meta_classification_type": "U",
        "meta_norad_cat_id": 54742,
        "meta_element_set_no": 999,
        "meta_rev_at_epoch": 1188,
        "meta_bstar": 0,
        "meta_mean_motion_dot": -1.83e-06,
        "meta_mean_motion_ddot": 0,
        "tle_line1": "1 54742U 22170B   26079.89734609 -.00000183  00000+0  00000+0 0  9995",
        "tle_line2": "2 54742   0.0187 144.0543 0002073 261.0428   7.3640  1.00271699 11889"
      },
      "geometry": {
        "type": "Point",
        "coordinates": [
          160.73232727393693,
          0.0003669206952413339
        ]
      }
    },
    {
      "type": "Feature",
      "properties": {
        "norad_id": 57493,
        "name": "GALAXY 37 (G-37)",
        "group": "intelsat",
        "lat": -0.019588696524970074,
        "lon": 122.72322305033377,
        "alt_km": 35791.080943317575,
        "timestamp": "2026-03-21T04:43:58.075638+00:00",
        "meta_object_name": "GALAXY 37 (G-37)",
        "meta_object_id": "2023-112A",
        "meta_epoch": "2026-03-20T23:29:25.823040",
        "meta_mean_motion": 1.00270948,
        "meta_eccentricity": 0.00019522,
        "meta_inclination": 0.0204,
        "meta_ra_of_asc_node": 134.1779,
        "meta_arg_of_pericenter": 223.2324,
        "meta_mean_anomaly": 46.4385,
        "meta_ephemeris_type": 0,
        "meta_classification_type": "U",
        "meta_norad_cat_id": 57493,
        "meta_element_set_no": 999,
        "meta_rev_at_epoch": 965,
        "meta_bstar": 0,
        "meta_mean_motion_dot": 5.1e-07,
        "meta_mean_motion_ddot": 0,
        "tle_line1": "1 57493U 23112A   26079.97877110  .00000051  00000+0  00000+0 0  9995",
        "tle_line2": "2 57493   0.0204 134.1779 0001952 223.2324  46.4385  1.00270948  9654"
      },
      "geometry": {
        "type": "Point",
        "coordinates": [
          122.72322305033377,
          -0.019588696524970074
        ]
      }
    }
  ]
}