{
  "type": "FeatureCollection",
  "features": [
    {
      "type": "Feature",
      "properties": {
        "norad_id": 25590,
        "name": "COSMOS 2361",
        "group": "musson",
        "lat": -30.717209303515624,
        "lon": -82.96086129705446,
        "alt_km": 982.8846536714609,
        "timestamp": "2026-03-07T16:37:56.397604+00:00",
        "meta_object_name": "COSMOS 2361",
        "meta_object_id": "1998-076A",
        "meta_epoch": "2026-03-07T03:20:59.355168",
        "meta_mean_motion": 13.73227176,
        "meta_eccentricity": 0.00321958,
        "meta_inclination": 82.9308,
        "meta_ra_of_asc_node": 281.6766,
        "meta_arg_of_pericenter": 33.0253,
        "meta_mean_anomaly": 81.9797,
        "meta_ephemeris_type": 0,
        "meta_classification_type": "U",
        "meta_norad_cat_id": 25590,
        "meta_element_set_no": 999,
        "meta_rev_at_epoch": 36269,
        "meta_bstar": 4.979919e-05,
        "meta_mean_motion_dot": 6.1e-07,
        "meta_mean_motion_ddot": 0,
        "tle_line1": "1 25590U 98076A   26066.13957587  .00000061  00000+0  49799-4 0  9994",
        "tle_line2": "2 25590  82.9308 281.6766 0032195  33.0253  81.9797 13.73227176362691"
      },
      "geometry": {
        "type": "Point",
        "coordinates": [
          -82.96086129705446,
          -30.717209303515624
        ]
      }
    },
    {
      "type": "Feature",
      "properties": {
        "norad_id": 26818,
        "name": "COSMOS 2378",
        "group": "musson",
        "lat": -35.55642959398291,
        "lon": -68.34359444196578,
        "alt_km": 967.3025943985649,
        "timestamp": "2026-03-07T16:37:56.397625+00:00",
        "meta_object_name": "COSMOS 2378",
        "meta_object_id": "2001-023A",
        "meta_epoch": "2026-03-07T03:25:01.138656",
        "meta_mean_motion": 13.74150802,
        "meta_eccentricity": 0.00324573,
        "meta_inclination": 82.9255,
        "meta_ra_of_asc_node": 297.157,
        "meta_arg_of_pericenter": 334.223,
        "meta_mean_anomaly": 147.6101,
        "meta_ephemeris_type": 0,
        "meta_classification_type": "U",
        "meta_norad_cat_id": 26818,
        "meta_element_set_no": 999,
        "meta_rev_at_epoch": 24082,
        "meta_bstar": 5.1873584e-05,
        "meta_mean_motion_dot": 6.4e-07,
        "meta_mean_motion_ddot": 0,
        "tle_line1": "1 26818U 01023A   26066.14237429  .00000064  00000+0  51874-4 0  9991",
        "tle_line2": "2 26818  82.9255 297.1570 0032457 334.2230 147.6101 13.74150802240824"
      },
      "geometry": {
        "type": "Point",
        "coordinates": [
          -68.34359444196578,
          -35.55642959398291
        ]
      }
    },
    {
      "type": "Feature",
      "properties": {
        "norad_id": 27436,
        "name": "COSMOS 2389",
        "group": "musson",
        "lat": 59.05583305620777,
        "lon": 52.175950601475364,
        "alt_km": 958.8372635228161,
        "timestamp": "2026-03-07T16:37:56.397639+00:00",
        "meta_object_name": "COSMOS 2389",
        "meta_object_id": "2002-026A",
        "meta_epoch": "2026-03-06T23:07:01.173792",
        "meta_mean_motion": 13.75164129,
        "meta_eccentricity": 0.00462768,
        "meta_inclination": 82.9467,
        "meta_ra_of_asc_node": 244.6337,
        "meta_arg_of_pericenter": 183.3749,
        "meta_mean_anomaly": 286.3091,
        "meta_ephemeris_type": 0,
        "meta_classification_type": "U",
        "meta_norad_cat_id": 27436,
        "meta_element_set_no": 999,
        "meta_rev_at_epoch": 19306,
        "meta_bstar": 4.3246019e-05,
        "meta_mean_motion_dot": 5.7e-07,
        "meta_mean_motion_ddot": 0,
        "tle_line1": "1 27436U 02026A   26065.96320803  .00000057  00000+0  43246-4 0  9996",
        "tle_line2": "2 27436  82.9467 244.6337 0046276 183.3749 286.3091 13.75164129193066"
      },
      "geometry": {
        "type": "Point",
        "coordinates": [
          52.175950601475364,
          59.05583305620777
        ]
      }
    },
    {
      "type": "Feature",
      "properties": {
        "norad_id": 27818,
        "name": "COSMOS 2398",
        "group": "musson",
        "lat": -51.62802372431917,
        "lon": -158.9038062031272,
        "alt_km": 991.0824818001911,
        "timestamp": "2026-03-07T16:37:56.397651+00:00",
        "meta_object_name": "COSMOS 2398",
        "meta_object_id": "2003-023A",
        "meta_epoch": "2026-03-07T08:13:27.665184",
        "meta_mean_motion": 13.72395118,
        "meta_eccentricity": 0.00303638,
        "meta_inclination": 82.9488,
        "meta_ra_of_asc_node": 210.3472,
        "meta_arg_of_pericenter": 236.4744,
        "meta_mean_anomaly": 141.1994,
        "meta_ephemeris_type": 0,
        "meta_classification_type": "U",
        "meta_norad_cat_id": 27818,
        "meta_element_set_no": 999,
        "meta_rev_at_epoch": 13977,
        "meta_bstar": 6.2944592e-05,
        "meta_mean_motion_dot": 7.3e-07,
        "meta_mean_motion_ddot": 0,
        "tle_line1": "1 27818U 03023A   26066.34268131  .00000073  00000+0  62945-4 0  9991",
        "tle_line2": "2 27818  82.9488 210.3472 0030363 236.4744 141.1994 13.72395118139777"
      },
      "geometry": {
        "type": "Point",
        "coordinates": [
          -158.9038062031272,
          -51.62802372431917
        ]
      }
    },
    {
      "type": "Feature",
      "properties": {
        "norad_id": 28380,
        "name": "COSMOS 2407",
        "group": "musson",
        "lat": -80.46239180650373,
        "lon": 17.318142106693465,
        "alt_km": 983.829072411545,
        "timestamp": "2026-03-07T16:37:56.397666+00:00",
        "meta_object_name": "COSMOS 2407",
        "meta_object_id": "2004-028A",
        "meta_epoch": "2026-03-07T06:55:43.906368",
        "meta_mean_motion": 13.76324764,
        "meta_eccentricity": 0.00395125,
        "meta_inclination": 82.9635,
        "meta_ra_of_asc_node": 150.3032,
        "meta_arg_of_pericenter": 175.4213,
        "meta_mean_anomaly": 245.5238,
        "meta_ephemeris_type": 0,
        "meta_classification_type": "U",
        "meta_norad_cat_id": 28380,
        "meta_element_set_no": 999,
        "meta_rev_at_epoch": 8586,
        "meta_bstar": 7.8737809e-05,
        "meta_mean_motion_dot": 9.3e-07,
        "meta_mean_motion_ddot": 0,
        "tle_line1": "1 28380U 04028A   26066.28870262  .00000093  00000+0  78738-4 0  9998",
        "tle_line2": "2 28380  82.9635 150.3032 0039512 175.4213 245.5238 13.76324764 85862"
      },
      "geometry": {
        "type": "Point",
        "coordinates": [
          17.318142106693465,
          -80.46239180650373
        ]
      }
    },
    {
      "type": "Feature",
      "properties": {
        "norad_id": 28521,
        "name": "COSMOS 2414",
        "group": "musson",
        "lat": 72.36224833985713,
        "lon": -82.48175662846234,
        "alt_km": 953.9984021937362,
        "timestamp": "2026-03-07T16:37:56.397679+00:00",
        "meta_object_name": "COSMOS 2414",
        "meta_object_id": "2005-002A",
        "meta_epoch": "2026-03-07T05:44:17.883168",
        "meta_mean_motion": 13.87915234,
        "meta_eccentricity": 0.00386851,
        "meta_inclination": 82.9485,
        "meta_ra_of_asc_node": 120.7721,
        "meta_arg_of_pericenter": 259.6057,
        "meta_mean_anomaly": 100.0745,
        "meta_ephemeris_type": 0,
        "meta_classification_type": "U",
        "meta_norad_cat_id": 28521,
        "meta_element_set_no": 999,
        "meta_rev_at_epoch": 6967,
        "meta_bstar": 7.9252454e-05,
        "meta_mean_motion_dot": 1.1e-06,
        "meta_mean_motion_ddot": 0,
        "tle_line1": "1 28521U 05002A   26066.23909587  .00000110  00000+0  79252-4 0  9998",
        "tle_line2": "2 28521  82.9485 120.7721 0038685 259.6057 100.0745 13.87915234 69678"
      },
      "geometry": {
        "type": "Point",
        "coordinates": [
          -82.48175662846234,
          72.36224833985713
        ]
      }
    },
    {
      "type": "Feature",
      "properties": {
        "norad_id": 32052,
        "name": "COSMOS 2429",
        "group": "musson",
        "lat": -54.75112935233328,
        "lon": -89.35120035190728,
        "alt_km": 1012.2082848571681,
        "timestamp": "2026-03-07T16:37:56.397690+00:00",
        "meta_object_name": "COSMOS 2429",
        "meta_object_id": "2007-038A",
        "meta_epoch": "2026-03-07T01:11:12.893856",
        "meta_mean_motion": 13.75157931,
        "meta_eccentricity": 0.00387929,
        "meta_inclination": 82.9771,
        "meta_ra_of_asc_node": 281.1684,
        "meta_arg_of_pericenter": 158.8967,
        "meta_mean_anomaly": 201.3801,
        "meta_ephemeris_type": 0,
        "meta_classification_type": "U",
        "meta_norad_cat_id": 32052,
        "meta_element_set_no": 999,
        "meta_rev_at_epoch": 92761,
        "meta_bstar": 4.6063685e-05,
        "meta_mean_motion_dot": 6e-07,
        "meta_mean_motion_ddot": 0,
        "tle_line1": "1 32052U 07038A   26066.04945479  .00000060  00000+0  46064-4 0  9991",
        "tle_line2": "2 32052  82.9771 281.1684 0038792 158.8967 201.3801 13.75157931927613"
      },
      "geometry": {
        "type": "Point",
        "coordinates": [
          -89.35120035190728,
          -54.75112935233328
        ]
      }
    },
    {
      "type": "Feature",
      "properties": {
        "norad_id": 35635,
        "name": "COSMOS 2454",
        "group": "musson",
        "lat": 54.5248918204074,
        "lon": 114.24264940162941,
        "alt_km": 932.5945966055197,
        "timestamp": "2026-03-07T16:37:56.397700+00:00",
        "meta_object_name": "COSMOS 2454",
        "meta_object_id": "2009-039A",
        "meta_epoch": "2026-03-07T04:36:25.749216",
        "meta_mean_motion": 13.89940938,
        "meta_eccentricity": 0.00190275,
        "meta_inclination": 82.953,
        "meta_ra_of_asc_node": 104.6271,
        "meta_arg_of_pericenter": 186.6422,
        "meta_mean_anomaly": 243.0186,
        "meta_ephemeris_type": 0,
        "meta_classification_type": "U",
        "meta_norad_cat_id": 35635,
        "meta_element_set_no": 999,
        "meta_rev_at_epoch": 84323,
        "meta_bstar": 5.0642942e-05,
        "meta_mean_motion_dot": 7.8e-07,
        "meta_mean_motion_ddot": 0,
        "tle_line1": "1 35635U 09039A   26066.19196469  .00000078  00000+0  50643-4 0  9994",
        "tle_line2": "2 35635  82.9530 104.6271 0019027 186.6422 243.0186 13.89940938843238"
      },
      "geometry": {
        "type": "Point",
        "coordinates": [
          114.24264940162941,
          54.5248918204074
        ]
      }
    },
    {
      "type": "Feature",
      "properties": {
        "norad_id": 36519,
        "name": "COSMOS 2463",
        "group": "musson",
        "lat": -82.78058459823492,
        "lon": -112.86589741299667,
        "alt_km": 1022.4132765934919,
        "timestamp": "2026-03-07T16:37:56.397711+00:00",
        "meta_object_name": "COSMOS 2463",
        "meta_object_id": "2010-017A",
        "meta_epoch": "2026-03-07T05:21:20.367360",
        "meta_mean_motion": 13.71657771,
        "meta_eccentricity": 0.00372811,
        "meta_inclination": 82.9634,
        "meta_ra_of_asc_node": 324.6432,
        "meta_arg_of_pericenter": 54.1751,
        "meta_mean_anomaly": 58.8393,
        "meta_ephemeris_type": 0,
        "meta_classification_type": "U",
        "meta_norad_cat_id": 36519,
        "meta_element_set_no": 999,
        "meta_rev_at_epoch": 79395,
        "meta_bstar": 7.5318993e-05,
        "meta_mean_motion_dot": 8.4e-07,
        "meta_mean_motion_ddot": 0,
        "tle_line1": "1 36519U 10017A   26066.22315240  .00000084  00000+0  75319-4 0  9992",
        "tle_line2": "2 36519  82.9634 324.6432 0037281  54.1751  58.8393 13.71657771793950"
      },
      "geometry": {
        "type": "Point",
        "coordinates": [
          -112.86589741299667,
          -82.78058459823492
        ]
      }
    }
  ]
}