{
  "type": "FeatureCollection",
  "features": [
    {
      "type": "Feature",
      "properties": {
        "norad_id": 2807,
        "name": "OPS 7218 (TRANSIT 16)",
        "group": "nnss",
        "lat": 77.47890934004967,
        "lon": -6.98050910183032,
        "alt_km": 1075.8934156271307,
        "timestamp": "2026-02-24T21:45:04.122145+00:00",
        "meta_object_name": "OPS 7218 (TRANSIT 16)",
        "meta_object_id": "1967-048A",
        "meta_epoch": "2026-02-24T09:30:21.833856",
        "meta_mean_motion": 13.50740679,
        "meta_eccentricity": 0.00182101,
        "meta_inclination": 89.6806,
        "meta_ra_of_asc_node": 351.5967,
        "meta_arg_of_pericenter": 263.5609,
        "meta_mean_anomaly": 214.415,
        "meta_ephemeris_type": 0,
        "meta_classification_type": "U",
        "meta_norad_cat_id": 2807,
        "meta_element_set_no": 999,
        "meta_rev_at_epoch": 89270,
        "meta_bstar": 0.00019076618,
        "meta_mean_motion_dot": 1.33e-06,
        "meta_mean_motion_ddot": 0,
        "tle_line1": "1 02807U 67048A   26055.39608604  .00000133  00000+0  19077-3 0  9999",
        "tle_line2": "2 02807  89.6806 351.5967 0018210 263.5609 214.4150 13.50740679892700"
      },
      "geometry": {
        "type": "Point",
        "coordinates": [
          -6.98050910183032,
          77.47890934004967
        ]
      }
    },
    {
      "type": "Feature",
      "properties": {
        "norad_id": 2965,
        "name": "OPS 4947 (TRANSIT 17)",
        "group": "nnss",
        "lat": 28.787004560962114,
        "lon": -161.62889998305988,
        "alt_km": 1080.5332636927933,
        "timestamp": "2026-02-24T21:45:04.122167+00:00",
        "meta_object_name": "OPS 4947 (TRANSIT 17)",
        "meta_object_id": "1967-092A",
        "meta_epoch": "2026-02-24T09:08:21.912288",
        "meta_mean_motion": 13.534739,
        "meta_eccentricity": 0.00486693,
        "meta_inclination": 89.2542,
        "meta_ra_of_asc_node": 18.8209,
        "meta_arg_of_pericenter": 24.2829,
        "meta_mean_anomaly": 87.4737,
        "meta_ephemeris_type": 0,
        "meta_classification_type": "U",
        "meta_norad_cat_id": 2965,
        "meta_element_set_no": 999,
        "meta_rev_at_epoch": 88093,
        "meta_bstar": 0.00021599578,
        "meta_mean_motion_dot": 1.58e-06,
        "meta_mean_motion_ddot": 0,
        "tle_line1": "1 02965U 67092A   26055.38080917  .00000158  00000+0  21600-3 0  9995",
        "tle_line2": "2 02965  89.2542  18.8209 0048669  24.2829  87.4737 13.53473900880931"
      },
      "geometry": {
        "type": "Point",
        "coordinates": [
          -161.62889998305988,
          28.787004560962114
        ]
      }
    },
    {
      "type": "Feature",
      "properties": {
        "norad_id": 3133,
        "name": "OPS 7034 (TRANSIT 18)",
        "group": "nnss",
        "lat": 23.856153267355005,
        "lon": 93.85109481994145,
        "alt_km": 1116.9396637841028,
        "timestamp": "2026-02-24T21:45:04.122181+00:00",
        "meta_object_name": "OPS 7034 (TRANSIT 18)",
        "meta_object_id": "1968-012A",
        "meta_epoch": "2026-02-24T12:23:27.178656",
        "meta_mean_motion": 13.51585955,
        "meta_eccentricity": 0.00726584,
        "meta_inclination": 90.0224,
        "meta_ra_of_asc_node": 273.8403,
        "meta_arg_of_pericenter": 318.0182,
        "meta_mean_anomaly": 101.7502,
        "meta_ephemeris_type": 0,
        "meta_classification_type": "U",
        "meta_norad_cat_id": 3133,
        "meta_element_set_no": 999,
        "meta_rev_at_epoch": 57915,
        "meta_bstar": 0.00013748979,
        "meta_mean_motion_dot": 1e-06,
        "meta_mean_motion_ddot": 0,
        "tle_line1": "1 03133U 68012A   26055.51628679  .00000100  00000+0  13749-3 0  9996",
        "tle_line2": "2 03133  90.0224 273.8403 0072658 318.0182 101.7502 13.51585955579157"
      },
      "geometry": {
        "type": "Point",
        "coordinates": [
          93.85109481994145,
          23.856153267355005
        ]
      }
    },
    {
      "type": "Feature",
      "properties": {
        "norad_id": 4507,
        "name": "NNSS 19 (TRANSIT 19)",
        "group": "nnss",
        "lat": 59.90039034222621,
        "lon": -125.43338126573381,
        "alt_km": 938.6275816111711,
        "timestamp": "2026-02-24T21:45:04.122192+00:00",
        "meta_object_name": "NNSS 19 (TRANSIT 19)",
        "meta_object_id": "1970-067A",
        "meta_epoch": "2026-02-24T12:34:36.982560",
        "meta_mean_motion": 13.5133464,
        "meta_eccentricity": 0.01736484,
        "meta_inclination": 90.0039,
        "meta_ra_of_asc_node": 234.5732,
        "meta_arg_of_pericenter": 79.3569,
        "meta_mean_anomaly": 282.7086,
        "meta_ephemeris_type": 0,
        "meta_classification_type": "U",
        "meta_norad_cat_id": 4507,
        "meta_element_set_no": 999,
        "meta_rev_at_epoch": 73218,
        "meta_bstar": 0.00020635546,
        "meta_mean_motion_dot": 1.58e-06,
        "meta_mean_motion_ddot": 0,
        "tle_line1": "1 04507U 70067A   26055.52403915  .00000158  00000+0  20636-3 0  9996",
        "tle_line2": "2 04507  90.0039 234.5732 0173648  79.3569 282.7086 13.51334640732187"
      },
      "geometry": {
        "type": "Point",
        "coordinates": [
          -125.43338126573381,
          59.90039034222621
        ]
      }
    },
    {
      "type": "Feature",
      "properties": {
        "norad_id": 6909,
        "name": "NNSS 20 (TRANSIT 20)",
        "group": "nnss",
        "lat": 81.35437522474578,
        "lon": 72.94797132652778,
        "alt_km": 1036.3533240391753,
        "timestamp": "2026-02-24T21:45:04.122204+00:00",
        "meta_object_name": "NNSS 20 (TRANSIT 20)",
        "meta_object_id": "1973-081A",
        "meta_epoch": "2026-02-24T12:30:14.871744",
        "meta_mean_motion": 13.71469279,
        "meta_eccentricity": 0.01534115,
        "meta_inclination": 89.8511,
        "meta_ra_of_asc_node": 253.9339,
        "meta_arg_of_pericenter": 216.4535,
        "meta_mean_anomaly": 142.6107,
        "meta_ephemeris_type": 0,
        "meta_classification_type": "U",
        "meta_norad_cat_id": 6909,
        "meta_element_set_no": 999,
        "meta_rev_at_epoch": 81372,
        "meta_bstar": 0.00016226528,
        "meta_mean_motion_dot": 1.68e-06,
        "meta_mean_motion_ddot": 0,
        "tle_line1": "1 06909U 73081A   26055.52100546  .00000168  00000+0  16227-3 0  9999",
        "tle_line2": "2 06909  89.8511 253.9339 0153411 216.4535 142.6107 13.71469279813724"
      },
      "geometry": {
        "type": "Point",
        "coordinates": [
          72.94797132652778,
          81.35437522474578
        ]
      }
    },
    {
      "type": "Feature",
      "properties": {
        "norad_id": 10457,
        "name": "TRANSAT",
        "group": "nnss",
        "lat": 27.193021468214766,
        "lon": -104.2462100737697,
        "alt_km": 1093.2061599211675,
        "timestamp": "2026-02-24T21:45:04.122215+00:00",
        "meta_object_name": "TRANSAT",
        "meta_object_id": "1977-106A",
        "meta_epoch": "2026-02-24T12:38:55.302144",
        "meta_mean_motion": 13.4895593,
        "meta_eccentricity": 0.00248869,
        "meta_inclination": 89.64,
        "meta_ra_of_asc_node": 75.9526,
        "meta_arg_of_pericenter": 345.1987,
        "meta_mean_anomaly": 126.7272,
        "meta_ephemeris_type": 0,
        "meta_classification_type": "U",
        "meta_norad_cat_id": 10457,
        "meta_element_set_no": 999,
        "meta_rev_at_epoch": 37738,
        "meta_bstar": 9.7002503e-05,
        "meta_mean_motion_dot": 7.1e-07,
        "meta_mean_motion_ddot": 0,
        "tle_line1": "1 10457U 77106A   26055.52702896  .00000071  00000+0  97003-4 0  9995",
        "tle_line2": "2 10457  89.6400  75.9526 0024886 345.1987 126.7272 13.48955930377387"
      },
      "geometry": {
        "type": "Point",
        "coordinates": [
          -104.2462100737697,
          27.193021468214766
        ]
      }
    },
    {
      "type": "Feature",
      "properties": {
        "norad_id": 12458,
        "name": "NOVA 1",
        "group": "nnss",
        "lat": 50.327753176969516,
        "lon": 90.49792149068452,
        "alt_km": 1175.8894638850388,
        "timestamp": "2026-02-24T21:45:04.122226+00:00",
        "meta_object_name": "NOVA 1",
        "meta_object_id": "1981-044A",
        "meta_epoch": "2026-02-24T13:12:12.088224",
        "meta_mean_motion": 13.23286353,
        "meta_eccentricity": 0.00123433,
        "meta_inclination": 89.8436,
        "meta_ra_of_asc_node": 90.3146,
        "meta_arg_of_pericenter": 258.8838,
        "meta_mean_anomaly": 255.7528,
        "meta_ephemeris_type": 0,
        "meta_classification_type": "U",
        "meta_norad_cat_id": 12458,
        "meta_element_set_no": 999,
        "meta_rev_at_epoch": 16162,
        "meta_bstar": 0.00014440182,
        "meta_mean_motion_dot": 7e-07,
        "meta_mean_motion_ddot": 0,
        "tle_line1": "1 12458U 81044A   26055.55013991  .00000070  00000+0  14440-3 0  9990",
        "tle_line2": "2 12458  89.8436  90.3146 0012343 258.8838 255.7528 13.23286353161624"
      },
      "geometry": {
        "type": "Point",
        "coordinates": [
          90.49792149068452,
          50.327753176969516
        ]
      }
    },
    {
      "type": "Feature",
      "properties": {
        "norad_id": 15362,
        "name": "NOVA 3",
        "group": "nnss",
        "lat": -41.370702333912014,
        "lon": -98.7229748248578,
        "alt_km": 1183.1091622821586,
        "timestamp": "2026-02-24T21:45:04.122236+00:00",
        "meta_object_name": "NOVA 3",
        "meta_object_id": "1984-110A",
        "meta_epoch": "2026-02-24T12:09:56.096064",
        "meta_mean_motion": 13.23054865,
        "meta_eccentricity": 0.00331781,
        "meta_inclination": 90.1134,
        "meta_ra_of_asc_node": 81.3726,
        "meta_arg_of_pericenter": 124.2862,
        "meta_mean_anomaly": 355.3849,
        "meta_ephemeris_type": 0,
        "meta_classification_type": "U",
        "meta_norad_cat_id": 15362,
        "meta_element_set_no": 999,
        "meta_rev_at_epoch": 99674,
        "meta_bstar": 0.00018144693,
        "meta_mean_motion_dot": 8.5e-07,
        "meta_mean_motion_ddot": 0,
        "tle_line1": "1 15362U 84110A   26055.50689926  .00000085  00000+0  18145-3 0  9998",
        "tle_line2": "2 15362  90.1134  81.3726 0033178 124.2862 355.3849 13.23054865996740"
      },
      "geometry": {
        "type": "Point",
        "coordinates": [
          -98.7229748248578,
          -41.370702333912014
        ]
      }
    },
    {
      "type": "Feature",
      "properties": {
        "norad_id": 15935,
        "name": "OSCAR 30",
        "group": "nnss",
        "lat": 4.106289852202268,
        "lon": -78.95207977787273,
        "alt_km": 1059.118235599346,
        "timestamp": "2026-02-24T21:45:04.122247+00:00",
        "meta_object_name": "OSCAR 30",
        "meta_object_id": "1985-066A",
        "meta_epoch": "2026-02-24T14:30:40.066560",
        "meta_mean_motion": 13.36092841,
        "meta_eccentricity": 0.01662409,
        "meta_inclination": 90.1568,
        "meta_ra_of_asc_node": 101.032,
        "meta_arg_of_pericenter": 234.8758,
        "meta_mean_anomaly": 292.365,
        "meta_ephemeris_type": 0,
        "meta_classification_type": "U",
        "meta_norad_cat_id": 15935,
        "meta_element_set_no": 999,
        "meta_rev_at_epoch": 97439,
        "meta_bstar": 0.00011649254,
        "meta_mean_motion_dot": 7.2e-07,
        "meta_mean_motion_ddot": 0,
        "tle_line1": "1 15935U 85066A   26055.60463040  .00000072  00000+0  11649-3 0  9991",
        "tle_line2": "2 15935  90.1568 101.0320 0166240 234.8758 292.3650 13.36092841974393"
      },
      "geometry": {
        "type": "Point",
        "coordinates": [
          -78.95207977787273,
          4.106289852202268
        ]
      }
    },
    {
      "type": "Feature",
      "properties": {
        "norad_id": 15936,
        "name": "OSCAR 24",
        "group": "nnss",
        "lat": -33.99336959479606,
        "lon": -86.52479868383689,
        "alt_km": 1018.1720193674346,
        "timestamp": "2026-02-24T21:45:04.122258+00:00",
        "meta_object_name": "OSCAR 24",
        "meta_object_id": "1985-066B",
        "meta_epoch": "2026-02-24T12:19:35.700960",
        "meta_mean_motion": 13.35950432,
        "meta_eccentricity": 0.0167135,
        "meta_inclination": 90.1701,
        "meta_ra_of_asc_node": 93.5834,
        "meta_arg_of_pericenter": 241.7308,
        "meta_mean_anomaly": 245.5101,
        "meta_ephemeris_type": 0,
        "meta_classification_type": "U",
        "meta_norad_cat_id": 15936,
        "meta_element_set_no": 999,
        "meta_rev_at_epoch": 97628,
        "meta_bstar": 0.00010645648,
        "meta_mean_motion_dot": 6.6e-07,
        "meta_mean_motion_ddot": 0,
        "tle_line1": "1 15936U 85066B   26055.51360765  .00000066  00000+0  10646-3 0  9991",
        "tle_line2": "2 15936  90.1701  93.5834 0167135 241.7308 245.5101 13.35950432976289"
      },
      "geometry": {
        "type": "Point",
        "coordinates": [
          -86.52479868383689,
          -33.99336959479606
        ]
      }
    },
    {
      "type": "Feature",
      "properties": {
        "norad_id": 17070,
        "name": "POLAR BEAR",
        "group": "nnss",
        "lat": 86.35904672679358,
        "lon": -5.095633440424803,
        "alt_km": 999.4690276218043,
        "timestamp": "2026-02-24T21:45:04.122269+00:00",
        "meta_object_name": "POLAR BEAR",
        "meta_object_id": "1986-088A",
        "meta_epoch": "2026-02-24T14:21:42.871104",
        "meta_mean_motion": 13.75267306,
        "meta_eccentricity": 0.00373905,
        "meta_inclination": 89.6244,
        "meta_ra_of_asc_node": 180.8334,
        "meta_arg_of_pericenter": 256.7901,
        "meta_mean_anomaly": 113.5586,
        "meta_ephemeris_type": 0,
        "meta_classification_type": "U",
        "meta_norad_cat_id": 17070,
        "meta_element_set_no": 999,
        "meta_rev_at_epoch": 96994,
        "meta_bstar": 0.00010994481,
        "meta_mean_motion_dot": 1.17e-06,
        "meta_mean_motion_ddot": 0,
        "tle_line1": "1 17070U 86088A   26055.59841286  .00000117  00000+0  10994-3 0  9990",
        "tle_line2": "2 17070  89.6244 180.8334 0037390 256.7901 113.5586 13.75267306969945"
      },
      "geometry": {
        "type": "Point",
        "coordinates": [
          -5.095633440424803,
          86.35904672679358
        ]
      }
    },
    {
      "type": "Feature",
      "properties": {
        "norad_id": 18361,
        "name": "OSCAR 27",
        "group": "nnss",
        "lat": -0.8921714386343856,
        "lon": -97.9910505650671,
        "alt_km": 1170.0142483979835,
        "timestamp": "2026-02-24T21:45:04.122279+00:00",
        "meta_object_name": "OSCAR 27",
        "meta_object_id": "1987-080A",
        "meta_epoch": "2026-02-24T11:55:48.385920",
        "meta_mean_motion": 13.44921936,
        "meta_eccentricity": 0.0104205,
        "meta_inclination": 90.3654,
        "meta_ra_of_asc_node": 81.9997,
        "meta_arg_of_pericenter": 14.4907,
        "meta_mean_anomaly": 345.9189,
        "meta_ephemeris_type": 0,
        "meta_classification_type": "U",
        "meta_norad_cat_id": 18361,
        "meta_element_set_no": 999,
        "meta_rev_at_epoch": 88548,
        "meta_bstar": 0.00011358323,
        "meta_mean_motion_dot": 7.7e-07,
        "meta_mean_motion_ddot": 0,
        "tle_line1": "1 18361U 87080A   26055.49708780  .00000077  00000+0  11358-3 0  9997",
        "tle_line2": "2 18361  90.3654  81.9997 0104205  14.4907 345.9189 13.44921936885482"
      },
      "geometry": {
        "type": "Point",
        "coordinates": [
          -97.9910505650671,
          -0.8921714386343856
        ]
      }
    },
    {
      "type": "Feature",
      "properties": {
        "norad_id": 18362,
        "name": "OSCAR 29",
        "group": "nnss",
        "lat": 70.98889121461607,
        "lon": 81.41555828540804,
        "alt_km": 1020.194328822985,
        "timestamp": "2026-02-24T21:45:04.122289+00:00",
        "meta_object_name": "OSCAR 29",
        "meta_object_id": "1987-080B",
        "meta_epoch": "2026-02-24T13:17:28.903200",
        "meta_mean_motion": 13.4446241,
        "meta_eccentricity": 0.01065429,
        "meta_inclination": 90.3664,
        "meta_ra_of_asc_node": 82.4668,
        "meta_arg_of_pericenter": 37.3665,
        "meta_mean_anomaly": 127.9,
        "meta_ephemeris_type": 0,
        "meta_classification_type": "U",
        "meta_norad_cat_id": 18362,
        "meta_element_set_no": 999,
        "meta_rev_at_epoch": 88501,
        "meta_bstar": 0.00011383369,
        "meta_mean_motion_dot": 7.7e-07,
        "meta_mean_motion_ddot": 0,
        "tle_line1": "1 18362U 87080B   26055.55380675  .00000077  00000+0  11383-3 0  9992",
        "tle_line2": "2 18362  90.3664  82.4668 0106542  37.3665 127.9000 13.44462410885012"
      },
      "geometry": {
        "type": "Point",
        "coordinates": [
          81.41555828540804,
          70.98889121461607
        ]
      }
    },
    {
      "type": "Feature",
      "properties": {
        "norad_id": 19070,
        "name": "OSCAR 23",
        "group": "nnss",
        "lat": 85.00508924567241,
        "lon": 14.95181048678313,
        "alt_km": 1194.572821348468,
        "timestamp": "2026-02-24T21:45:04.122300+00:00",
        "meta_object_name": "OSCAR 23",
        "meta_object_id": "1988-033A",
        "meta_epoch": "2026-02-24T14:58:40.772064",
        "meta_mean_motion": 13.27801271,
        "meta_eccentricity": 0.01888017,
        "meta_inclination": 90.327,
        "meta_ra_of_asc_node": 18.6892,
        "meta_arg_of_pericenter": 335.5272,
        "meta_mean_anomaly": 199.2333,
        "meta_ephemeris_type": 0,
        "meta_classification_type": "U",
        "meta_norad_cat_id": 19070,
        "meta_element_set_no": 999,
        "meta_rev_at_epoch": 83233,
        "meta_bstar": 0.00023694216,
        "meta_mean_motion_dot": 1.25e-06,
        "meta_mean_motion_ddot": 0,
        "tle_line1": "1 19070U 88033A   26055.62408301  .00000125  00000+0  23694-3 0  9995",
        "tle_line2": "2 19070  90.3270  18.6892 0188801 335.5272 199.2333 13.27801271832338"
      },
      "geometry": {
        "type": "Point",
        "coordinates": [
          14.95181048678313,
          85.00508924567241
        ]
      }
    },
    {
      "type": "Feature",
      "properties": {
        "norad_id": 19071,
        "name": "OSCAR 32",
        "group": "nnss",
        "lat": -55.52929410294634,
        "lon": -161.6428732120602,
        "alt_km": 1149.1967781630337,
        "timestamp": "2026-02-24T21:45:04.122310+00:00",
        "meta_object_name": "OSCAR 32",
        "meta_object_id": "1988-033B",
        "meta_epoch": "2026-02-24T10:17:52.528416",
        "meta_mean_motion": 13.27966359,
        "meta_eccentricity": 0.01868245,
        "meta_inclination": 90.3273,
        "meta_ra_of_asc_node": 18.819,
        "meta_arg_of_pericenter": 322.82,
        "meta_mean_anomaly": 154.6788,
        "meta_ephemeris_type": 0,
        "meta_classification_type": "U",
        "meta_norad_cat_id": 19071,
        "meta_element_set_no": 999,
        "meta_rev_at_epoch": 83243,
        "meta_bstar": 0.0001636029,
        "meta_mean_motion_dot": 8.8e-07,
        "meta_mean_motion_ddot": 0,
        "tle_line1": "1 19071U 88033B   26055.42908019  .00000088  00000+0  16360-3 0  9995",
        "tle_line2": "2 19071  90.3273  18.8190 0186824 322.8200 154.6788 13.27966359832437"
      },
      "geometry": {
        "type": "Point",
        "coordinates": [
          -161.6428732120602,
          -55.52929410294634
        ]
      }
    },
    {
      "type": "Feature",
      "properties": {
        "norad_id": 19223,
        "name": "NOVA 2",
        "group": "nnss",
        "lat": 3.200120360231869,
        "lon": -101.8521091620243,
        "alt_km": 1153.0956530000722,
        "timestamp": "2026-02-24T21:45:04.122321+00:00",
        "meta_object_name": "NOVA 2",
        "meta_object_id": "1988-052A",
        "meta_epoch": "2026-02-24T12:23:22.214112",
        "meta_mean_motion": 13.22945855,
        "meta_eccentricity": 0.00308518,
        "meta_inclination": 89.9785,
        "meta_ra_of_asc_node": 78.1499,
        "meta_arg_of_pericenter": 166.8109,
        "meta_mean_anomaly": 313.1429,
        "meta_ephemeris_type": 0,
        "meta_classification_type": "U",
        "meta_norad_cat_id": 19223,
        "meta_element_set_no": 999,
        "meta_rev_at_epoch": 81923,
        "meta_bstar": 0.00011107309,
        "meta_mean_motion_dot": 5.6e-07,
        "meta_mean_motion_ddot": 0,
        "tle_line1": "1 19223U 88052A   26055.51622933  .00000056  00000+0  11107-3 0  9992",
        "tle_line2": "2 19223  89.9785  78.1499 0030851 166.8109 313.1429 13.22945855819231"
      },
      "geometry": {
        "type": "Point",
        "coordinates": [
          -101.8521091620243,
          3.200120360231869
        ]
      }
    },
    {
      "type": "Feature",
      "properties": {
        "norad_id": 19419,
        "name": "OSCAR 25",
        "group": "nnss",
        "lat": 76.14071416931901,
        "lon": -159.34884429391354,
        "alt_km": 1064.6678901746645,
        "timestamp": "2026-02-24T21:45:04.122331+00:00",
        "meta_object_name": "OSCAR 25",
        "meta_object_id": "1988-074A",
        "meta_epoch": "2026-02-24T11:03:48.041280",
        "meta_mean_motion": 13.42638634,
        "meta_eccentricity": 0.00974776,
        "meta_inclination": 90.0396,
        "meta_ra_of_asc_node": 20.4888,
        "meta_arg_of_pericenter": 36.9229,
        "meta_mean_anomaly": 74.6703,
        "meta_ephemeris_type": 0,
        "meta_classification_type": "U",
        "meta_norad_cat_id": 19419,
        "meta_element_set_no": 999,
        "meta_rev_at_epoch": 83629,
        "meta_bstar": 0.00021016928,
        "meta_mean_motion_dot": 1.32e-06,
        "meta_mean_motion_ddot": 0,
        "tle_line1": "1 19419U 88074A   26055.46097270  .00000132  00000+0  21017-3 0  9993",
        "tle_line2": "2 19419  90.0396  20.4888 0097477  36.9229  74.6703 13.42638634836293"
      },
      "geometry": {
        "type": "Point",
        "coordinates": [
          -159.34884429391354,
          76.14071416931901
        ]
      }
    },
    {
      "type": "Feature",
      "properties": {
        "norad_id": 19420,
        "name": "OSCAR 31",
        "group": "nnss",
        "lat": -25.294313894769957,
        "lon": 20.872144427838666,
        "alt_km": 1063.9590135225144,
        "timestamp": "2026-02-24T21:45:04.122341+00:00",
        "meta_object_name": "OSCAR 31",
        "meta_object_id": "1988-074B",
        "meta_epoch": "2026-02-24T11:44:07.216224",
        "meta_mean_motion": 13.42595491,
        "meta_eccentricity": 0.00955095,
        "meta_inclination": 90.0413,
        "meta_ra_of_asc_node": 20.8509,
        "meta_arg_of_pericenter": 31.1602,
        "meta_mean_anomaly": 88.6628,
        "meta_ephemeris_type": 0,
        "meta_classification_type": "U",
        "meta_norad_cat_id": 19420,
        "meta_element_set_no": 999,
        "meta_rev_at_epoch": 83640,
        "meta_bstar": 0.00015491719,
        "meta_mean_motion_dot": 9.9e-07,
        "meta_mean_motion_ddot": 0,
        "tle_line1": "1 19420U 88074B   26055.48897241  .00000099  00000+0  15492-3 0  9995",
        "tle_line2": "2 19420  90.0413  20.8509 0095509  31.1602  88.6628 13.42595491836402"
      },
      "geometry": {
        "type": "Point",
        "coordinates": [
          20.872144427838666,
          -25.294313894769957
        ]
      }
    }
  ]
}