{
  "type": "FeatureCollection",
  "features": [
    {
      "type": "Feature",
      "properties": {
        "norad_id": 25544,
        "name": "ISS (ZARYA)",
        "group": "stations",
        "lat": 49.84534747877336,
        "lon": 112.09059053702363,
        "alt_km": 416.82895634555825,
        "timestamp": "2026-03-15T18:53:34.369352+00:00",
        "meta_object_name": "ISS (ZARYA)",
        "meta_object_id": "1998-067A",
        "meta_epoch": "2026-03-15T06:10:05.524032",
        "meta_mean_motion": 15.48289699,
        "meta_eccentricity": 0.00063497,
        "meta_inclination": 51.633,
        "meta_ra_of_asc_node": 44.8327,
        "meta_arg_of_pericenter": 192.8038,
        "meta_mean_anomaly": 167.279,
        "meta_ephemeris_type": 0,
        "meta_classification_type": "U",
        "meta_norad_cat_id": 25544,
        "meta_element_set_no": 999,
        "meta_rev_at_epoch": 55719,
        "meta_bstar": 0.00018620385,
        "meta_mean_motion_dot": 9.576e-05,
        "meta_mean_motion_ddot": 0,
        "tle_line1": "1 25544U 98067A   26074.25700838  .00009576  00000+0  18620-3 0  9998",
        "tle_line2": "2 25544  51.6330  44.8327 0006349 192.8038 167.2790 15.48289699557191"
      },
      "geometry": {
        "type": "Point",
        "coordinates": [
          112.09059053702363,
          49.84534747877336
        ]
      }
    },
    {
      "type": "Feature",
      "properties": {
        "norad_id": 36086,
        "name": "POISK",
        "group": "stations",
        "lat": 49.84534791435482,
        "lon": 112.09059294792566,
        "alt_km": 416.82895617693976,
        "timestamp": "2026-03-15T18:53:34.369377+00:00",
        "meta_object_name": "POISK",
        "meta_object_id": "2009-060A",
        "meta_epoch": "2026-03-15T06:10:05.524032",
        "meta_mean_motion": 15.48289699,
        "meta_eccentricity": 0.00063497,
        "meta_inclination": 51.633,
        "meta_ra_of_asc_node": 44.8327,
        "meta_arg_of_pericenter": 192.8038,
        "meta_mean_anomaly": 167.279,
        "meta_ephemeris_type": 0,
        "meta_classification_type": "U",
        "meta_norad_cat_id": 36086,
        "meta_element_set_no": 999,
        "meta_rev_at_epoch": 55444,
        "meta_bstar": 0.00018620385,
        "meta_mean_motion_dot": 9.576e-05,
        "meta_mean_motion_ddot": 0,
        "tle_line1": "1 36086U 09060A   26074.25700838  .00009576  00000+0  18620-3 0  9996",
        "tle_line2": "2 36086  51.6330  44.8327 0006349 192.8038 167.2790 15.48289699554449"
      },
      "geometry": {
        "type": "Point",
        "coordinates": [
          112.09059294792566,
          49.84534791435482
        ]
      }
    },
    {
      "type": "Feature",
      "properties": {
        "norad_id": 48274,
        "name": "CSS (TIANHE)",
        "group": "stations",
        "lat": -24.626938837181147,
        "lon": 139.77365778322832,
        "alt_km": 382.43064302219955,
        "timestamp": "2026-03-15T18:53:34.369398+00:00",
        "meta_object_name": "CSS (TIANHE)",
        "meta_object_id": "2021-035A",
        "meta_epoch": "2026-03-14T00:03:53.258400",
        "meta_mean_motion": 15.6090469,
        "meta_eccentricity": 0.0006689,
        "meta_inclination": 41.4663,
        "meta_ra_of_asc_node": 181.9138,
        "meta_arg_of_pericenter": 299.3968,
        "meta_mean_anomaly": 60.6202,
        "meta_ephemeris_type": 0,
        "meta_classification_type": "U",
        "meta_norad_cat_id": 48274,
        "meta_element_set_no": 999,
        "meta_rev_at_epoch": 27828,
        "meta_bstar": 0.00034787289,
        "meta_mean_motion_dot": 0.00029757,
        "meta_mean_motion_ddot": 0,
        "tle_line1": "1 48274U 21035A   26073.00269975  .00029757  00000+0  34787-3 0  9993",
        "tle_line2": "2 48274  41.4663 181.9138 0006689 299.3968  60.6202 15.60904690278280"
      },
      "geometry": {
        "type": "Point",
        "coordinates": [
          139.77365778322832,
          -24.626938837181147
        ]
      }
    },
    {
      "type": "Feature",
      "properties": {
        "norad_id": 49044,
        "name": "ISS (NAUKA)",
        "group": "stations",
        "lat": 49.845348489322234,
        "lon": 112.09059613031626,
        "alt_km": 416.82895595436366,
        "timestamp": "2026-03-15T18:53:34.369410+00:00",
        "meta_object_name": "ISS (NAUKA)",
        "meta_object_id": "2021-066A",
        "meta_epoch": "2026-03-15T06:10:05.524032",
        "meta_mean_motion": 15.48289699,
        "meta_eccentricity": 0.00063497,
        "meta_inclination": 51.633,
        "meta_ra_of_asc_node": 44.8327,
        "meta_arg_of_pericenter": 192.8038,
        "meta_mean_anomaly": 167.279,
        "meta_ephemeris_type": 0,
        "meta_classification_type": "U",
        "meta_norad_cat_id": 49044,
        "meta_element_set_no": 999,
        "meta_rev_at_epoch": 55445,
        "meta_bstar": 0.00018620385,
        "meta_mean_motion_dot": 9.576e-05,
        "meta_mean_motion_ddot": 0,
        "tle_line1": "1 49044U 21066A   26074.25700838  .00009576  00000+0  18620-3 0  9994",
        "tle_line2": "2 49044  51.6330  44.8327 0006349 192.8038 167.2790 15.48289699554458"
      },
      "geometry": {
        "type": "Point",
        "coordinates": [
          112.09059613031626,
          49.845348489322234
        ]
      }
    },
    {
      "type": "Feature",
      "properties": {
        "norad_id": 49271,
        "name": "FREGAT DEB",
        "group": "stations",
        "lat": -51.58251620179913,
        "lon": -163.95807723569075,
        "alt_km": 2219.490698569399,
        "timestamp": "2026-03-15T18:53:34.369422+00:00",
        "meta_object_name": "FREGAT DEB",
        "meta_object_id": "2011-037PF",
        "meta_epoch": "2026-03-15T13:35:53.056320",
        "meta_mean_motion": 12.40410649,
        "meta_eccentricity": 0.09623821,
        "meta_inclination": 51.6526,
        "meta_ra_of_asc_node": 283.1074,
        "meta_arg_of_pericenter": 72.9535,
        "meta_mean_anomaly": 297.4383,
        "meta_ephemeris_type": 0,
        "meta_classification_type": "U",
        "meta_norad_cat_id": 49271,
        "meta_element_set_no": 999,
        "meta_rev_at_epoch": 21342,
        "meta_bstar": 0.0217638,
        "meta_mean_motion_dot": 0.00015293,
        "meta_mean_motion_ddot": 0,
        "tle_line1": "1 49271U 11037PF  26074.56658630  .00015293  00000+0  21764-1 0  9993",
        "tle_line2": "2 49271  51.6526 283.1074 0962382  72.9535 297.4383 12.40410649213425"
      },
      "geometry": {
        "type": "Point",
        "coordinates": [
          -163.95807723569075,
          -51.58251620179913
        ]
      }
    },
    {
      "type": "Feature",
      "properties": {
        "norad_id": 53239,
        "name": "CSS (WENTIAN)",
        "group": "stations",
        "lat": -24.62693692045931,
        "lon": 139.77366085281722,
        "alt_km": 382.43064291691735,
        "timestamp": "2026-03-15T18:53:34.369450+00:00",
        "meta_object_name": "CSS (WENTIAN)",
        "meta_object_id": "2022-085A",
        "meta_epoch": "2026-03-14T00:03:53.258400",
        "meta_mean_motion": 15.6090469,
        "meta_eccentricity": 0.0006689,
        "meta_inclination": 41.4663,
        "meta_ra_of_asc_node": 181.9138,
        "meta_arg_of_pericenter": 299.3968,
        "meta_mean_anomaly": 60.6202,
        "meta_ephemeris_type": 0,
        "meta_classification_type": "U",
        "meta_norad_cat_id": 53239,
        "meta_element_set_no": 999,
        "meta_rev_at_epoch": 27561,
        "meta_bstar": 0.00034787289,
        "meta_mean_motion_dot": 0.00029757,
        "meta_mean_motion_ddot": 0,
        "tle_line1": "1 53239U 22085A   26073.00269975  .00029757  00000+0  34787-3 0  9996",
        "tle_line2": "2 53239  41.4663 181.9138 0006689 299.3968  60.6202 15.60904690275611"
      },
      "geometry": {
        "type": "Point",
        "coordinates": [
          139.77366085281722,
          -24.62693692045931
        ]
      }
    },
    {
      "type": "Feature",
      "properties": {
        "norad_id": 54216,
        "name": "CSS (MENGTIAN)",
        "group": "stations",
        "lat": -24.626936514999365,
        "lon": 139.7736615021526,
        "alt_km": 382.4306428946484,
        "timestamp": "2026-03-15T18:53:34.369461+00:00",
        "meta_object_name": "CSS (MENGTIAN)",
        "meta_object_id": "2022-143A",
        "meta_epoch": "2026-03-14T00:03:53.258400",
        "meta_mean_motion": 15.6090469,
        "meta_eccentricity": 0.0006689,
        "meta_inclination": 41.4663,
        "meta_ra_of_asc_node": 181.9138,
        "meta_arg_of_pericenter": 299.3968,
        "meta_mean_anomaly": 60.6202,
        "meta_ephemeris_type": 0,
        "meta_classification_type": "U",
        "meta_norad_cat_id": 54216,
        "meta_element_set_no": 999,
        "meta_rev_at_epoch": 27558,
        "meta_bstar": 0.00034787289,
        "meta_mean_motion_dot": 0.00029757,
        "meta_mean_motion_ddot": 0,
        "tle_line1": "1 54216U 22143A   26073.00269975  .00029757  00000+0  34787-3 0  9997",
        "tle_line2": "2 54216  41.4663 181.9138 0006689 299.3968  60.6202 15.60904690275583"
      },
      "geometry": {
        "type": "Point",
        "coordinates": [
          139.7736615021526,
          -24.626936514999365
        ]
      }
    },
    {
      "type": "Feature",
      "properties": {
        "norad_id": 64751,
        "name": "PROGRESS-MS 31",
        "group": "stations",
        "lat": 49.84534960441069,
        "lon": 112.09060230222767,
        "alt_km": 416.828955522702,
        "timestamp": "2026-03-15T18:53:34.369474+00:00",
        "meta_object_name": "PROGRESS-MS 31",
        "meta_object_id": "2025-146A",
        "meta_epoch": "2026-03-15T06:10:05.524032",
        "meta_mean_motion": 15.48289699,
        "meta_eccentricity": 0.00063497,
        "meta_inclination": 51.633,
        "meta_ra_of_asc_node": 44.8327,
        "meta_arg_of_pericenter": 192.8038,
        "meta_mean_anomaly": 167.279,
        "meta_ephemeris_type": 0,
        "meta_classification_type": "U",
        "meta_norad_cat_id": 64751,
        "meta_element_set_no": 999,
        "meta_rev_at_epoch": 55446,
        "meta_bstar": 0.00018620385,
        "meta_mean_motion_dot": 9.576e-05,
        "meta_mean_motion_ddot": 0,
        "tle_line1": "1 64751U 25146A   26074.25700838  .00009576  00000+0  18620-3 0  9999",
        "tle_line2": "2 64751  51.6330  44.8327 0006349 192.8038 167.2790 15.48289699554461"
      },
      "geometry": {
        "type": "Point",
        "coordinates": [
          112.09060230222767,
          49.84534960441069
        ]
      }
    },
    {
      "type": "Feature",
      "properties": {
        "norad_id": 64786,
        "name": "TIANZHOU-9",
        "group": "stations",
        "lat": -24.626935482915368,
        "lon": 139.77366315501288,
        "alt_km": 382.43064283795775,
        "timestamp": "2026-03-15T18:53:34.369489+00:00",
        "meta_object_name": "TIANZHOU-9",
        "meta_object_id": "2025-149A",
        "meta_epoch": "2026-03-14T00:03:53.258400",
        "meta_mean_motion": 15.6090469,
        "meta_eccentricity": 0.0006689,
        "meta_inclination": 41.4663,
        "meta_ra_of_asc_node": 181.9138,
        "meta_arg_of_pericenter": 299.3968,
        "meta_mean_anomaly": 60.6202,
        "meta_ephemeris_type": 0,
        "meta_classification_type": "U",
        "meta_norad_cat_id": 64786,
        "meta_element_set_no": 999,
        "meta_rev_at_epoch": 27559,
        "meta_bstar": 0.00034787289,
        "meta_mean_motion_dot": 0.00029757,
        "meta_mean_motion_ddot": 0,
        "tle_line1": "1 64786U 25149A   26073.00269975  .00029757  00000+0  34787-3 0  9999",
        "tle_line2": "2 64786  41.4663 181.9138 0006689 299.3968  60.6202 15.60904690275597"
      },
      "geometry": {
        "type": "Point",
        "coordinates": [
          139.77366315501288,
          -24.626935482915368
        ]
      }
    },
    {
      "type": "Feature",
      "properties": {
        "norad_id": 65586,
        "name": "PROGRESS-MS 32",
        "group": "stations",
        "lat": 49.84535002256837,
        "lon": 112.09060461669216,
        "alt_km": 416.82895536083015,
        "timestamp": "2026-03-15T18:53:34.369498+00:00",
        "meta_object_name": "PROGRESS-MS 32",
        "meta_object_id": "2025-204A",
        "meta_epoch": "2026-03-15T06:10:05.524032",
        "meta_mean_motion": 15.48289699,
        "meta_eccentricity": 0.00063497,
        "meta_inclination": 51.633,
        "meta_ra_of_asc_node": 44.8327,
        "meta_arg_of_pericenter": 192.8038,
        "meta_mean_anomaly": 167.279,
        "meta_ephemeris_type": 0,
        "meta_classification_type": "U",
        "meta_norad_cat_id": 65586,
        "meta_element_set_no": 999,
        "meta_rev_at_epoch": 55450,
        "meta_bstar": 0.00018620385,
        "meta_mean_motion_dot": 9.576e-05,
        "meta_mean_motion_ddot": 0,
        "tle_line1": "1 65586U 25204A   26074.25700838  .00009576  00000+0  18620-3 0  9991",
        "tle_line2": "2 65586  51.6330  44.8327 0006349 192.8038 167.2790 15.48289699554503"
      },
      "geometry": {
        "type": "Point",
        "coordinates": [
          112.09060461669216,
          49.84535002256837
        ]
      }
    },
    {
      "type": "Feature",
      "properties": {
        "norad_id": 65616,
        "name": "CYGNUS NG-23",
        "group": "stations",
        "lat": 51.47886932943611,
        "lon": 137.773701254328,
        "alt_km": 410.9128768892251,
        "timestamp": "2026-03-15T18:53:34.369512+00:00",
        "meta_object_name": "CYGNUS NG-23",
        "meta_object_id": "2025-208A",
        "meta_epoch": "2026-03-14T09:59:46.912416",
        "meta_mean_motion": 15.4997785,
        "meta_eccentricity": 0.00077822,
        "meta_inclination": 51.6322,
        "meta_ra_of_asc_node": 48.9706,
        "meta_arg_of_pericenter": 192.9507,
        "meta_mean_anomaly": 167.1283,
        "meta_ephemeris_type": 0,
        "meta_classification_type": "U",
        "meta_norad_cat_id": 65616,
        "meta_element_set_no": 999,
        "meta_rev_at_epoch": 32,
        "meta_bstar": 0.00024568708,
        "meta_mean_motion_dot": 0.0001359,
        "meta_mean_motion_ddot": 0,
        "tle_line1": "1 65616U 25208A   26073.41651519  .00013590  00000+0  24569-3 0  9997",
        "tle_line2": "2 65616  51.6322  48.9706 0007782 192.9507 167.1283 15.49977850   324"
      },
      "geometry": {
        "type": "Point",
        "coordinates": [
          137.773701254328,
          51.47886932943611
        ]
      }
    },
    {
      "type": "Feature",
      "properties": {
        "norad_id": 65941,
        "name": "YOTSUBA-KULOVER",
        "group": "stations",
        "lat": 50.617729508183096,
        "lon": 130.6870047131141,
        "alt_km": 310.16219080869814,
        "timestamp": "2026-03-15T18:53:34.369523+00:00",
        "meta_object_name": "YOTSUBA-KULOVER",
        "meta_object_id": "1998-067XN",
        "meta_epoch": "2026-03-15T13:55:51.972096",
        "meta_mean_motion": 15.8345554,
        "meta_eccentricity": 0.00050031,
        "meta_inclination": 51.6208,
        "meta_ra_of_asc_node": 26.6738,
        "meta_arg_of_pericenter": 110.4018,
        "meta_mean_anomaly": 249.7523,
        "meta_ephemeris_type": 0,
        "meta_classification_type": "U",
        "meta_norad_cat_id": 65941,
        "meta_element_set_no": 999,
        "meta_rev_at_epoch": 2443,
        "meta_bstar": 0.0010155956,
        "meta_mean_motion_dot": 0.00232112,
        "meta_mean_motion_ddot": 0,
        "tle_line1": "1 65941U 98067XN  26074.58046264  .00232112  00000+0  10156-2 0  9994",
        "tle_line2": "2 65941  51.6208  26.6738 0005003 110.4018 249.7523 15.83455540 24439"
      },
      "geometry": {
        "type": "Point",
        "coordinates": [
          130.6870047131141,
          50.617729508183096
        ]
      }
    },
    {
      "type": "Feature",
      "properties": {
        "norad_id": 65943,
        "name": "E-KAGAKU-1",
        "group": "stations",
        "lat": 45.32715842541079,
        "lon": 78.97178851493702,
        "alt_km": 313.1416658171147,
        "timestamp": "2026-03-15T18:53:34.369533+00:00",
        "meta_object_name": "E-KAGAKU-1",
        "meta_object_id": "1998-067XQ",
        "meta_epoch": "2026-03-15T14:04:26.107392",
        "meta_mean_motion": 15.83003357,
        "meta_eccentricity": 0.00055841,
        "meta_inclination": 51.6233,
        "meta_ra_of_asc_node": 26.7331,
        "meta_arg_of_pericenter": 115.3994,
        "meta_mean_anomaly": 244.7588,
        "meta_ephemeris_type": 0,
        "meta_classification_type": "U",
        "meta_norad_cat_id": 65943,
        "meta_element_set_no": 999,
        "meta_rev_at_epoch": 2443,
        "meta_bstar": 0.0009986022,
        "meta_mean_motion_dot": 0.00223201,
        "meta_mean_motion_ddot": 0,
        "tle_line1": "1 65943U 98067XQ  26074.58641328  .00223201  00000+0  99860-3 0  9997",
        "tle_line2": "2 65943  51.6233  26.7331 0005584 115.3994 244.7588 15.83003357 24431"
      },
      "geometry": {
        "type": "Point",
        "coordinates": [
          78.97178851493702,
          45.32715842541079
        ]
      }
    },
    {
      "type": "Feature",
      "properties": {
        "norad_id": 66052,
        "name": "HRC MONOBLOCK CAMERA",
        "group": "stations",
        "lat": 44.22359241145551,
        "lon": 85.20100148714727,
        "alt_km": 371.74902924823164,
        "timestamp": "2026-03-15T18:53:34.369543+00:00",
        "meta_object_name": "HRC MONOBLOCK CAMERA",
        "meta_object_id": "1998-067XR",
        "meta_epoch": "2026-03-15T14:01:17.304384",
        "meta_mean_motion": 15.62895855,
        "meta_eccentricity": 0.00038489,
        "meta_inclination": 51.6283,
        "meta_ra_of_asc_node": 35.7678,
        "meta_arg_of_pericenter": 118.5533,
        "meta_mean_anomaly": 241.5849,
        "meta_ephemeris_type": 0,
        "meta_classification_type": "U",
        "meta_norad_cat_id": 66052,
        "meta_element_set_no": 999,
        "meta_rev_at_epoch": 2331,
        "meta_bstar": 0.00054476782,
        "meta_mean_motion_dot": 0.00050012,
        "meta_mean_motion_ddot": 0,
        "tle_line1": "1 66052U 98067XR  26074.58422806  .00050012  00000+0  54477-3 0  9990",
        "tle_line2": "2 66052  51.6283  35.7678 0003848 118.5533 241.5849 15.62895855 23317"
      },
      "geometry": {
        "type": "Point",
        "coordinates": [
          85.20100148714727,
          44.22359241145551
        ]
      }
    },
    {
      "type": "Feature",
      "properties": {
        "norad_id": 66174,
        "name": "HTV-X1",
        "group": "stations",
        "lat": -2.9178889203991805,
        "lon": 41.53166750013473,
        "alt_km": 501.83869316803975,
        "timestamp": "2026-03-15T18:53:34.369553+00:00",
        "meta_object_name": "HTV-X1",
        "meta_object_id": "2025-241A",
        "meta_epoch": "2026-03-14T08:15:41.723424",
        "meta_mean_motion": 15.22910308,
        "meta_eccentricity": 0.00057421,
        "meta_inclination": 51.6357,
        "meta_ra_of_asc_node": 50.71,
        "meta_arg_of_pericenter": 187.4106,
        "meta_mean_anomaly": 172.6788,
        "meta_ephemeris_type": 0,
        "meta_classification_type": "U",
        "meta_norad_cat_id": 66174,
        "meta_element_set_no": 999,
        "meta_rev_at_epoch": 2166,
        "meta_bstar": 0.00058534113,
        "meta_mean_motion_dot": 0.00013614,
        "meta_mean_motion_ddot": 0,
        "tle_line1": "1 66174U 25241A   26073.34423291  .00013614  00000+0  58534-3 0  9996",
        "tle_line2": "2 66174  51.6357  50.7100 0005742 187.4106 172.6788 15.22910308 21666"
      },
      "geometry": {
        "type": "Point",
        "coordinates": [
          41.53166750013473,
          -2.9178889203991805
        ]
      }
    },
    {
      "type": "Feature",
      "properties": {
        "norad_id": 66515,
        "name": "SZ-21 MODULE",
        "group": "stations",
        "lat": -41.413468916355704,
        "lon": 78.84460050466899,
        "alt_km": 364.28831744950094,
        "timestamp": "2026-03-15T18:53:34.369564+00:00",
        "meta_object_name": "SZ-21 MODULE",
        "meta_object_id": "2025-246C",
        "meta_epoch": "2026-03-15T14:40:57.612288",
        "meta_mean_motion": 15.69044572,
        "meta_eccentricity": 8.196e-05,
        "meta_inclination": 41.474,
        "meta_ra_of_asc_node": 166.8918,
        "meta_arg_of_pericenter": 310.4718,
        "meta_mean_anomaly": 49.6052,
        "meta_ephemeris_type": 0,
        "meta_classification_type": "U",
        "meta_norad_cat_id": 66515,
        "meta_element_set_no": 999,
        "meta_rev_at_epoch": 1900,
        "meta_bstar": 0.00029227235,
        "meta_mean_motion_dot": 0.00034609,
        "meta_mean_motion_ddot": 0,
        "tle_line1": "1 66515U 25246C   26074.61177792  .00034609  00000+0  29227-3 0  9997",
        "tle_line2": "2 66515  41.4740 166.8918 0000819 310.4718  49.6052 15.69044572 19005"
      },
      "geometry": {
        "type": "Point",
        "coordinates": [
          78.84460050466899,
          -41.413468916355704
        ]
      }
    },
    {
      "type": "Feature",
      "properties": {
        "norad_id": 66645,
        "name": "SHENZHOU-22",
        "group": "stations",
        "lat": -24.62693234981073,
        "lon": 139.77366817261208,
        "alt_km": 382.4306426658677,
        "timestamp": "2026-03-15T18:53:34.369574+00:00",
        "meta_object_name": "SHENZHOU-22",
        "meta_object_id": "2025-272A",
        "meta_epoch": "2026-03-14T00:03:53.258400",
        "meta_mean_motion": 15.6090469,
        "meta_eccentricity": 0.0006689,
        "meta_inclination": 41.4663,
        "meta_ra_of_asc_node": 181.9138,
        "meta_arg_of_pericenter": 299.3968,
        "meta_mean_anomaly": 60.6202,
        "meta_ephemeris_type": 0,
        "meta_classification_type": "U",
        "meta_norad_cat_id": 66645,
        "meta_element_set_no": 999,
        "meta_rev_at_epoch": 26752,
        "meta_bstar": 0.00034787289,
        "meta_mean_motion_dot": 0.00029757,
        "meta_mean_motion_ddot": 0,
        "tle_line1": "1 66645U 25272A   26073.00269975  .00029757  00000+0  34787-3 0  9992",
        "tle_line2": "2 66645  41.4663 181.9138 0006689 299.3968  60.6202 15.60904690267527"
      },
      "geometry": {
        "type": "Point",
        "coordinates": [
          139.77366817261208,
          -24.62693234981073
        ]
      }
    },
    {
      "type": "Feature",
      "properties": {
        "norad_id": 66664,
        "name": "SOYUZ-MS 28",
        "group": "stations",
        "lat": 49.845351555813984,
        "lon": 112.09061310306922,
        "alt_km": 416.8289547672957,
        "timestamp": "2026-03-15T18:53:34.369586+00:00",
        "meta_object_name": "SOYUZ-MS 28",
        "meta_object_id": "2025-275A",
        "meta_epoch": "2026-03-15T06:10:05.524032",
        "meta_mean_motion": 15.48289699,
        "meta_eccentricity": 0.00063497,
        "meta_inclination": 51.633,
        "meta_ra_of_asc_node": 44.8327,
        "meta_arg_of_pericenter": 192.8038,
        "meta_mean_anomaly": 167.279,
        "meta_ephemeris_type": 0,
        "meta_classification_type": "U",
        "meta_norad_cat_id": 66664,
        "meta_element_set_no": 999,
        "meta_rev_at_epoch": 55452,
        "meta_bstar": 0.00018620385,
        "meta_mean_motion_dot": 9.576e-05,
        "meta_mean_motion_ddot": 0,
        "tle_line1": "1 66664U 25275A   26074.25700838  .00009576  00000+0  18620-3 0  9997",
        "tle_line2": "2 66664  51.6330  44.8327 0006349 192.8038 167.2790 15.48289699554523"
      },
      "geometry": {
        "type": "Point",
        "coordinates": [
          112.09061310306922,
          49.845351555813984
        ]
      }
    },
    {
      "type": "Feature",
      "properties": {
        "norad_id": 66906,
        "name": "DUPLEX",
        "group": "stations",
        "lat": -22.235859490919445,
        "lon": -122.15900678660336,
        "alt_km": 399.82737780584284,
        "timestamp": "2026-03-15T18:53:34.369597+00:00",
        "meta_object_name": "DUPLEX",
        "meta_object_id": "1998-067XS",
        "meta_epoch": "2026-03-15T14:55:06.458592",
        "meta_mean_motion": 15.56634012,
        "meta_eccentricity": 0.00027941,
        "meta_inclination": 51.6294,
        "meta_ra_of_asc_node": 39.77,
        "meta_arg_of_pericenter": 138.5108,
        "meta_mean_anomaly": 221.6097,
        "meta_ephemeris_type": 0,
        "meta_classification_type": "U",
        "meta_norad_cat_id": 66906,
        "meta_element_set_no": 999,
        "meta_rev_at_epoch": 1605,
        "meta_bstar": 0.00039788089,
        "meta_mean_motion_dot": 0.00028497,
        "meta_mean_motion_ddot": 0,
        "tle_line1": "1 66906U 98067XS  26074.62160253  .00028497  00000+0  39788-3 0  9998",
        "tle_line2": "2 66906  51.6294  39.7700 0002794 138.5108 221.6097 15.56634012 16052"
      },
      "geometry": {
        "type": "Point",
        "coordinates": [
          -122.15900678660336,
          -22.235859490919445
        ]
      }
    },
    {
      "type": "Feature",
      "properties": {
        "norad_id": 66907,
        "name": "ISS OBJECT XT",
        "group": "stations",
        "lat": 1.7397806392390123,
        "lon": -146.8955126031671,
        "alt_km": 353.62007440304023,
        "timestamp": "2026-03-15T18:53:34.369607+00:00",
        "meta_object_name": "ISS OBJECT XT",
        "meta_object_id": "1998-067XT",
        "meta_epoch": "2026-03-15T01:21:01.873152",
        "meta_mean_motion": 15.71174897,
        "meta_eccentricity": 0.00046884,
        "meta_inclination": 51.6247,
        "meta_ra_of_asc_node": 38.2251,
        "meta_arg_of_pericenter": 115.4311,
        "meta_mean_anomaly": 244.7173,
        "meta_ephemeris_type": 0,
        "meta_classification_type": "U",
        "meta_norad_cat_id": 66907,
        "meta_element_set_no": 999,
        "meta_rev_at_epoch": 1602,
        "meta_bstar": 0.0015332922,
        "meta_mean_motion_dot": 0.00202137,
        "meta_mean_motion_ddot": 0,
        "tle_line1": "1 66907U 98067XT  26074.05627168  .00202137  00000+0  15333-2 0  9993",
        "tle_line2": "2 66907  51.6247  38.2251 0004688 115.4311 244.7173 15.71174897 16025"
      },
      "geometry": {
        "type": "Point",
        "coordinates": [
          -146.8955126031671,
          1.7397806392390123
        ]
      }
    },
    {
      "type": "Feature",
      "properties": {
        "norad_id": 66908,
        "name": "ISS OBJECT XU",
        "group": "stations",
        "lat": -8.529058907976978,
        "lon": -138.72276991075506,
        "alt_km": 354.91926571395015,
        "timestamp": "2026-03-15T18:53:34.369617+00:00",
        "meta_object_name": "ISS OBJECT XU",
        "meta_object_id": "1998-067XU",
        "meta_epoch": "2026-03-15T01:17:47.256288",
        "meta_mean_motion": 15.71313389,
        "meta_eccentricity": 0.00049873,
        "meta_inclination": 51.6248,
        "meta_ra_of_asc_node": 38.2054,
        "meta_arg_of_pericenter": 118.2627,
        "meta_mean_anomaly": 241.8875,
        "meta_ephemeris_type": 0,
        "meta_classification_type": "U",
        "meta_norad_cat_id": 66908,
        "meta_element_set_no": 999,
        "meta_rev_at_epoch": 1602,
        "meta_bstar": 0.0015284504,
        "meta_mean_motion_dot": 0.00202702,
        "meta_mean_motion_ddot": 0,
        "tle_line1": "1 66908U 98067XU  26074.05401917  .00202702  00000+0  15285-2 0  9990",
        "tle_line2": "2 66908  51.6248  38.2054 0004987 118.2627 241.8875 15.71313389 16029"
      },
      "geometry": {
        "type": "Point",
        "coordinates": [
          -138.72276991075506,
          -8.529058907976978
        ]
      }
    },
    {
      "type": "Feature",
      "properties": {
        "norad_id": 66909,
        "name": "SILVERSAT",
        "group": "stations",
        "lat": -48.676839863444584,
        "lon": -82.09608763568818,
        "alt_km": 351.34183547861267,
        "timestamp": "2026-03-15T18:53:34.369627+00:00",
        "meta_object_name": "SILVERSAT",
        "meta_object_id": "1998-067XV",
        "meta_epoch": "2026-03-15T04:06:59.070528",
        "meta_mean_motion": 15.74772085,
        "meta_eccentricity": 0.00054443,
        "meta_inclination": 51.6239,
        "meta_ra_of_asc_node": 36.7379,
        "meta_arg_of_pericenter": 117.7755,
        "meta_mean_anomaly": 242.3797,
        "meta_ephemeris_type": 0,
        "meta_classification_type": "U",
        "meta_norad_cat_id": 66909,
        "meta_element_set_no": 999,
        "meta_rev_at_epoch": 1605,
        "meta_bstar": 0.00171494,
        "meta_mean_motion_dot": 0.0026581,
        "meta_mean_motion_ddot": 0,
        "tle_line1": "1 66909U 98067XV  26074.17151702  .00265810  00000+0  17149-2 0  9998",
        "tle_line2": "2 66909  51.6239  36.7379 0005444 117.7755 242.3797 15.74772085 16055"
      },
      "geometry": {
        "type": "Point",
        "coordinates": [
          -82.09608763568818,
          -48.676839863444584
        ]
      }
    },
    {
      "type": "Feature",
      "properties": {
        "norad_id": 66910,
        "name": "ISS OBJECT XW",
        "group": "stations",
        "lat": -7.938608102741005,
        "lon": -139.2045972150359,
        "alt_km": 357.5424307343628,
        "timestamp": "2026-03-15T18:53:34.369637+00:00",
        "meta_object_name": "ISS OBJECT XW",
        "meta_object_id": "1998-067XW",
        "meta_epoch": "2026-03-15T04:20:34.782432",
        "meta_mean_motion": 15.70370803,
        "meta_eccentricity": 0.00053536,
        "meta_inclination": 51.6239,
        "meta_ra_of_asc_node": 37.5499,
        "meta_arg_of_pericenter": 120.8061,
        "meta_mean_anomaly": 239.3464,
        "meta_ephemeris_type": 0,
        "meta_classification_type": "U",
        "meta_norad_cat_id": 66910,
        "meta_element_set_no": 999,
        "meta_rev_at_epoch": 1604,
        "meta_bstar": 0.0013629257,
        "meta_mean_motion_dot": 0.00173075,
        "meta_mean_motion_ddot": 0,
        "tle_line1": "1 66910U 98067XW  26074.18095813  .00173075  00000+0  13629-2 0  9991",
        "tle_line2": "2 66910  51.6239  37.5499 0005353 120.8061 239.3464 15.70370803 16047"
      },
      "geometry": {
        "type": "Point",
        "coordinates": [
          -139.2045972150359,
          -7.938608102741005
        ]
      }
    },
    {
      "type": "Feature",
      "properties": {
        "norad_id": 66911,
        "name": "ISS OBJECT XX",
        "group": "stations",
        "lat": -9.564249235542027,
        "lon": 24.925272390000707,
        "alt_km": 338.5888830283684,
        "timestamp": "2026-03-15T18:53:34.369656+00:00",
        "meta_object_name": "ISS OBJECT XX",
        "meta_object_id": "1998-067XX",
        "meta_epoch": "2026-03-15T14:23:15.742464",
        "meta_mean_motion": 15.78906967,
        "meta_eccentricity": 0.00070094,
        "meta_inclination": 51.6208,
        "meta_ra_of_asc_node": 33.5717,
        "meta_arg_of_pericenter": 124.4751,
        "meta_mean_anomaly": 235.6913,
        "meta_ephemeris_type": 0,
        "meta_classification_type": "U",
        "meta_norad_cat_id": 66911,
        "meta_element_set_no": 999,
        "meta_rev_at_epoch": 1612,
        "meta_bstar": 0.0015333743,
        "meta_mean_motion_dot": 0.00286223,
        "meta_mean_motion_ddot": 0,
        "tle_line1": "1 66911U 98067XX  26074.59948776  .00286223  00000+0  15334-2 0  9997",
        "tle_line2": "2 66911  51.6208  33.5717 0007009 124.4751 235.6913 15.78906967 16120"
      },
      "geometry": {
        "type": "Point",
        "coordinates": [
          24.925272390000707,
          -9.564249235542027
        ]
      }
    },
    {
      "type": "Feature",
      "properties": {
        "norad_id": 66912,
        "name": "ISS OBJECT XY",
        "group": "stations",
        "lat": 37.0939110276275,
        "lon": 73.07217062709915,
        "alt_km": 367.6414662968782,
        "timestamp": "2026-03-15T18:53:34.369678+00:00",
        "meta_object_name": "ISS OBJECT XY",
        "meta_object_id": "1998-067XY",
        "meta_epoch": "2026-03-14T22:45:17.273376",
        "meta_mean_motion": 15.6480189,
        "meta_eccentricity": 0.00034365,
        "meta_inclination": 51.6268,
        "meta_ra_of_asc_node": 40.5165,
        "meta_arg_of_pericenter": 120.1038,
        "meta_mean_anomaly": 240.0298,
        "meta_ephemeris_type": 0,
        "meta_classification_type": "U",
        "meta_norad_cat_id": 66912,
        "meta_element_set_no": 999,
        "meta_rev_at_epoch": 1597,
        "meta_bstar": 0.0011443978,
        "meta_mean_motion_dot": 0.00114837,
        "meta_mean_motion_ddot": 0,
        "tle_line1": "1 66912U 98067XY  26073.94811659  .00114837  00000+0  11444-2 0  9994",
        "tle_line2": "2 66912  51.6268  40.5165 0003436 120.1038 240.0298 15.64801890 15975"
      },
      "geometry": {
        "type": "Point",
        "coordinates": [
          73.07217062709915,
          37.0939110276275
        ]
      }
    },
    {
      "type": "Feature",
      "properties": {
        "norad_id": 67683,
        "name": "KNACKSAT-2",
        "group": "stations",
        "lat": 30.71824707743347,
        "lon": 69.6227676826492,
        "alt_km": 412.1913307249388,
        "timestamp": "2026-03-15T18:53:34.369704+00:00",
        "meta_object_name": "KNACKSAT-2",
        "meta_object_id": "1998-067XZ",
        "meta_epoch": "2026-03-15T07:54:11.011968",
        "meta_mean_motion": 15.5233537,
        "meta_eccentricity": 0.00095951,
        "meta_inclination": 51.6309,
        "meta_ra_of_asc_node": 43.817,
        "meta_arg_of_pericenter": 205.6591,
        "meta_mean_anomaly": 154.3924,
        "meta_ephemeris_type": 0,
        "meta_classification_type": "U",
        "meta_norad_cat_id": 67683,
        "meta_element_set_no": 999,
        "meta_rev_at_epoch": 566,
        "meta_bstar": 0.0007594554,
        "meta_mean_motion_dot": 0.00046999,
        "meta_mean_motion_ddot": 0,
        "tle_line1": "1 67683U 98067XZ  26074.32929412  .00046999  00000+0  75946-3 0  9991",
        "tle_line2": "2 67683  51.6309  43.8170 0009595 205.6591 154.3924 15.52335370  5664"
      },
      "geometry": {
        "type": "Point",
        "coordinates": [
          69.6227676826492,
          30.71824707743347
        ]
      }
    },
    {
      "type": "Feature",
      "properties": {
        "norad_id": 67684,
        "name": "GXIBA-1",
        "group": "stations",
        "lat": -48.98360324156397,
        "lon": -73.2773568563599,
        "alt_km": 401.233381456811,
        "timestamp": "2026-03-15T18:53:34.369721+00:00",
        "meta_object_name": "GXIBA-1",
        "meta_object_id": "1998-067YA",
        "meta_epoch": "2026-03-15T03:55:34.712544",
        "meta_mean_motion": 15.5530396,
        "meta_eccentricity": 0.00116134,
        "meta_inclination": 51.6308,
        "meta_ra_of_asc_node": 44.2101,
        "meta_arg_of_pericenter": 194.5368,
        "meta_mean_anomaly": 165.5291,
        "meta_ephemeris_type": 0,
        "meta_classification_type": "U",
        "meta_norad_cat_id": 67684,
        "meta_element_set_no": 999,
        "meta_rev_at_epoch": 564,
        "meta_bstar": 0.001289316,
        "meta_mean_motion_dot": 0.0008987,
        "meta_mean_motion_ddot": 0,
        "tle_line1": "1 67684U 98067YA  26074.16359621  .00089870  00000+0  12893-2 0  9999",
        "tle_line2": "2 67684  51.6308  44.2101 0011613 194.5368 165.5291 15.55303960  5647"
      },
      "geometry": {
        "type": "Point",
        "coordinates": [
          -73.2773568563599,
          -48.98360324156397
        ]
      }
    },
    {
      "type": "Feature",
      "properties": {
        "norad_id": 67685,
        "name": "CORAL",
        "group": "stations",
        "lat": 48.91963891377944,
        "lon": 106.80897815453706,
        "alt_km": 406.81842491369116,
        "timestamp": "2026-03-15T18:53:34.369741+00:00",
        "meta_object_name": "CORAL",
        "meta_object_id": "1998-067YB",
        "meta_epoch": "2026-03-15T04:40:23.786400",
        "meta_mean_motion": 15.5273969,
        "meta_eccentricity": 0.00115347,
        "meta_inclination": 51.6319,
        "meta_ra_of_asc_node": 44.4177,
        "meta_arg_of_pericenter": 201.7026,
        "meta_mean_anomaly": 158.3476,
        "meta_ephemeris_type": 0,
        "meta_classification_type": "U",
        "meta_norad_cat_id": 67685,
        "meta_element_set_no": 999,
        "meta_rev_at_epoch": 564,
        "meta_bstar": 0.00082450602,
        "meta_mean_motion_dot": 0.00051896,
        "meta_mean_motion_ddot": 0,
        "tle_line1": "1 67685U 98067YB  26074.19471975  .00051896  00000+0  82451-3 0  9995",
        "tle_line2": "2 67685  51.6319  44.4177 0011534 201.7026 158.3476 15.52739690  5644"
      },
      "geometry": {
        "type": "Point",
        "coordinates": [
          106.80897815453706,
          48.91963891377944
        ]
      }
    },
    {
      "type": "Feature",
      "properties": {
        "norad_id": 67686,
        "name": "ISS OBJECT YC",
        "group": "stations",
        "lat": 43.605785698920485,
        "lon": 172.38922191888227,
        "alt_km": 397.38413172449054,
        "timestamp": "2026-03-15T18:53:34.369760+00:00",
        "meta_object_name": "ISS OBJECT YC",
        "meta_object_id": "1998-067YC",
        "meta_epoch": "2026-03-15T15:17:51.823104",
        "meta_mean_motion": 15.5344535,
        "meta_eccentricity": 0.00083545,
        "meta_inclination": 51.6318,
        "meta_ra_of_asc_node": 42.1267,
        "meta_arg_of_pericenter": 172.2872,
        "meta_mean_anomaly": 187.8249,
        "meta_ephemeris_type": 0,
        "meta_classification_type": "U",
        "meta_norad_cat_id": 67686,
        "meta_element_set_no": 999,
        "meta_rev_at_epoch": 571,
        "meta_bstar": 0.00080897971,
        "meta_mean_motion_dot": 0.00052171,
        "meta_mean_motion_ddot": 0,
        "tle_line1": "1 67686U 98067YC  26074.63740536  .00052171  00000+0  80898-3 0  9997",
        "tle_line2": "2 67686  51.6318  42.1267 0008354 172.2872 187.8249 15.53445350  5717"
      },
      "geometry": {
        "type": "Point",
        "coordinates": [
          172.38922191888227,
          43.605785698920485
        ]
      }
    },
    {
      "type": "Feature",
      "properties": {
        "norad_id": 67687,
        "name": "LEOPARD",
        "group": "stations",
        "lat": 41.626188048732416,
        "lon": 86.25866714874162,
        "alt_km": 406.1968901133723,
        "timestamp": "2026-03-15T18:53:34.369777+00:00",
        "meta_object_name": "LEOPARD",
        "meta_object_id": "1998-067YD",
        "meta_epoch": "2026-03-15T10:55:12.335232",
        "meta_mean_motion": 15.52542575,
        "meta_eccentricity": 0.00081398,
        "meta_inclination": 51.6313,
        "meta_ra_of_asc_node": 43.1584,
        "meta_arg_of_pericenter": 175.2316,
        "meta_mean_anomaly": 184.8753,
        "meta_ephemeris_type": 0,
        "meta_classification_type": "U",
        "meta_norad_cat_id": 67687,
        "meta_element_set_no": 999,
        "meta_rev_at_epoch": 560,
        "meta_bstar": 0.00070811065,
        "meta_mean_motion_dot": 0.00044081,
        "meta_mean_motion_ddot": 0,
        "tle_line1": "1 67687U 98067YD  26074.45500388  .00044081  00000+0  70811-3 0  9992",
        "tle_line2": "2 67687  51.6313  43.1584 0008139 175.2316 184.8753 15.52542575  5604"
      },
      "geometry": {
        "type": "Point",
        "coordinates": [
          86.25866714874162,
          41.626188048732416
        ]
      }
    },
    {
      "type": "Feature",
      "properties": {
        "norad_id": 67688,
        "name": "ISS OBJECT YE",
        "group": "stations",
        "lat": 50.87317943974,
        "lon": 144.5274875911493,
        "alt_km": 399.12396121208803,
        "timestamp": "2026-03-15T18:53:34.369788+00:00",
        "meta_object_name": "ISS OBJECT YE",
        "meta_object_id": "1998-067YE",
        "meta_epoch": "2026-03-15T04:34:24.545568",
        "meta_mean_motion": 15.53094941,
        "meta_eccentricity": 0.00082552,
        "meta_inclination": 51.6315,
        "meta_ra_of_asc_node": 44.3921,
        "meta_arg_of_pericenter": 171.8524,
        "meta_mean_anomaly": 188.2602,
        "meta_ephemeris_type": 0,
        "meta_classification_type": "U",
        "meta_norad_cat_id": 67688,
        "meta_element_set_no": 999,
        "meta_rev_at_epoch": 556,
        "meta_bstar": 0.00089872899,
        "meta_mean_motion_dot": 0.00057311,
        "meta_mean_motion_ddot": 0,
        "tle_line1": "1 67688U 98067YE  26074.19056187  .00057311  00000+0  89873-3 0  9995",
        "tle_line2": "2 67688  51.6315  44.3921 0008255 171.8524 188.2602 15.53094941  5563"
      },
      "geometry": {
        "type": "Point",
        "coordinates": [
          144.5274875911493,
          50.87317943974
        ]
      }
    },
    {
      "type": "Feature",
      "properties": {
        "norad_id": 67796,
        "name": "CREW DRAGON 12",
        "group": "stations",
        "lat": 49.845355249539004,
        "lon": 112.09063354752244,
        "alt_km": 416.82895333741453,
        "timestamp": "2026-03-15T18:53:34.369798+00:00",
        "meta_object_name": "CREW DRAGON 12",
        "meta_object_id": "2026-031A",
        "meta_epoch": "2026-03-15T06:10:05.524032",
        "meta_mean_motion": 15.48289699,
        "meta_eccentricity": 0.00063497,
        "meta_inclination": 51.633,
        "meta_ra_of_asc_node": 44.8327,
        "meta_arg_of_pericenter": 192.8038,
        "meta_mean_anomaly": 167.279,
        "meta_ephemeris_type": 0,
        "meta_classification_type": "U",
        "meta_norad_cat_id": 67796,
        "meta_element_set_no": 999,
        "meta_rev_at_epoch": 55709,
        "meta_bstar": 0.00018620385,
        "meta_mean_motion_dot": 9.576e-05,
        "meta_mean_motion_ddot": 0,
        "tle_line1": "1 67796U 26031A   26074.25700838  .00009576  00000+0  18620-3 0  9995",
        "tle_line2": "2 67796  51.6330  44.8327 0006349 192.8038 167.2790 15.48289699557095"
      },
      "geometry": {
        "type": "Point",
        "coordinates": [
          112.09063354752244,
          49.845355249539004
        ]
      }
    }
  ]
}