{
  "type": "FeatureCollection",
  "features": [
    {
      "type": "Feature",
      "properties": {
        "norad_id": 28054,
        "name": "DMSP 5D-3 F16 (USA 172)",
        "group": "weather",
        "lat": -30.443146136456495,
        "lon": 62.66444328199227,
        "alt_km": 855.4870090175236,
        "timestamp": "2026-02-03T10:52:47.936543+00:00",
        "meta_object_name": "DMSP 5D-3 F16 (USA 172)",
        "meta_object_id": "2003-048A",
        "meta_epoch": "2026-02-03T04:37:28.259616",
        "meta_mean_motion": 14.1444795,
        "meta_eccentricity": 0.0007573,
        "meta_inclination": 99.0018,
        "meta_ra_of_asc_node": 57.0563,
        "meta_arg_of_pericenter": 159.8707,
        "meta_mean_anomaly": 282.8885,
        "meta_ephemeris_type": 0,
        "meta_classification_type": "U",
        "meta_norad_cat_id": 28054,
        "meta_element_set_no": 999,
        "meta_rev_at_epoch": 15054,
        "meta_bstar": 9.8477e-05,
        "meta_mean_motion_dot": 1.43e-06,
        "meta_mean_motion_ddot": 0,
        "tle_line1": "1 28054U 03048A   26034.19268819  .00000143  00000+0  98477-4 0  9999",
        "tle_line2": "2 28054  99.0018  57.0563 0007573 159.8707 282.8885 14.14447950150548"
      },
      "geometry": {
        "type": "Point",
        "coordinates": [
          62.66444328199227,
          -30.443146136456495
        ]
      }
    },
    {
      "type": "Feature",
      "properties": {
        "norad_id": 28912,
        "name": "METEOSAT-9 (MSG-2)",
        "group": "weather",
        "lat": -8.676251906969036,
        "lon": -17.346945013257887,
        "alt_km": 35785.459908658246,
        "timestamp": "2026-02-03T10:52:47.936616+00:00",
        "meta_object_name": "METEOSAT-9 (MSG-2)",
        "meta_object_id": "2005-049B",
        "meta_epoch": "2026-02-02T17:05:27.479040",
        "meta_mean_motion": 1.00268967,
        "meta_eccentricity": 0.0001624,
        "meta_inclination": 9.0573,
        "meta_ra_of_asc_node": 55.4769,
        "meta_arg_of_pericenter": 217.7654,
        "meta_mean_anomaly": 161.6082,
        "meta_ephemeris_type": 0,
        "meta_classification_type": "U",
        "meta_norad_cat_id": 28912,
        "meta_element_set_no": 999,
        "meta_rev_at_epoch": 565,
        "meta_bstar": 0,
        "meta_mean_motion_dot": 1.15e-06,
        "meta_mean_motion_ddot": 0,
        "tle_line1": "1 28912U 05049B   26033.71212360  .00000115  00000+0  00000+0 0  9991",
        "tle_line2": "2 28912   9.0573  55.4769 0001624 217.7654 161.6082  1.00268967  5658"
      },
      "geometry": {
        "type": "Point",
        "coordinates": [
          -17.346945013257887,
          -8.676251906969036
        ]
      }
    },
    {
      "type": "Feature",
      "properties": {
        "norad_id": 29522,
        "name": "DMSP 5D-3 F17 (USA 191)",
        "group": "weather",
        "lat": 2.449672720874381,
        "lon": 43.37138695924787,
        "alt_km": 843.2493023836423,
        "timestamp": "2026-02-03T10:52:47.936645+00:00",
        "meta_object_name": "DMSP 5D-3 F17 (USA 191)",
        "meta_object_id": "2006-050A",
        "meta_epoch": "2026-02-03T04:04:47.282016",
        "meta_mean_motion": 14.14947581,
        "meta_eccentricity": 0.0011125,
        "meta_inclination": 98.7403,
        "meta_ra_of_asc_node": 43.471,
        "meta_arg_of_pericenter": 80.3582,
        "meta_mean_anomaly": 279.8847,
        "meta_ephemeris_type": 0,
        "meta_classification_type": "U",
        "meta_norad_cat_id": 29522,
        "meta_element_set_no": 999,
        "meta_rev_at_epoch": 99346,
        "meta_bstar": 0.00010363,
        "meta_mean_motion_dot": 1.57e-06,
        "meta_mean_motion_ddot": 0,
        "tle_line1": "1 29522U 06050A   26034.16999169  .00000157  00000+0  10363-3 0  9994",
        "tle_line2": "2 29522  98.7403  43.4710 0011125  80.3582 279.8847 14.14947581993468"
      },
      "geometry": {
        "type": "Point",
        "coordinates": [
          43.37138695924787,
          2.449672720874381
        ]
      }
    },
    {
      "type": "Feature",
      "properties": {
        "norad_id": 32958,
        "name": "FENGYUN 3A",
        "group": "weather",
        "lat": -46.09767174776766,
        "lon": 148.75864516973044,
        "alt_km": 832.4670990049462,
        "timestamp": "2026-02-03T10:52:47.936669+00:00",
        "meta_object_name": "FENGYUN 3A",
        "meta_object_id": "2008-026A",
        "meta_epoch": "2026-02-02T13:30:58.307040",
        "meta_mean_motion": 14.19534735,
        "meta_eccentricity": 0.00091599,
        "meta_inclination": 98.6757,
        "meta_ra_of_asc_node": 337.0153,
        "meta_arg_of_pericenter": 149.5317,
        "meta_mean_anomaly": 210.6393,
        "meta_ephemeris_type": 0,
        "meta_classification_type": "U",
        "meta_norad_cat_id": 32958,
        "meta_element_set_no": 999,
        "meta_rev_at_epoch": 91630,
        "meta_bstar": 7.0174975e-05,
        "meta_mean_motion_dot": 1.05e-06,
        "meta_mean_motion_ddot": 0,
        "tle_line1": "1 32958U 08026A   26033.56317485  .00000105  00000+0  70175-4 0  9995",
        "tle_line2": "2 32958  98.6757 337.0153 0009159 149.5317 210.6393 14.19534735916302"
      },
      "geometry": {
        "type": "Point",
        "coordinates": [
          148.75864516973044,
          -46.09767174776766
        ]
      }
    },
    {
      "type": "Feature",
      "properties": {
        "norad_id": 35491,
        "name": "GOES 14",
        "group": "weather",
        "lat": 1.2818532712389592,
        "lon": 154.74322992484315,
        "alt_km": 35837.47561073488,
        "timestamp": "2026-02-03T10:52:47.936694+00:00",
        "meta_object_name": "GOES 14",
        "meta_object_id": "2009-033A",
        "meta_epoch": "2026-02-03T02:28:11.309952",
        "meta_mean_motion": 1.00110173,
        "meta_eccentricity": 0.000154,
        "meta_inclination": 1.3418,
        "meta_ra_of_asc_node": 84.8178,
        "meta_arg_of_pericenter": 267.112,
        "meta_mean_anomaly": 36.4827,
        "meta_ephemeris_type": 0,
        "meta_classification_type": "U",
        "meta_norad_cat_id": 35491,
        "meta_element_set_no": 999,
        "meta_rev_at_epoch": 524,
        "meta_bstar": 0,
        "meta_mean_motion_dot": 1.13e-06,
        "meta_mean_motion_ddot": 0,
        "tle_line1": "1 35491U 09033A   26034.10290868  .00000113  00000+0  00000+0 0  9999",
        "tle_line2": "2 35491   1.3418  84.8178 0001540 267.1120  36.4827  1.00110173  5241"
      },
      "geometry": {
        "type": "Point",
        "coordinates": [
          154.74322992484315,
          1.2818532712389592
        ]
      }
    },
    {
      "type": "Feature",
      "properties": {
        "norad_id": 35951,
        "name": "DMSP 5D-3 F18 (USA 210)",
        "group": "weather",
        "lat": -23.308732265122497,
        "lon": -168.2559933014825,
        "alt_km": 845.7039520668995,
        "timestamp": "2026-02-03T10:52:47.936716+00:00",
        "meta_object_name": "DMSP 5D-3 F18 (USA 210)",
        "meta_object_id": "2009-057A",
        "meta_epoch": "2026-02-03T04:49:41.538144",
        "meta_mean_motion": 14.1481148,
        "meta_eccentricity": 0.0010035,
        "meta_inclination": 98.8905,
        "meta_ra_of_asc_node": 15.3598,
        "meta_arg_of_pericenter": 272.9509,
        "meta_mean_anomaly": 87.0516,
        "meta_ephemeris_type": 0,
        "meta_classification_type": "U",
        "meta_norad_cat_id": 35951,
        "meta_element_set_no": 999,
        "meta_rev_at_epoch": 84064,
        "meta_bstar": 0.00017095,
        "meta_mean_motion_dot": 2.85e-06,
        "meta_mean_motion_ddot": 0,
        "tle_line1": "1 35951U 09057A   26034.20117521  .00000285  00000+0  17095-3 0  9997",
        "tle_line2": "2 35951  98.8905  15.3598 0010035 272.9509  87.0516 14.14811480840649"
      },
      "geometry": {
        "type": "Point",
        "coordinates": [
          -168.2559933014825,
          -23.308732265122497
        ]
      }
    },
    {
      "type": "Feature",
      "properties": {
        "norad_id": 36411,
        "name": "EWS-G2 (GOES 15)",
        "group": "weather",
        "lat": -0.9639484074071476,
        "lon": -1.542982360652199,
        "alt_km": 35779.45927576069,
        "timestamp": "2026-02-03T10:52:47.936741+00:00",
        "meta_object_name": "EWS-G2 (GOES 15)",
        "meta_object_id": "2010-008A",
        "meta_epoch": "2026-02-03T00:00:55.421280",
        "meta_mean_motion": 1.00275134,
        "meta_eccentricity": 0.0005047,
        "meta_inclination": 0.9398,
        "meta_ra_of_asc_node": 85.7251,
        "meta_arg_of_pericenter": 198.1822,
        "meta_mean_anomaly": 271.0358,
        "meta_ephemeris_type": 0,
        "meta_classification_type": "U",
        "meta_norad_cat_id": 36411,
        "meta_element_set_no": 999,
        "meta_rev_at_epoch": 5829,
        "meta_bstar": 0,
        "meta_mean_motion_dot": 2.7e-07,
        "meta_mean_motion_ddot": 0,
        "tle_line1": "1 36411U 10008A   26034.00064145  .00000027  00000+0  00000+0 0  9996",
        "tle_line2": "2 36411   0.9398  85.7251 0005047 198.1822 271.0358  1.00275134 58294"
      },
      "geometry": {
        "type": "Point",
        "coordinates": [
          -1.542982360652199,
          -0.9639484074071476
        ]
      }
    },
    {
      "type": "Feature",
      "properties": {
        "norad_id": 36744,
        "name": "COMS 1",
        "group": "weather",
        "lat": -0.964814045104691,
        "lon": 65.0726545057788,
        "alt_km": 35787.955414652075,
        "timestamp": "2026-02-03T10:52:47.936765+00:00",
        "meta_object_name": "COMS 1",
        "meta_object_id": "2010-032A",
        "meta_epoch": "2026-02-02T22:37:10.945920",
        "meta_mean_motion": 1.00271239,
        "meta_eccentricity": 0.0001149,
        "meta_inclination": 4.4643,
        "meta_ra_of_asc_node": 77.3235,
        "meta_arg_of_pericenter": 239.645,
        "meta_mean_anomaly": 283.6165,
        "meta_ephemeris_type": 0,
        "meta_classification_type": "U",
        "meta_norad_cat_id": 36744,
        "meta_element_set_no": 999,
        "meta_rev_at_epoch": 4974,
        "meta_bstar": 0,
        "meta_mean_motion_dot": -3.54e-06,
        "meta_mean_motion_ddot": 0,
        "tle_line1": "1 36744U 10032A   26033.94248780 -.00000354  00000+0  00000+0 0  9997",
        "tle_line2": "2 36744   4.4643  77.3235 0001149 239.6450 283.6165  1.00271239 49748"
      },
      "geometry": {
        "type": "Point",
        "coordinates": [
          65.0726545057788,
          -0.964814045104691
        ]
      }
    },
    {
      "type": "Feature",
      "properties": {
        "norad_id": 37214,
        "name": "FENGYUN 3B",
        "group": "weather",
        "lat": 9.608391032103123,
        "lon": -98.6836742360231,
        "alt_km": 831.4583744722386,
        "timestamp": "2026-02-03T10:52:47.936787+00:00",
        "meta_object_name": "FENGYUN 3B",
        "meta_object_id": "2010-059A",
        "meta_epoch": "2026-02-03T03:42:48.482784",
        "meta_mean_motion": 14.14807011,
        "meta_eccentricity": 0.002165,
        "meta_inclination": 98.9833,
        "meta_ra_of_asc_node": 79.4814,
        "meta_arg_of_pericenter": 204.3289,
        "meta_mean_anomaly": 245.925,
        "meta_ephemeris_type": 0,
        "meta_classification_type": "U",
        "meta_norad_cat_id": 37214,
        "meta_element_set_no": 999,
        "meta_rev_at_epoch": 78847,
        "meta_bstar": -6.795e-05,
        "meta_mean_motion_dot": -1.77e-06,
        "meta_mean_motion_ddot": 0,
        "tle_line1": "1 37214U 10059A   26034.15472781 -.00000177  00000+0 -67950-4 0  9999",
        "tle_line2": "2 37214  98.9833  79.4814 0021650 204.3289 245.9250 14.14807011788472"
      },
      "geometry": {
        "type": "Point",
        "coordinates": [
          -98.6836742360231,
          9.608391032103123
        ]
      }
    },
    {
      "type": "Feature",
      "properties": {
        "norad_id": 37849,
        "name": "SUOMI NPP",
        "group": "weather",
        "lat": -5.648451268187005,
        "lon": 155.4600983937255,
        "alt_km": 831.7621143052565,
        "timestamp": "2026-02-03T10:52:47.936809+00:00",
        "meta_object_name": "SUOMI NPP",
        "meta_object_id": "2011-061A",
        "meta_epoch": "2026-02-03T03:14:30.862752",
        "meta_mean_motion": 14.19532932,
        "meta_eccentricity": 0.0001833,
        "meta_inclination": 98.7831,
        "meta_ra_of_asc_node": 336.0207,
        "meta_arg_of_pericenter": 30.016,
        "meta_mean_anomaly": 330.1121,
        "meta_ephemeris_type": 0,
        "meta_classification_type": "U",
        "meta_norad_cat_id": 37849,
        "meta_element_set_no": 999,
        "meta_rev_at_epoch": 73942,
        "meta_bstar": 6.7047e-05,
        "meta_mean_motion_dot": 9.7e-07,
        "meta_mean_motion_ddot": 0,
        "tle_line1": "1 37849U 11061A   26034.13507943  .00000097  00000+0  67047-4 0  9990",
        "tle_line2": "2 37849  98.7831 336.0207 0001833  30.0160 330.1121 14.19532932739420"
      },
      "geometry": {
        "type": "Point",
        "coordinates": [
          155.4600983937255,
          -5.648451268187005
        ]
      }
    },
    {
      "type": "Feature",
      "properties": {
        "norad_id": 38552,
        "name": "METEOSAT-10 (MSG-3)",
        "group": "weather",
        "lat": -3.5808325270923764,
        "lon": -63.263270934985954,
        "alt_km": 35779.51338723777,
        "timestamp": "2026-02-03T10:52:47.936832+00:00",
        "meta_object_name": "METEOSAT-10 (MSG-3)",
        "meta_object_id": "2012-035B",
        "meta_epoch": "2026-02-02T22:00:36.698688",
        "meta_mean_motion": 1.00271773,
        "meta_eccentricity": 0.0002309,
        "meta_inclination": 4.3537,
        "meta_ra_of_asc_node": 61.5903,
        "meta_arg_of_pericenter": 279.536,
        "meta_mean_anomaly": 122.0983,
        "meta_ephemeris_type": 0,
        "meta_classification_type": "U",
        "meta_norad_cat_id": 38552,
        "meta_element_set_no": 999,
        "meta_rev_at_epoch": 4951,
        "meta_bstar": 0,
        "meta_mean_motion_dot": -1.7e-07,
        "meta_mean_motion_ddot": 0,
        "tle_line1": "1 38552U 12035B   26033.91709142 -.00000017  00000+0  00000+0 0  9998",
        "tle_line2": "2 38552   4.3537  61.5903 0002309 279.5360 122.0983  1.00271773 49519"
      },
      "geometry": {
        "type": "Point",
        "coordinates": [
          -63.263270934985954,
          -3.5808325270923764
        ]
      }
    },
    {
      "type": "Feature",
      "properties": {
        "norad_id": 38771,
        "name": "METOP-B",
        "group": "weather",
        "lat": 36.242034535031465,
        "lon": 82.07586554082994,
        "alt_km": 816.0630709544657,
        "timestamp": "2026-02-03T10:52:47.936854+00:00",
        "meta_object_name": "METOP-B",
        "meta_object_id": "2012-049A",
        "meta_epoch": "2026-02-03T03:57:00.984672",
        "meta_mean_motion": 14.21432291,
        "meta_eccentricity": 0.0002608,
        "meta_inclination": 98.6714,
        "meta_ra_of_asc_node": 88.2151,
        "meta_arg_of_pericenter": 36.1817,
        "meta_mean_anomaly": 323.9537,
        "meta_ephemeris_type": 0,
        "meta_classification_type": "U",
        "meta_norad_cat_id": 38771,
        "meta_element_set_no": 999,
        "meta_rev_at_epoch": 69422,
        "meta_bstar": 7.7586e-05,
        "meta_mean_motion_dot": 1.26e-06,
        "meta_mean_motion_ddot": 0,
        "tle_line1": "1 38771U 12049A   26034.16459473  .00000126  00000+0  77586-4 0  9991",
        "tle_line2": "2 38771  98.6714  88.2151 0002608  36.1817 323.9537 14.21432291694224"
      },
      "geometry": {
        "type": "Point",
        "coordinates": [
          82.07586554082994,
          36.242034535031465
        ]
      }
    },
    {
      "type": "Feature",
      "properties": {
        "norad_id": 39216,
        "name": "INSAT-3D",
        "group": "weather",
        "lat": -0.5010240788215907,
        "lon": 66.33832918222264,
        "alt_km": 35793.50365124555,
        "timestamp": "2026-02-03T10:52:47.936876+00:00",
        "meta_object_name": "INSAT-3D",
        "meta_object_id": "2013-038B",
        "meta_epoch": "2026-02-02T22:37:33.409920",
        "meta_mean_motion": 1.00268343,
        "meta_eccentricity": 0.0001872,
        "meta_inclination": 1.5797,
        "meta_ra_of_asc_node": 84.3431,
        "meta_arg_of_pericenter": 198.7553,
        "meta_mean_anomaly": 318.877,
        "meta_ephemeris_type": 0,
        "meta_classification_type": "U",
        "meta_norad_cat_id": 39216,
        "meta_element_set_no": 999,
        "meta_rev_at_epoch": 4573,
        "meta_bstar": 0,
        "meta_mean_motion_dot": -3.49e-06,
        "meta_mean_motion_ddot": 0,
        "tle_line1": "1 39216U 13038B   26033.94274780 -.00000349  00000+0  00000+0 0  9996",
        "tle_line2": "2 39216   1.5797  84.3431 0001872 198.7553 318.8770  1.00268343 45731"
      },
      "geometry": {
        "type": "Point",
        "coordinates": [
          66.33832918222264,
          -0.5010240788215907
        ]
      }
    },
    {
      "type": "Feature",
      "properties": {
        "norad_id": 39260,
        "name": "FENGYUN 3C",
        "group": "weather",
        "lat": -77.00394051061376,
        "lon": 54.868187486714426,
        "alt_km": 854.6038812688448,
        "timestamp": "2026-02-03T10:52:47.936897+00:00",
        "meta_object_name": "FENGYUN 3C",
        "meta_object_id": "2013-052A",
        "meta_epoch": "2026-02-03T04:28:23.243232",
        "meta_mean_motion": 14.15716501,
        "meta_eccentricity": 0.00156,
        "meta_inclination": 98.4833,
        "meta_ra_of_asc_node": 14.3234,
        "meta_arg_of_pericenter": 51.8891,
        "meta_mean_anomaly": 308.3688,
        "meta_ephemeris_type": 0,
        "meta_classification_type": "U",
        "meta_norad_cat_id": 39260,
        "meta_element_set_no": 999,
        "meta_rev_at_epoch": 63960,
        "meta_bstar": 8.4918e-05,
        "meta_mean_motion_dot": 1.26e-06,
        "meta_mean_motion_ddot": 0,
        "tle_line1": "1 39260U 13052A   26034.18638013  .00000126  00000+0  84918-4 0  9998",
        "tle_line2": "2 39260  98.4833  14.3234 0015600  51.8891 308.3688 14.15716501639609"
      },
      "geometry": {
        "type": "Point",
        "coordinates": [
          54.868187486714426,
          -77.00394051061376
        ]
      }
    },
    {
      "type": "Feature",
      "properties": {
        "norad_id": 40069,
        "name": "METEOR-M 2",
        "group": "weather",
        "lat": -77.23210888619242,
        "lon": 153.7625462441531,
        "alt_km": 832.7361175808046,
        "timestamp": "2026-02-03T10:52:47.936918+00:00",
        "meta_object_name": "METEOR-M 2",
        "meta_object_id": "2014-037A",
        "meta_epoch": "2026-02-03T04:35:25.638144",
        "meta_mean_motion": 14.21414305,
        "meta_eccentricity": 0.0006883,
        "meta_inclination": 98.4963,
        "meta_ra_of_asc_node": 14.7836,
        "meta_arg_of_pericenter": 69.0692,
        "meta_mean_anomaly": 291.1223,
        "meta_ephemeris_type": 0,
        "meta_classification_type": "U",
        "meta_norad_cat_id": 40069,
        "meta_element_set_no": 999,
        "meta_rev_at_epoch": 60028,
        "meta_bstar": 0.0002137,
        "meta_mean_motion_dot": 4.25e-06,
        "meta_mean_motion_ddot": 0,
        "tle_line1": "1 40069U 14037A   26034.19126896  .00000425  00000+0  21370-3 0  9997",
        "tle_line2": "2 40069  98.4963  14.7836 0006883  69.0692 291.1223 14.21414305600287"
      },
      "geometry": {
        "type": "Point",
        "coordinates": [
          153.7625462441531,
          -77.23210888619242
        ]
      }
    },
    {
      "type": "Feature",
      "properties": {
        "norad_id": 40267,
        "name": "HIMAWARI-8",
        "group": "weather",
        "lat": -0.0002680479840718331,
        "lon": 77.53006263405786,
        "alt_km": 35788.99435255831,
        "timestamp": "2026-02-03T10:52:47.936939+00:00",
        "meta_object_name": "HIMAWARI-8",
        "meta_object_id": "2014-060A",
        "meta_epoch": "2026-02-02T22:40:40.611072",
        "meta_mean_motion": 1.00268632,
        "meta_eccentricity": 0.0001016,
        "meta_inclination": 0.0154,
        "meta_ra_of_asc_node": 216.5451,
        "meta_arg_of_pericenter": 103.7942,
        "meta_mean_anomaly": 293.6166,
        "meta_ephemeris_type": 0,
        "meta_classification_type": "U",
        "meta_norad_cat_id": 40267,
        "meta_element_set_no": 999,
        "meta_rev_at_epoch": 4141,
        "meta_bstar": 0,
        "meta_mean_motion_dot": 0,
        "meta_mean_motion_ddot": 0,
        "tle_line1": "1 40267U 14060A   26033.94491448  .00000000  00000+0  00000+0 0  9995",
        "tle_line2": "2 40267   0.0154 216.5451 0001016 103.7942 293.6166  1.00268632 41410"
      },
      "geometry": {
        "type": "Point",
        "coordinates": [
          77.53006263405786,
          -0.0002680479840718331
        ]
      }
    },
    {
      "type": "Feature",
      "properties": {
        "norad_id": 40367,
        "name": "FENGYUN 2G",
        "group": "weather",
        "lat": -3.2938534471462075,
        "lon": 36.42930553954919,
        "alt_km": 35793.393096167885,
        "timestamp": "2026-02-03T10:52:47.936962+00:00",
        "meta_object_name": "FENGYUN 2G",
        "meta_object_id": "2014-090A",
        "meta_epoch": "2026-02-03T01:54:22.051296",
        "meta_mean_motion": 1.00264211,
        "meta_eccentricity": 0.0001772,
        "meta_inclination": 5.2997,
        "meta_ra_of_asc_node": 74.4569,
        "meta_arg_of_pericenter": 192.5207,
        "meta_mean_anomaly": 354.3189,
        "meta_ephemeris_type": 0,
        "meta_classification_type": "U",
        "meta_norad_cat_id": 40367,
        "meta_element_set_no": 999,
        "meta_rev_at_epoch": 4065,
        "meta_bstar": 0,
        "meta_mean_motion_dot": -3.1e-06,
        "meta_mean_motion_ddot": 0,
        "tle_line1": "1 40367U 14090A   26034.07942189 -.00000310  00000+0  00000+0 0  9992",
        "tle_line2": "2 40367   5.2997  74.4569 0001772 192.5207 354.3189  1.00264211 40657"
      },
      "geometry": {
        "type": "Point",
        "coordinates": [
          36.42930553954919,
          -3.2938534471462075
        ]
      }
    },
    {
      "type": "Feature",
      "properties": {
        "norad_id": 40732,
        "name": "METEOSAT-11 (MSG-4)",
        "group": "weather",
        "lat": -2.3511654191590403,
        "lon": -53.495079368665145,
        "alt_km": 35782.80279778017,
        "timestamp": "2026-02-03T10:52:47.936985+00:00",
        "meta_object_name": "METEOSAT-11 (MSG-4)",
        "meta_object_id": "2015-034A",
        "meta_epoch": "2026-02-03T03:11:29.660352",
        "meta_mean_motion": 1.00268478,
        "meta_eccentricity": 0.000106,
        "meta_inclination": 2.8666,
        "meta_ra_of_asc_node": 71.8079,
        "meta_arg_of_pericenter": 236.3129,
        "meta_mean_anomaly": 242.7453,
        "meta_ephemeris_type": 0,
        "meta_classification_type": "U",
        "meta_norad_cat_id": 40732,
        "meta_element_set_no": 999,
        "meta_rev_at_epoch": 587,
        "meta_bstar": 0,
        "meta_mean_motion_dot": 5.4e-07,
        "meta_mean_motion_ddot": 0,
        "tle_line1": "1 40732U 15034A   26034.13298218  .00000054  00000+0  00000+0 0  9995",
        "tle_line2": "2 40732   2.8666  71.8079 0001060 236.3129 242.7453  1.00268478  5874"
      },
      "geometry": {
        "type": "Point",
        "coordinates": [
          -53.495079368665145,
          -2.3511654191590403
        ]
      }
    },
    {
      "type": "Feature",
      "properties": {
        "norad_id": 41105,
        "name": "ELEKTRO-L 2",
        "group": "weather",
        "lat": -3.184785437367241,
        "lon": -77.81758601486739,
        "alt_km": 35770.909994421745,
        "timestamp": "2026-02-03T10:52:47.937007+00:00",
        "meta_object_name": "ELEKTRO-L 2",
        "meta_object_id": "2015-074A",
        "meta_epoch": "2026-02-02T21:56:29.593824",
        "meta_mean_motion": 1.00271926,
        "meta_eccentricity": 0.0003789,
        "meta_inclination": 6.3562,
        "meta_ra_of_asc_node": 72.1883,
        "meta_arg_of_pericenter": 223.8625,
        "meta_mean_anomaly": 151.6551,
        "meta_ephemeris_type": 0,
        "meta_classification_type": "U",
        "meta_norad_cat_id": 41105,
        "meta_element_set_no": 999,
        "meta_rev_at_epoch": 3716,
        "meta_bstar": 0,
        "meta_mean_motion_dot": -1.28e-06,
        "meta_mean_motion_ddot": 0,
        "tle_line1": "1 41105U 15074A   26033.91423141 -.00000128  00000+0  00000+0 0  9997",
        "tle_line2": "2 41105   6.3562  72.1883 0003789 223.8625 151.6551  1.00271926 37168"
      },
      "geometry": {
        "type": "Point",
        "coordinates": [
          -77.81758601486739,
          -3.184785437367241
        ]
      }
    },
    {
      "type": "Feature",
      "properties": {
        "norad_id": 41752,
        "name": "INSAT-3DR",
        "group": "weather",
        "lat": -0.07095922674071756,
        "lon": 11.001986360392921,
        "alt_km": 35788.943440762836,
        "timestamp": "2026-02-03T10:52:47.937030+00:00",
        "meta_object_name": "INSAT-3DR",
        "meta_object_id": "2016-054A",
        "meta_epoch": "2026-02-03T00:04:25.085568",
        "meta_mean_motion": 1.00271092,
        "meta_eccentricity": 0.0014011,
        "meta_inclination": 0.0462,
        "meta_ra_of_asc_node": 93.6702,
        "meta_arg_of_pericenter": 184.4081,
        "meta_mean_anomaly": 290.1872,
        "meta_ephemeris_type": 0,
        "meta_classification_type": "U",
        "meta_norad_cat_id": 41752,
        "meta_element_set_no": 999,
        "meta_rev_at_epoch": 3447,
        "meta_bstar": 0,
        "meta_mean_motion_dot": -8.6e-07,
        "meta_mean_motion_ddot": 0,
        "tle_line1": "1 41752U 16054A   26034.00306812 -.00000086  00000+0  00000+0 0  9993",
        "tle_line2": "2 41752   0.0462  93.6702 0014011 184.4081 290.1872  1.00271092 34472"
      },
      "geometry": {
        "type": "Point",
        "coordinates": [
          11.001986360392921,
          -0.07095922674071756
        ]
      }
    },
    {
      "type": "Feature",
      "properties": {
        "norad_id": 41836,
        "name": "HIMAWARI-9",
        "group": "weather",
        "lat": -0.01793193406792351,
        "lon": 77.6076287482162,
        "alt_km": 35787.58678906098,
        "timestamp": "2026-02-03T10:52:47.937053+00:00",
        "meta_object_name": "HIMAWARI-9",
        "meta_object_id": "2016-064A",
        "meta_epoch": "2026-02-02T22:40:48.099360",
        "meta_mean_motion": 1.00272212,
        "meta_eccentricity": 0.0001067,
        "meta_inclination": 0.0132,
        "meta_ra_of_asc_node": 155.384,
        "meta_arg_of_pericenter": 172.0909,
        "meta_mean_anomaly": 286.5822,
        "meta_ephemeris_type": 0,
        "meta_classification_type": "U",
        "meta_norad_cat_id": 41836,
        "meta_element_set_no": 999,
        "meta_rev_at_epoch": 3386,
        "meta_bstar": 0,
        "meta_mean_motion_dot": -2.84e-06,
        "meta_mean_motion_ddot": 0,
        "tle_line1": "1 41836U 16064A   26033.94500115 -.00000284  00000+0  00000+0 0  9991",
        "tle_line2": "2 41836   0.0132 155.3840 0001067 172.0909 286.5822  1.00272212 33868"
      },
      "geometry": {
        "type": "Point",
        "coordinates": [
          77.6076287482162,
          -0.01793193406792351
        ]
      }
    },
    {
      "type": "Feature",
      "properties": {
        "norad_id": 41866,
        "name": "GOES 16",
        "group": "weather",
        "lat": 0.17355581193637168,
        "lon": -167.89478855026562,
        "alt_km": 35788.00206808398,
        "timestamp": "2026-02-03T10:52:47.937075+00:00",
        "meta_object_name": "GOES 16",
        "meta_object_id": "2016-071A",
        "meta_epoch": "2026-02-03T02:38:47.792832",
        "meta_mean_motion": 1.00271413,
        "meta_eccentricity": 0.0003055,
        "meta_inclination": 0.1501,
        "meta_ra_of_asc_node": 94.3775,
        "meta_arg_of_pericenter": 195.6982,
        "meta_mean_anomaly": 138.1881,
        "meta_ephemeris_type": 0,
        "meta_classification_type": "U",
        "meta_norad_cat_id": 41866,
        "meta_element_set_no": 999,
        "meta_rev_at_epoch": 3375,
        "meta_bstar": 0,
        "meta_mean_motion_dot": -1e-06,
        "meta_mean_motion_ddot": 0,
        "tle_line1": "1 41866U 16071A   26034.11027538 -.00000100  00000+0  00000+0 0  9992",
        "tle_line2": "2 41866   0.1501  94.3775 0003055 195.6982 138.1881  1.00271413 33759"
      },
      "geometry": {
        "type": "Point",
        "coordinates": [
          -167.89478855026562,
          0.17355581193637168
        ]
      }
    },
    {
      "type": "Feature",
      "properties": {
        "norad_id": 41882,
        "name": "FENGYUN 4A",
        "group": "weather",
        "lat": -0.7364027721135484,
        "lon": 60.46860633526844,
        "alt_km": 35809.36775453815,
        "timestamp": "2026-02-03T10:52:47.937099+00:00",
        "meta_object_name": "FENGYUN 4A",
        "meta_object_id": "2016-077A",
        "meta_epoch": "2026-02-03T00:18:38.723616",
        "meta_mean_motion": 1.00277686,
        "meta_eccentricity": 0.0006519,
        "meta_inclination": 1.9809,
        "meta_ra_of_asc_node": 81.8153,
        "meta_arg_of_pericenter": 133.7096,
        "meta_mean_anomaly": 45.9461,
        "meta_ephemeris_type": 0,
        "meta_classification_type": "U",
        "meta_norad_cat_id": 41882,
        "meta_element_set_no": 999,
        "meta_rev_at_epoch": 3358,
        "meta_bstar": 0,
        "meta_mean_motion_dot": -3.67e-06,
        "meta_mean_motion_ddot": 0,
        "tle_line1": "1 41882U 16077A   26034.01294819 -.00000367  00000+0  00000+0 0  9998",
        "tle_line2": "2 41882   1.9809  81.8153 0006519 133.7096  45.9461  1.00277686 33583"
      },
      "geometry": {
        "type": "Point",
        "coordinates": [
          60.46860633526844,
          -0.7364027721135484
        ]
      }
    },
    {
      "type": "Feature",
      "properties": {
        "norad_id": 41884,
        "name": "CYGFM05",
        "group": "weather",
        "lat": -29.312662630864267,
        "lon": 8.677963942897426,
        "alt_km": 411.96348087187835,
        "timestamp": "2026-02-03T10:52:47.937120+00:00",
        "meta_object_name": "CYGFM05",
        "meta_object_id": "2016-078A",
        "meta_epoch": "2026-02-03T03:24:18.248832",
        "meta_mean_motion": 15.50397493,
        "meta_eccentricity": 0.0007887,
        "meta_inclination": 34.9588,
        "meta_ra_of_asc_node": 64.2017,
        "meta_arg_of_pericenter": 303.2794,
        "meta_mean_anomaly": 56.7173,
        "meta_ephemeris_type": 0,
        "meta_classification_type": "U",
        "meta_norad_cat_id": 41884,
        "meta_element_set_no": 999,
        "meta_rev_at_epoch": 50789,
        "meta_bstar": 0.00038249,
        "meta_mean_motion_dot": 0.00022468,
        "meta_mean_motion_ddot": 0,
        "tle_line1": "1 41884U 16078A   26034.14187788  .00022468  00000+0  38249-3 0  9996",
        "tle_line2": "2 41884  34.9588  64.2017 0007887 303.2794  56.7173 15.50397493507896"
      },
      "geometry": {
        "type": "Point",
        "coordinates": [
          8.677963942897426,
          -29.312662630864267
        ]
      }
    },
    {
      "type": "Feature",
      "properties": {
        "norad_id": 41885,
        "name": "CYGFM04",
        "group": "weather",
        "lat": 3.70911698058336,
        "lon": 40.66575949030767,
        "alt_km": 402.108699411875,
        "timestamp": "2026-02-03T10:52:47.937140+00:00",
        "meta_object_name": "CYGFM04",
        "meta_object_id": "2016-078B",
        "meta_epoch": "2026-02-03T03:08:21.729120",
        "meta_mean_motion": 15.53208175,
        "meta_eccentricity": 0.0006441,
        "meta_inclination": 34.9343,
        "meta_ra_of_asc_node": 37.4619,
        "meta_arg_of_pericenter": 328.998,
        "meta_mean_anomaly": 31.0362,
        "meta_ephemeris_type": 0,
        "meta_classification_type": "U",
        "meta_norad_cat_id": 41885,
        "meta_element_set_no": 999,
        "meta_rev_at_epoch": 50808,
        "meta_bstar": 0.00039391,
        "meta_mean_motion_dot": 0.00025608,
        "meta_mean_motion_ddot": 0,
        "tle_line1": "1 41885U 16078B   26034.13080705  .00025608  00000+0  39391-3 0  9995",
        "tle_line2": "2 41885  34.9343  37.4619 0006441 328.9980  31.0362 15.53208175508081"
      },
      "geometry": {
        "type": "Point",
        "coordinates": [
          40.66575949030767,
          3.70911698058336
        ]
      }
    },
    {
      "type": "Feature",
      "properties": {
        "norad_id": 41886,
        "name": "CYGFM02",
        "group": "weather",
        "lat": -24.228497499232486,
        "lon": -7.2369658764751,
        "alt_km": 398.44856277733925,
        "timestamp": "2026-02-03T10:52:47.937161+00:00",
        "meta_object_name": "CYGFM02",
        "meta_object_id": "2016-078C",
        "meta_epoch": "2026-02-03T03:22:20.185824",
        "meta_mean_motion": 15.55090081,
        "meta_eccentricity": 0.0007584,
        "meta_inclination": 34.9431,
        "meta_ra_of_asc_node": 34.959,
        "meta_arg_of_pericenter": 332.3216,
        "meta_mean_anomaly": 27.7103,
        "meta_ephemeris_type": 0,
        "meta_classification_type": "U",
        "meta_norad_cat_id": 41886,
        "meta_element_set_no": 999,
        "meta_rev_at_epoch": 50822,
        "meta_bstar": 0.00042879,
        "meta_mean_motion_dot": 0.00029899,
        "meta_mean_motion_ddot": 0,
        "tle_line1": "1 41886U 16078C   26034.14051141  .00029899  00000+0  42879-3 0  9990",
        "tle_line2": "2 41886  34.9431  34.9590 0007584 332.3216  27.7103 15.55090081508228"
      },
      "geometry": {
        "type": "Point",
        "coordinates": [
          -7.2369658764751,
          -24.228497499232486
        ]
      }
    },
    {
      "type": "Feature",
      "properties": {
        "norad_id": 41887,
        "name": "CYGFM01",
        "group": "weather",
        "lat": 34.54026411837194,
        "lon": 163.782855165593,
        "alt_km": 413.0431076560217,
        "timestamp": "2026-02-03T10:52:47.937182+00:00",
        "meta_object_name": "CYGFM01",
        "meta_object_id": "2016-078D",
        "meta_epoch": "2026-02-03T04:16:47.580672",
        "meta_mean_motion": 15.50789387,
        "meta_eccentricity": 0.000793,
        "meta_inclination": 34.942,
        "meta_ra_of_asc_node": 65.9358,
        "meta_arg_of_pericenter": 295.5794,
        "meta_mean_anomaly": 64.4108,
        "meta_ephemeris_type": 0,
        "meta_classification_type": "U",
        "meta_norad_cat_id": 41887,
        "meta_element_set_no": 999,
        "meta_rev_at_epoch": 50784,
        "meta_bstar": 0.00037258,
        "meta_mean_motion_dot": 0.00022194,
        "meta_mean_motion_ddot": 0,
        "tle_line1": "1 41887U 16078D   26034.17832848  .00022194  00000+0  37258-3 0  9991",
        "tle_line2": "2 41887  34.9420  65.9358 0007930 295.5794  64.4108 15.50789387507848"
      },
      "geometry": {
        "type": "Point",
        "coordinates": [
          163.782855165593,
          34.54026411837194
        ]
      }
    },
    {
      "type": "Feature",
      "properties": {
        "norad_id": 41888,
        "name": "CYGFM08",
        "group": "weather",
        "lat": 17.243229803704892,
        "lon": 72.85515527316514,
        "alt_km": 404.4451939907476,
        "timestamp": "2026-02-03T10:52:47.937202+00:00",
        "meta_object_name": "CYGFM08",
        "meta_object_id": "2016-078E",
        "meta_epoch": "2026-02-03T03:01:42.284640",
        "meta_mean_motion": 15.52161321,
        "meta_eccentricity": 0.0008757,
        "meta_inclination": 34.9453,
        "meta_ra_of_asc_node": 48.6166,
        "meta_arg_of_pericenter": 321.0194,
        "meta_mean_anomaly": 38.9897,
        "meta_ephemeris_type": 0,
        "meta_classification_type": "U",
        "meta_norad_cat_id": 41888,
        "meta_element_set_no": 999,
        "meta_rev_at_epoch": 50807,
        "meta_bstar": 0.00039207,
        "meta_mean_motion_dot": 0.00024553,
        "meta_mean_motion_ddot": 0,
        "tle_line1": "1 41888U 16078E   26034.12618385  .00024553  00000+0  39207-3 0  9992",
        "tle_line2": "2 41888  34.9453  48.6166 0008757 321.0194  38.9897 15.52161321508078"
      },
      "geometry": {
        "type": "Point",
        "coordinates": [
          72.85515527316514,
          17.243229803704892
        ]
      }
    },
    {
      "type": "Feature",
      "properties": {
        "norad_id": 41890,
        "name": "CYGFM07",
        "group": "weather",
        "lat": 23.596113682587905,
        "lon": 176.4143318606478,
        "alt_km": 407.9851387607441,
        "timestamp": "2026-02-03T10:52:47.937222+00:00",
        "meta_object_name": "CYGFM07",
        "meta_object_id": "2016-078G",
        "meta_epoch": "2026-02-03T02:35:03.516576",
        "meta_mean_motion": 15.52806242,
        "meta_eccentricity": 0.0006656,
        "meta_inclination": 34.9472,
        "meta_ra_of_asc_node": 37.4091,
        "meta_arg_of_pericenter": 336.3063,
        "meta_mean_anomaly": 23.7353,
        "meta_ephemeris_type": 0,
        "meta_classification_type": "U",
        "meta_norad_cat_id": 41890,
        "meta_element_set_no": 999,
        "meta_rev_at_epoch": 50809,
        "meta_bstar": 0.00039338,
        "meta_mean_motion_dot": 0.00025202,
        "meta_mean_motion_ddot": 0,
        "tle_line1": "1 41890U 16078G   26034.10767959  .00025202  00000+0  39338-3 0  9992",
        "tle_line2": "2 41890  34.9472  37.4091 0006656 336.3063  23.7353 15.52806242508094"
      },
      "geometry": {
        "type": "Point",
        "coordinates": [
          176.4143318606478,
          23.596113682587905
        ]
      }
    },
    {
      "type": "Feature",
      "properties": {
        "norad_id": 41891,
        "name": "CYGFM03",
        "group": "weather",
        "lat": -26.371163357368914,
        "lon": -8.150335525646955,
        "alt_km": 406.04985011957797,
        "timestamp": "2026-02-03T10:52:47.937243+00:00",
        "meta_object_name": "CYGFM03",
        "meta_object_id": "2016-078H",
        "meta_epoch": "2026-02-03T03:22:56.949024",
        "meta_mean_motion": 15.52685632,
        "meta_eccentricity": 0.000662,
        "meta_inclination": 34.9424,
        "meta_ra_of_asc_node": 39.1468,
        "meta_arg_of_pericenter": 319.8742,
        "meta_mean_anomaly": 40.1492,
        "meta_ephemeris_type": 0,
        "meta_classification_type": "U",
        "meta_norad_cat_id": 41891,
        "meta_element_set_no": 999,
        "meta_rev_at_epoch": 50807,
        "meta_bstar": 0.00038782,
        "meta_mean_motion_dot": 0.00024736,
        "meta_mean_motion_ddot": 0,
        "tle_line1": "1 41891U 16078H   26034.14093691  .00024736  00000+0  38782-3 0  9995",
        "tle_line2": "2 41891  34.9424  39.1468 0006620 319.8742  40.1492 15.52685632508073"
      },
      "geometry": {
        "type": "Point",
        "coordinates": [
          -8.150335525646955,
          -26.371163357368914
        ]
      }
    },
    {
      "type": "Feature",
      "properties": {
        "norad_id": 43010,
        "name": "FENGYUN 3D",
        "group": "weather",
        "lat": -9.18740068219292,
        "lon": 8.041936551870535,
        "alt_km": 830.1740133464846,
        "timestamp": "2026-02-03T10:52:47.937264+00:00",
        "meta_object_name": "FENGYUN 3D",
        "meta_object_id": "2017-072A",
        "meta_epoch": "2026-02-03T04:09:28.591776",
        "meta_mean_motion": 14.19705293,
        "meta_eccentricity": 0.0002504,
        "meta_inclination": 98.9965,
        "meta_ra_of_asc_node": 6.2892,
        "meta_arg_of_pericenter": 75.3865,
        "meta_mean_anomaly": 284.7588,
        "meta_ephemeris_type": 0,
        "meta_classification_type": "U",
        "meta_norad_cat_id": 43010,
        "meta_element_set_no": 999,
        "meta_rev_at_epoch": 42597,
        "meta_bstar": 0.00024695,
        "meta_mean_motion_dot": 4.76e-06,
        "meta_mean_motion_ddot": 0,
        "tle_line1": "1 43010U 17072A   26034.17324759  .00000476  00000+0  24695-3 0  9993",
        "tle_line2": "2 43010  98.9965   6.2892 0002504  75.3865 284.7588 14.19705293425978"
      },
      "geometry": {
        "type": "Point",
        "coordinates": [
          8.041936551870535,
          -9.18740068219292
        ]
      }
    },
    {
      "type": "Feature",
      "properties": {
        "norad_id": 43013,
        "name": "NOAA 20 (JPSS-1)",
        "group": "weather",
        "lat": 66.7487658721266,
        "lon": 176.23405285074602,
        "alt_km": 820.4592020292039,
        "timestamp": "2026-02-03T10:52:47.937314+00:00",
        "meta_object_name": "NOAA 20 (JPSS-1)",
        "meta_object_id": "2017-073A",
        "meta_epoch": "2026-02-03T03:35:22.673472",
        "meta_mean_motion": 14.19526379,
        "meta_eccentricity": 5.52e-05,
        "meta_inclination": 98.7656,
        "meta_ra_of_asc_node": 334.8884,
        "meta_arg_of_pericenter": 16.3833,
        "meta_mean_anomaly": 343.7361,
        "meta_ephemeris_type": 0,
        "meta_classification_type": "U",
        "meta_norad_cat_id": 43013,
        "meta_element_set_no": 999,
        "meta_rev_at_epoch": 42545,
        "meta_bstar": 6.2561e-05,
        "meta_mean_motion_dot": 8.8e-07,
        "meta_mean_motion_ddot": 0,
        "tle_line1": "1 43013U 17073A   26034.14956798  .00000088  00000+0  62561-4 0  9992",
        "tle_line2": "2 43013  98.7656 334.8884 0000552  16.3833 343.7361 14.19526379425452"
      },
      "geometry": {
        "type": "Point",
        "coordinates": [
          176.23405285074602,
          66.7487658721266
        ]
      }
    },
    {
      "type": "Feature",
      "properties": {
        "norad_id": 43226,
        "name": "GOES 17",
        "group": "weather",
        "lat": 0.5410125999689227,
        "lon": -152.71083421605766,
        "alt_km": 35786.4859114588,
        "timestamp": "2026-02-03T10:52:47.937341+00:00",
        "meta_object_name": "GOES 17",
        "meta_object_id": "2018-022A",
        "meta_epoch": "2026-02-03T04:12:38.767680",
        "meta_mean_motion": 1.00270165,
        "meta_eccentricity": 0.0002944,
        "meta_inclination": 0.5929,
        "meta_ra_of_asc_node": 88.2031,
        "meta_arg_of_pericenter": 208.9584,
        "meta_mean_anomaly": 169.8121,
        "meta_ephemeris_type": 0,
        "meta_classification_type": "U",
        "meta_norad_cat_id": 43226,
        "meta_element_set_no": 999,
        "meta_rev_at_epoch": 2908,
        "meta_bstar": 0,
        "meta_mean_motion_dot": -1.91e-06,
        "meta_mean_motion_ddot": 0,
        "tle_line1": "1 43226U 18022A   26034.17544870 -.00000191  00000+0  00000+0 0  9991",
        "tle_line2": "2 43226   0.5929  88.2031 0002944 208.9584 169.8121  1.00270165 29080"
      },
      "geometry": {
        "type": "Point",
        "coordinates": [
          -152.71083421605766,
          0.5410125999689227
        ]
      }
    },
    {
      "type": "Feature",
      "properties": {
        "norad_id": 43491,
        "name": "FENGYUN 2H",
        "group": "weather",
        "lat": -2.4580458946672987,
        "lon": 15.760907655171302,
        "alt_km": 35792.098682682146,
        "timestamp": "2026-02-03T10:52:47.937363+00:00",
        "meta_object_name": "FENGYUN 2H",
        "meta_object_id": "2018-050A",
        "meta_epoch": "2026-02-03T00:05:47.455008",
        "meta_mean_motion": 1.00266402,
        "meta_eccentricity": 0.0002562,
        "meta_inclination": 2.6849,
        "meta_ra_of_asc_node": 80.7292,
        "meta_arg_of_pericenter": 181.966,
        "meta_mean_anomaly": 310.7931,
        "meta_ephemeris_type": 0,
        "meta_classification_type": "U",
        "meta_norad_cat_id": 43491,
        "meta_element_set_no": 999,
        "meta_rev_at_epoch": 2809,
        "meta_bstar": 0,
        "meta_mean_motion_dot": -1.34e-06,
        "meta_mean_motion_ddot": 0,
        "tle_line1": "1 43491U 18050A   26034.00402147 -.00000134  00000+0  00000+0 0  9995",
        "tle_line2": "2 43491   2.6849  80.7292 0002562 181.9660 310.7931  1.00266402 28090"
      },
      "geometry": {
        "type": "Point",
        "coordinates": [
          15.760907655171302,
          -2.4580458946672987
        ]
      }
    },
    {
      "type": "Feature",
      "properties": {
        "norad_id": 43689,
        "name": "METOP-C",
        "group": "weather",
        "lat": -79.6910415960422,
        "lon": -140.77199718560735,
        "alt_km": 828.0434257500683,
        "timestamp": "2026-02-03T10:52:47.937380+00:00",
        "meta_object_name": "METOP-C",
        "meta_object_id": "2018-087A",
        "meta_epoch": "2026-02-03T02:52:57.554112",
        "meta_mean_motion": 14.21508259,
        "meta_eccentricity": 0.0001485,
        "meta_inclination": 98.684,
        "meta_ra_of_asc_node": 96.0657,
        "meta_arg_of_pericenter": 149.7407,
        "meta_mean_anomaly": 210.3856,
        "meta_ephemeris_type": 0,
        "meta_classification_type": "U",
        "meta_norad_cat_id": 43689,
        "meta_element_set_no": 999,
        "meta_rev_at_epoch": 37578,
        "meta_bstar": 7.6357e-05,
        "meta_mean_motion_dot": 1.24e-06,
        "meta_mean_motion_ddot": 0,
        "tle_line1": "1 43689U 18087A   26034.12011058  .00000124  00000+0  76357-4 0  9995",
        "tle_line2": "2 43689  98.6840  96.0657 0001485 149.7407 210.3856 14.21508259375782"
      },
      "geometry": {
        "type": "Point",
        "coordinates": [
          -140.77199718560735,
          -79.6910415960422
        ]
      }
    },
    {
      "type": "Feature",
      "properties": {
        "norad_id": 43823,
        "name": "GEO-KOMPSAT-2A",
        "group": "weather",
        "lat": -0.022966652791732312,
        "lon": 65.08956639000523,
        "alt_km": 35783.981926354994,
        "timestamp": "2026-02-03T10:52:47.937398+00:00",
        "meta_object_name": "GEO-KOMPSAT-2A",
        "meta_object_id": "2018-100A",
        "meta_epoch": "2026-02-01T15:48:29.246976",
        "meta_mean_motion": 1.00270175,
        "meta_eccentricity": 8.661e-05,
        "meta_inclination": 0.0129,
        "meta_ra_of_asc_node": 103.0044,
        "meta_arg_of_pericenter": 282.9359,
        "meta_mean_anomaly": 111.2711,
        "meta_ephemeris_type": 0,
        "meta_classification_type": "U",
        "meta_norad_cat_id": 43823,
        "meta_element_set_no": 999,
        "meta_rev_at_epoch": 2627,
        "meta_bstar": 0,
        "meta_mean_motion_dot": -3.54e-06,
        "meta_mean_motion_ddot": 0,
        "tle_line1": "1 43823U 18100A   26032.65867184 -.00000354  00000+0  00000+0 0  9999",
        "tle_line2": "2 43823   0.0129 103.0044 0000866 282.9359 111.2711  1.00270175 26278"
      },
      "geometry": {
        "type": "Point",
        "coordinates": [
          65.08956639000523,
          -0.022966652791732312
        ]
      }
    },
    {
      "type": "Feature",
      "properties": {
        "norad_id": 44387,
        "name": "METEOR-M2 2",
        "group": "weather",
        "lat": 27.713298264841164,
        "lon": -155.43170041176063,
        "alt_km": 809.5746193169989,
        "timestamp": "2026-02-03T10:52:47.937415+00:00",
        "meta_object_name": "METEOR-M2 2",
        "meta_object_id": "2019-038A",
        "meta_epoch": "2026-02-03T05:06:42.704928",
        "meta_mean_motion": 14.24320439,
        "meta_eccentricity": 0.0002189,
        "meta_inclination": 98.9028,
        "meta_ra_of_asc_node": 19.6018,
        "meta_arg_of_pericenter": 61.6477,
        "meta_mean_anomaly": 298.4922,
        "meta_ephemeris_type": 0,
        "meta_classification_type": "U",
        "meta_norad_cat_id": 44387,
        "meta_element_set_no": 999,
        "meta_rev_at_epoch": 34222,
        "meta_bstar": 0.00026437,
        "meta_mean_motion_dot": 5.65e-06,
        "meta_mean_motion_ddot": 0,
        "tle_line1": "1 44387U 19038A   26034.21299427  .00000565  00000+0  26437-3 0  9998",
        "tle_line2": "2 44387  98.9028  19.6018 0002189  61.6477 298.4922 14.24320439342221"
      },
      "geometry": {
        "type": "Point",
        "coordinates": [
          -155.43170041176063,
          27.713298264841164
        ]
      }
    },
    {
      "type": "Feature",
      "properties": {
        "norad_id": 47719,
        "name": "ARKTIKA-M 1",
        "group": "weather",
        "lat": 39.11639773624341,
        "lon": 101.03027913751085,
        "alt_km": 19871.976647530006,
        "timestamp": "2026-02-03T10:52:47.937435+00:00",
        "meta_object_name": "ARKTIKA-M 1",
        "meta_object_id": "2021-016A",
        "meta_epoch": "2026-02-02T21:50:31.253280",
        "meta_mean_motion": 2.00623064,
        "meta_eccentricity": 0.7229726,
        "meta_inclination": 63.1922,
        "meta_ra_of_asc_node": 76.775,
        "meta_arg_of_pericenter": 269.3406,
        "meta_mean_anomaly": 15.3006,
        "meta_ephemeris_type": 0,
        "meta_classification_type": "U",
        "meta_norad_cat_id": 47719,
        "meta_element_set_no": 999,
        "meta_rev_at_epoch": 3609,
        "meta_bstar": 0,
        "meta_mean_motion_dot": -1.36e-06,
        "meta_mean_motion_ddot": 0,
        "tle_line1": "1 47719U 21016A   26033.91008395 -.00000136  00000+0  00000+0 0  9996",
        "tle_line2": "2 47719  63.1922  76.7750 7229726 269.3406  15.3006  2.00623064 36096"
      },
      "geometry": {
        "type": "Point",
        "coordinates": [
          101.03027913751085,
          39.11639773624341
        ]
      }
    },
    {
      "type": "Feature",
      "properties": {
        "norad_id": 49008,
        "name": "FENGYUN 3E",
        "group": "weather",
        "lat": -7.483912395096817,
        "lon": 40.51424223531848,
        "alt_km": 830.1668535107028,
        "timestamp": "2026-02-03T10:52:47.937453+00:00",
        "meta_object_name": "FENGYUN 3E",
        "meta_object_id": "2021-062A",
        "meta_epoch": "2026-02-03T04:09:02.375424",
        "meta_mean_motion": 14.19888789,
        "meta_eccentricity": 0.0002617,
        "meta_inclination": 98.7489,
        "meta_ra_of_asc_node": 39.078,
        "meta_arg_of_pericenter": 101.9881,
        "meta_mean_anomaly": 258.1589,
        "meta_ephemeris_type": 0,
        "meta_classification_type": "U",
        "meta_norad_cat_id": 49008,
        "meta_element_set_no": 999,
        "meta_rev_at_epoch": 23756,
        "meta_bstar": -4.2034e-06,
        "meta_mean_motion_dot": -5.3e-07,
        "meta_mean_motion_ddot": 0,
        "tle_line1": "1 49008U 21062A   26034.17294416 -.00000053  00000+0 -42034-5 0  9998",
        "tle_line2": "2 49008  98.7489  39.0780 0002617 101.9881 258.1589 14.19888789237563"
      },
      "geometry": {
        "type": "Point",
        "coordinates": [
          40.51424223531848,
          -7.483912395096817
        ]
      }
    },
    {
      "type": "Feature",
      "properties": {
        "norad_id": 51850,
        "name": "GOES 18",
        "group": "weather",
        "lat": 0.03813333913937155,
        "lon": 159.84170516699228,
        "alt_km": 35788.81413628923,
        "timestamp": "2026-02-03T10:52:47.937474+00:00",
        "meta_object_name": "GOES 18",
        "meta_object_id": "2022-021A",
        "meta_epoch": "2026-02-03T03:32:10.804128",
        "meta_mean_motion": 1.00271482,
        "meta_eccentricity": 6.76e-05,
        "meta_inclination": 0.015,
        "meta_ra_of_asc_node": 76.6648,
        "meta_arg_of_pericenter": 283.3621,
        "meta_mean_anomaly": 49.3182,
        "meta_ephemeris_type": 0,
        "meta_classification_type": "U",
        "meta_norad_cat_id": 51850,
        "meta_element_set_no": 999,
        "meta_rev_at_epoch": 524,
        "meta_bstar": 0,
        "meta_mean_motion_dot": 8.8e-07,
        "meta_mean_motion_ddot": 0,
        "tle_line1": "1 51850U 22021A   26034.14734727  .00000088  00000+0  00000+0 0  9990",
        "tle_line2": "2 51850   0.0150  76.6648 0000676 283.3621  49.3182  1.00271482  5241"
      },
      "geometry": {
        "type": "Point",
        "coordinates": [
          159.84170516699228,
          0.03813333913937155
        ]
      }
    },
    {
      "type": "Feature",
      "properties": {
        "norad_id": 54234,
        "name": "NOAA 21 (JPSS-2)",
        "group": "weather",
        "lat": -66.06888308254207,
        "lon": -4.569565035212703,
        "alt_km": 834.4487731902491,
        "timestamp": "2026-02-03T10:52:47.937491+00:00",
        "meta_object_name": "NOAA 21 (JPSS-2)",
        "meta_object_id": "2022-150A",
        "meta_epoch": "2026-02-03T02:44:24.070272",
        "meta_mean_motion": 14.19542235,
        "meta_eccentricity": 0.0001198,
        "meta_inclination": 98.7518,
        "meta_ra_of_asc_node": 334.7845,
        "meta_arg_of_pericenter": 179.9328,
        "meta_mean_anomaly": 180.1848,
        "meta_ephemeris_type": 0,
        "meta_classification_type": "U",
        "meta_norad_cat_id": 54234,
        "meta_element_set_no": 999,
        "meta_rev_at_epoch": 16752,
        "meta_bstar": 5.7377e-05,
        "meta_mean_motion_dot": 7.7e-07,
        "meta_mean_motion_ddot": 0,
        "tle_line1": "1 54234U 22150A   26034.11416748  .00000077  00000+0  57377-4 0  9991",
        "tle_line2": "2 54234  98.7518 334.7845 0001198 179.9328 180.1848 14.19542235167527"
      },
      "geometry": {
        "type": "Point",
        "coordinates": [
          -4.569565035212703,
          -66.06888308254207
        ]
      }
    },
    {
      "type": "Feature",
      "properties": {
        "norad_id": 54743,
        "name": "METEOSAT-12 (MTG-I1)",
        "group": "weather",
        "lat": -0.7168712297350704,
        "lon": -63.48374523795646,
        "alt_km": 35777.364244695964,
        "timestamp": "2026-02-03T10:52:47.937509+00:00",
        "meta_object_name": "METEOSAT-12 (MTG-I1)",
        "meta_object_id": "2022-170C",
        "meta_epoch": "2026-02-03T03:08:37.434912",
        "meta_mean_motion": 1.00269627,
        "meta_eccentricity": 0.0002224,
        "meta_inclination": 0.7079,
        "meta_ra_of_asc_node": 24.5742,
        "meta_arg_of_pericenter": 269.2566,
        "meta_mean_anomaly": 246.2884,
        "meta_ephemeris_type": 0,
        "meta_classification_type": "U",
        "meta_norad_cat_id": 54743,
        "meta_element_set_no": 999,
        "meta_rev_at_epoch": 1163,
        "meta_bstar": 0,
        "meta_mean_motion_dot": -1.7e-07,
        "meta_mean_motion_ddot": 0,
        "tle_line1": "1 54743U 22170C   26034.13098883 -.00000017  00000+0  00000+0 0  9997",
        "tle_line2": "2 54743   0.7079  24.5742 0002224 269.2566 246.2884  1.00269627 11636"
      },
      "geometry": {
        "type": "Point",
        "coordinates": [
          -63.48374523795646,
          -0.7168712297350704
        ]
      }
    },
    {
      "type": "Feature",
      "properties": {
        "norad_id": 55973,
        "name": "TIANMU-1 03",
        "group": "weather",
        "lat": -10.088534054795561,
        "lon": -154.99614973473211,
        "alt_km": 443.3363840850061,
        "timestamp": "2026-02-03T10:52:47.937526+00:00",
        "meta_object_name": "TIANMU-1 03",
        "meta_object_id": "2023-039A",
        "meta_epoch": "2026-02-03T04:41:51.973152",
        "meta_mean_motion": 15.42861965,
        "meta_eccentricity": 0.0002686,
        "meta_inclination": 97.5133,
        "meta_ra_of_asc_node": 203.3927,
        "meta_arg_of_pericenter": 212.5794,
        "meta_mean_anomaly": 147.5288,
        "meta_ephemeris_type": 0,
        "meta_classification_type": "U",
        "meta_norad_cat_id": 55973,
        "meta_element_set_no": 999,
        "meta_rev_at_epoch": 16014,
        "meta_bstar": 0.00042264,
        "meta_mean_motion_dot": 0.00018473,
        "meta_mean_motion_ddot": 0,
        "tle_line1": "1 55973U 23039A   26034.19574043  .00018473  00000+0  42264-3 0  9997",
        "tle_line2": "2 55973  97.5133 203.3927 0002686 212.5794 147.5288 15.42861965160141"
      },
      "geometry": {
        "type": "Point",
        "coordinates": [
          -154.99614973473211,
          -10.088534054795561
        ]
      }
    },
    {
      "type": "Feature",
      "properties": {
        "norad_id": 55974,
        "name": "TIANMU-1 04",
        "group": "weather",
        "lat": 8.741532261157761,
        "lon": 23.991061453756526,
        "alt_km": 436.5940178398696,
        "timestamp": "2026-02-03T10:52:47.937542+00:00",
        "meta_object_name": "TIANMU-1 04",
        "meta_object_id": "2023-039B",
        "meta_epoch": "2026-02-03T03:54:58.224960",
        "meta_mean_motion": 15.4323808,
        "meta_eccentricity": 0.0003417,
        "meta_inclination": 97.5066,
        "meta_ra_of_asc_node": 202.5302,
        "meta_arg_of_pericenter": 209.92,
        "meta_mean_anomaly": 150.1853,
        "meta_ephemeris_type": 0,
        "meta_classification_type": "U",
        "meta_norad_cat_id": 55974,
        "meta_element_set_no": 999,
        "meta_rev_at_epoch": 16014,
        "meta_bstar": 0.00043272,
        "meta_mean_motion_dot": 0.0001916,
        "meta_mean_motion_ddot": 0,
        "tle_line1": "1 55974U 23039B   26034.16317390  .00019160  00000+0  43272-3 0  9999",
        "tle_line2": "2 55974  97.5066 202.5302 0003417 209.9200 150.1853 15.43238080160145"
      },
      "geometry": {
        "type": "Point",
        "coordinates": [
          23.991061453756526,
          8.741532261157761
        ]
      }
    },
    {
      "type": "Feature",
      "properties": {
        "norad_id": 55975,
        "name": "TIANMU-1 05",
        "group": "weather",
        "lat": 52.349396208590946,
        "lon": 33.16936832334411,
        "alt_km": 433.5723425610104,
        "timestamp": "2026-02-03T10:52:47.937558+00:00",
        "meta_object_name": "TIANMU-1 05",
        "meta_object_id": "2023-039C",
        "meta_epoch": "2026-02-03T04:06:18.072864",
        "meta_mean_motion": 15.4280861,
        "meta_eccentricity": 0.000233,
        "meta_inclination": 97.5112,
        "meta_ra_of_asc_node": 203.0312,
        "meta_arg_of_pericenter": 240.331,
        "meta_mean_anomaly": 119.7705,
        "meta_ephemeris_type": 0,
        "meta_classification_type": "U",
        "meta_norad_cat_id": 55975,
        "meta_element_set_no": 999,
        "meta_rev_at_epoch": 16012,
        "meta_bstar": 0.00043428,
        "meta_mean_motion_dot": 0.00018951,
        "meta_mean_motion_ddot": 0,
        "tle_line1": "1 55975U 23039C   26034.17104251  .00018951  00000+0  43428-3 0  9991",
        "tle_line2": "2 55975  97.5112 203.0312 0002330 240.3310 119.7705 15.42808610160125"
      },
      "geometry": {
        "type": "Point",
        "coordinates": [
          33.16936832334411,
          52.349396208590946
        ]
      }
    },
    {
      "type": "Feature",
      "properties": {
        "norad_id": 55976,
        "name": "TIANMU-1 06",
        "group": "weather",
        "lat": 11.7611539194525,
        "lon": 25.406465890908905,
        "alt_km": 437.0945444298259,
        "timestamp": "2026-02-03T10:52:47.937574+00:00",
        "meta_object_name": "TIANMU-1 06",
        "meta_object_id": "2023-039D",
        "meta_epoch": "2026-02-03T03:55:46.102656",
        "meta_mean_motion": 15.43276992,
        "meta_eccentricity": 0.0002667,
        "meta_inclination": 97.5123,
        "meta_ra_of_asc_node": 203.5333,
        "meta_arg_of_pericenter": 233.6995,
        "meta_mean_anomaly": 126.4006,
        "meta_ephemeris_type": 0,
        "meta_classification_type": "U",
        "meta_norad_cat_id": 55976,
        "meta_element_set_no": 999,
        "meta_rev_at_epoch": 16014,
        "meta_bstar": 0.00042205,
        "meta_mean_motion_dot": 0.00018707,
        "meta_mean_motion_ddot": 0,
        "tle_line1": "1 55976U 23039D   26034.16372804  .00018707  00000+0  42205-3 0  9993",
        "tle_line2": "2 55976  97.5123 203.5333 0002667 233.6995 126.4006 15.43276992160147"
      },
      "geometry": {
        "type": "Point",
        "coordinates": [
          25.406465890908905,
          11.7611539194525
        ]
      }
    },
    {
      "type": "Feature",
      "properties": {
        "norad_id": 56232,
        "name": "FENGYUN 3G",
        "group": "weather",
        "lat": -33.659770412938194,
        "lon": 169.60850881158814,
        "alt_km": 407.0625469632623,
        "timestamp": "2026-02-03T10:52:47.937590+00:00",
        "meta_object_name": "FENGYUN 3G",
        "meta_object_id": "2023-055A",
        "meta_epoch": "2026-02-03T03:43:45.414336",
        "meta_mean_motion": 15.52294358,
        "meta_eccentricity": 0.0009757,
        "meta_inclination": 49.9948,
        "meta_ra_of_asc_node": 317.1389,
        "meta_arg_of_pericenter": 224.7073,
        "meta_mean_anomaly": 135.3108,
        "meta_ephemeris_type": 0,
        "meta_classification_type": "U",
        "meta_norad_cat_id": 56232,
        "meta_element_set_no": 999,
        "meta_rev_at_epoch": 15917,
        "meta_bstar": 0.00052107,
        "meta_mean_motion_dot": 0.00032043,
        "meta_mean_motion_ddot": 0,
        "tle_line1": "1 56232U 23055A   26034.15538674  .00032043  00000+0  52107-3 0  9996",
        "tle_line2": "2 56232  49.9948 317.1389 0009757 224.7073 135.3108 15.52294358159176"
      },
      "geometry": {
        "type": "Point",
        "coordinates": [
          169.60850881158814,
          -33.659770412938194
        ]
      }
    },
    {
      "type": "Feature",
      "properties": {
        "norad_id": 57166,
        "name": "METEOR-M2 3",
        "group": "weather",
        "lat": -29.02242680811205,
        "lon": 96.88409352362643,
        "alt_km": 819.8749898590995,
        "timestamp": "2026-02-03T10:52:47.937609+00:00",
        "meta_object_name": "METEOR-M2 3",
        "meta_object_id": "2023-091A",
        "meta_epoch": "2026-02-03T04:16:21.161280",
        "meta_mean_motion": 14.24033785,
        "meta_eccentricity": 0.0003812,
        "meta_inclination": 98.629,
        "meta_ra_of_asc_node": 91.781,
        "meta_arg_of_pericenter": 184.5217,
        "meta_mean_anomaly": 175.5928,
        "meta_ephemeris_type": 0,
        "meta_classification_type": "U",
        "meta_norad_cat_id": 57166,
        "meta_element_set_no": 999,
        "meta_rev_at_epoch": 13544,
        "meta_bstar": 2.326e-05,
        "meta_mean_motion_dot": 1e-07,
        "meta_mean_motion_ddot": 0,
        "tle_line1": "1 57166U 23091A   26034.17802270  .00000010  00000+0  23260-4 0  9999",
        "tle_line2": "2 57166  98.6290  91.7810 0003812 184.5217 175.5928 14.24033785135440"
      },
      "geometry": {
        "type": "Point",
        "coordinates": [
          96.88409352362643,
          -29.02242680811205
        ]
      }
    },
    {
      "type": "Feature",
      "properties": {
        "norad_id": 57399,
        "name": "TIANMU-1 07",
        "group": "weather",
        "lat": 27.75694521483232,
        "lon": -87.9922892342716,
        "alt_km": 477.5084902719864,
        "timestamp": "2026-02-03T10:52:47.937628+00:00",
        "meta_object_name": "TIANMU-1 07",
        "meta_object_id": "2023-101A",
        "meta_epoch": "2026-02-03T03:56:05.795808",
        "meta_mean_motion": 15.29002944,
        "meta_eccentricity": 0.0002492,
        "meta_inclination": 97.2793,
        "meta_ra_of_asc_node": 87.8673,
        "meta_arg_of_pericenter": 236.3609,
        "meta_mean_anomaly": 123.7394,
        "meta_ephemeris_type": 0,
        "meta_classification_type": "U",
        "meta_norad_cat_id": 57399,
        "meta_element_set_no": 999,
        "meta_rev_at_epoch": 14116,
        "meta_bstar": 0.00029742,
        "meta_mean_motion_dot": 8.305e-05,
        "meta_mean_motion_ddot": 0,
        "tle_line1": "1 57399U 23101A   26034.16395597  .00008305  00000+0  29742-3 0  9992",
        "tle_line2": "2 57399  97.2793  87.8673 0002492 236.3609 123.7394 15.29002944141165"
      },
      "geometry": {
        "type": "Point",
        "coordinates": [
          -87.9922892342716,
          27.75694521483232
        ]
      }
    },
    {
      "type": "Feature",
      "properties": {
        "norad_id": 57400,
        "name": "TIANMU-1 08",
        "group": "weather",
        "lat": -39.08012799037924,
        "lon": 93.89227004665408,
        "alt_km": 485.03057794630877,
        "timestamp": "2026-02-03T10:52:47.937644+00:00",
        "meta_object_name": "TIANMU-1 08",
        "meta_object_id": "2023-101B",
        "meta_epoch": "2026-02-03T04:46:09.013152",
        "meta_mean_motion": 15.28894573,
        "meta_eccentricity": 0.0004247,
        "meta_inclination": 97.2781,
        "meta_ra_of_asc_node": 87.6858,
        "meta_arg_of_pericenter": 243.8673,
        "meta_mean_anomaly": 116.213,
        "meta_ephemeris_type": 0,
        "meta_classification_type": "U",
        "meta_norad_cat_id": 57400,
        "meta_element_set_no": 999,
        "meta_rev_at_epoch": 14116,
        "meta_bstar": 0.00027392,
        "meta_mean_motion_dot": 7.618e-05,
        "meta_mean_motion_ddot": 0,
        "tle_line1": "1 57400U 23101B   26034.19871543  .00007618  00000+0  27392-3 0  9993",
        "tle_line2": "2 57400  97.2781  87.6858 0004247 243.8673 116.2130 15.28894573141163"
      },
      "geometry": {
        "type": "Point",
        "coordinates": [
          93.89227004665408,
          -39.08012799037924
        ]
      }
    },
    {
      "type": "Feature",
      "properties": {
        "norad_id": 57401,
        "name": "TIANMU-1 09",
        "group": "weather",
        "lat": 50.20699450499295,
        "lon": 78.60466194160794,
        "alt_km": 476.5131430310348,
        "timestamp": "2026-02-03T10:52:47.937660+00:00",
        "meta_object_name": "TIANMU-1 09",
        "meta_object_id": "2023-101C",
        "meta_epoch": "2026-02-03T04:22:33.935808",
        "meta_mean_motion": 15.29039859,
        "meta_eccentricity": 0.0003583,
        "meta_inclination": 97.2739,
        "meta_ra_of_asc_node": 87.1605,
        "meta_arg_of_pericenter": 246.2716,
        "meta_mean_anomaly": 113.8148,
        "meta_ephemeris_type": 0,
        "meta_classification_type": "U",
        "meta_norad_cat_id": 57401,
        "meta_element_set_no": 999,
        "meta_rev_at_epoch": 14116,
        "meta_bstar": 0.00029068,
        "meta_mean_motion_dot": 8.125e-05,
        "meta_mean_motion_ddot": 0,
        "tle_line1": "1 57401U 23101C   26034.18233722  .00008125  00000+0  29068-3 0  9990",
        "tle_line2": "2 57401  97.2739  87.1605 0003583 246.2716 113.8148 15.29039859141160"
      },
      "geometry": {
        "type": "Point",
        "coordinates": [
          78.60466194160794,
          50.20699450499295
        ]
      }
    },
    {
      "type": "Feature",
      "properties": {
        "norad_id": 57402,
        "name": "TIANMU-1 10",
        "group": "weather",
        "lat": -41.005192991994846,
        "lon": -98.05194280525075,
        "alt_km": 482.0956335308083,
        "timestamp": "2026-02-03T10:52:47.937676+00:00",
        "meta_object_name": "TIANMU-1 10",
        "meta_object_id": "2023-101D",
        "meta_epoch": "2026-02-03T03:37:55.462368",
        "meta_mean_motion": 15.29032727,
        "meta_eccentricity": 0.0005288,
        "meta_inclination": 97.2819,
        "meta_ra_of_asc_node": 88.0357,
        "meta_arg_of_pericenter": 249.5427,
        "meta_mean_anomaly": 110.5246,
        "meta_ephemeris_type": 0,
        "meta_classification_type": "U",
        "meta_norad_cat_id": 57402,
        "meta_element_set_no": 999,
        "meta_rev_at_epoch": 14115,
        "meta_bstar": 0.00030155,
        "meta_mean_motion_dot": 8.432e-05,
        "meta_mean_motion_ddot": 0,
        "tle_line1": "1 57402U 23101D   26034.15133637  .00008432  00000+0  30155-3 0  9992",
        "tle_line2": "2 57402  97.2819  88.0357 0005288 249.5427 110.5246 15.29032727141152"
      },
      "geometry": {
        "type": "Point",
        "coordinates": [
          -98.05194280525075,
          -41.005192991994846
        ]
      }
    },
    {
      "type": "Feature",
      "properties": {
        "norad_id": 57490,
        "name": "FENGYUN 3F",
        "group": "weather",
        "lat": 60.422883292025126,
        "lon": 91.22528636097087,
        "alt_km": 818.9475369337679,
        "timestamp": "2026-02-03T10:52:47.937692+00:00",
        "meta_object_name": "FENGYUN 3F",
        "meta_object_id": "2023-111A",
        "meta_epoch": "2026-02-03T03:49:33.734208",
        "meta_mean_motion": 14.19910637,
        "meta_eccentricity": 0.0001457,
        "meta_inclination": 98.6996,
        "meta_ra_of_asc_node": 106.5874,
        "meta_arg_of_pericenter": 102.2657,
        "meta_mean_anomaly": 257.8683,
        "meta_ephemeris_type": 0,
        "meta_classification_type": "U",
        "meta_norad_cat_id": 57490,
        "meta_element_set_no": 999,
        "meta_rev_at_epoch": 12984,
        "meta_bstar": 5.7217e-05,
        "meta_mean_motion_dot": 7.8e-07,
        "meta_mean_motion_ddot": 0,
        "tle_line1": "1 57490U 23111A   26034.15941822  .00000078  00000+0  57217-4 0  9990",
        "tle_line2": "2 57490  98.6996 106.5874 0001457 102.2657 257.8683 14.19910637129849"
      },
      "geometry": {
        "type": "Point",
        "coordinates": [
          91.22528636097087,
          60.422883292025126
        ]
      }
    },
    {
      "type": "Feature",
      "properties": {
        "norad_id": 58584,
        "name": "ARKTIKA-M 2",
        "group": "weather",
        "lat": 61.687112421554545,
        "lon": -80.33316811019472,
        "alt_km": 36470.64576020434,
        "timestamp": "2026-02-03T10:52:47.937710+00:00",
        "meta_object_name": "ARKTIKA-M 2",
        "meta_object_id": "2023-198A",
        "meta_epoch": "2026-01-31T04:16:26.900832",
        "meta_mean_motion": 2.00612872,
        "meta_eccentricity": 0.68712847,
        "meta_inclination": 63.2231,
        "meta_ra_of_asc_node": 169.5051,
        "meta_arg_of_pericenter": 267.9041,
        "meta_mean_anomaly": 18.8311,
        "meta_ephemeris_type": 0,
        "meta_classification_type": "U",
        "meta_norad_cat_id": 58584,
        "meta_element_set_no": 999,
        "meta_rev_at_epoch": 1557,
        "meta_bstar": 0,
        "meta_mean_motion_dot": 1.44e-06,
        "meta_mean_motion_ddot": 0,
        "tle_line1": "1 58584U 23198A   26031.17808913  .00000144  00000+0  00000+0 0  9999",
        "tle_line2": "2 58584  63.2231 169.5051 6871284 267.9041  18.8311  2.00612872 15579"
      },
      "geometry": {
        "type": "Point",
        "coordinates": [
          -80.33316811019472,
          61.687112421554545
        ]
      }
    },
    {
      "type": "Feature",
      "properties": {
        "norad_id": 58645,
        "name": "TIANMU-1 11",
        "group": "weather",
        "lat": 81.9202054878007,
        "lon": -7.355177648969145,
        "alt_km": 475.4702129416264,
        "timestamp": "2026-02-03T10:52:47.937732+00:00",
        "meta_object_name": "TIANMU-1 11",
        "meta_object_id": "2023-205A",
        "meta_epoch": "2026-02-03T05:46:42.999744",
        "meta_mean_motion": 15.25385668,
        "meta_eccentricity": 0.001087,
        "meta_inclination": 97.3569,
        "meta_ra_of_asc_node": 57.9589,
        "meta_arg_of_pericenter": 113.5954,
        "meta_mean_anomaly": 246.6427,
        "meta_ephemeris_type": 0,
        "meta_classification_type": "U",
        "meta_norad_cat_id": 58645,
        "meta_element_set_no": 999,
        "meta_rev_at_epoch": 11709,
        "meta_bstar": 0.00025877,
        "meta_mean_motion_dot": 6.471e-05,
        "meta_mean_motion_ddot": 0,
        "tle_line1": "1 58645U 23205A   26034.24077546  .00006471  00000+0  25877-3 0  9999",
        "tle_line2": "2 58645  97.3569  57.9589 0010870 113.5954 246.6427 15.25385668117094"
      },
      "geometry": {
        "type": "Point",
        "coordinates": [
          -7.355177648969145,
          81.9202054878007
        ]
      }
    },
    {
      "type": "Feature",
      "properties": {
        "norad_id": 58646,
        "name": "TIANMU-1 12",
        "group": "weather",
        "lat": -78.52007783861116,
        "lon": 97.4564837494789,
        "alt_km": 503.62812549621685,
        "timestamp": "2026-02-03T10:52:47.937748+00:00",
        "meta_object_name": "TIANMU-1 12",
        "meta_object_id": "2023-205B",
        "meta_epoch": "2026-02-03T03:21:48.525408",
        "meta_mean_motion": 15.25292191,
        "meta_eccentricity": 0.0009279,
        "meta_inclination": 97.3556,
        "meta_ra_of_asc_node": 57.6485,
        "meta_arg_of_pericenter": 99.574,
        "meta_mean_anomaly": 260.6547,
        "meta_ephemeris_type": 0,
        "meta_classification_type": "U",
        "meta_norad_cat_id": 58646,
        "meta_element_set_no": 999,
        "meta_rev_at_epoch": 11706,
        "meta_bstar": 0.00029451,
        "meta_mean_motion_dot": 7.352e-05,
        "meta_mean_motion_ddot": 0,
        "tle_line1": "1 58646U 23205B   26034.14014497  .00007352  00000+0  29451-3 0  9996",
        "tle_line2": "2 58646  97.3556  57.6485 0009279  99.5740 260.6547 15.25292191117064"
      },
      "geometry": {
        "type": "Point",
        "coordinates": [
          97.4564837494789,
          -78.52007783861116
        ]
      }
    },
    {
      "type": "Feature",
      "properties": {
        "norad_id": 58647,
        "name": "TIANMU-1 13",
        "group": "weather",
        "lat": 74.79057577065741,
        "lon": -93.43907669261444,
        "alt_km": 476.48766927906854,
        "timestamp": "2026-02-03T10:52:47.937767+00:00",
        "meta_object_name": "TIANMU-1 13",
        "meta_object_id": "2023-205C",
        "meta_epoch": "2026-02-03T05:42:21.643200",
        "meta_mean_motion": 15.25340373,
        "meta_eccentricity": 0.0009528,
        "meta_inclination": 97.3583,
        "meta_ra_of_asc_node": 57.9682,
        "meta_arg_of_pericenter": 84.4489,
        "meta_mean_anomaly": 275.7836,
        "meta_ephemeris_type": 0,
        "meta_classification_type": "U",
        "meta_norad_cat_id": 58647,
        "meta_element_set_no": 999,
        "meta_rev_at_epoch": 11707,
        "meta_bstar": 0.0002728,
        "meta_mean_motion_dot": 6.814e-05,
        "meta_mean_motion_ddot": 0,
        "tle_line1": "1 58647U 23205C   26034.23775050  .00006814  00000+0  27280-3 0  9996",
        "tle_line2": "2 58647  97.3583  57.9682 0009528  84.4489 275.7836 15.25340373117072"
      },
      "geometry": {
        "type": "Point",
        "coordinates": [
          -93.43907669261444,
          74.79057577065741
        ]
      }
    },
    {
      "type": "Feature",
      "properties": {
        "norad_id": 58648,
        "name": "TIANMU-1 14",
        "group": "weather",
        "lat": -10.88597273358324,
        "lon": -123.94254986032554,
        "alt_km": 495.9147232887972,
        "timestamp": "2026-02-03T10:52:47.937785+00:00",
        "meta_object_name": "TIANMU-1 14",
        "meta_object_id": "2023-205D",
        "meta_epoch": "2026-02-03T05:19:24.592224",
        "meta_mean_motion": 15.25318437,
        "meta_eccentricity": 0.0010366,
        "meta_inclination": 97.3517,
        "meta_ra_of_asc_node": 57.2528,
        "meta_arg_of_pericenter": 87.8231,
        "meta_mean_anomaly": 272.4194,
        "meta_ephemeris_type": 0,
        "meta_classification_type": "U",
        "meta_norad_cat_id": 58648,
        "meta_element_set_no": 999,
        "meta_rev_at_epoch": 11707,
        "meta_bstar": 0.00028446,
        "meta_mean_motion_dot": 7.106e-05,
        "meta_mean_motion_ddot": 0,
        "tle_line1": "1 58648U 23205D   26034.22181241  .00007106  00000+0  28446-3 0  9999",
        "tle_line2": "2 58648  97.3517  57.2528 0010366  87.8231 272.4194 15.25318437117073"
      },
      "geometry": {
        "type": "Point",
        "coordinates": [
          -123.94254986032554,
          -10.88597273358324
        ]
      }
    },
    {
      "type": "Feature",
      "properties": {
        "norad_id": 58660,
        "name": "TIANMU-1 19",
        "group": "weather",
        "lat": 34.422024657994406,
        "lon": 145.29203429745127,
        "alt_km": 473.18389621164715,
        "timestamp": "2026-02-03T10:52:47.937799+00:00",
        "meta_object_name": "TIANMU-1 19",
        "meta_object_id": "2023-208A",
        "meta_epoch": "2026-02-03T06:01:00.408288",
        "meta_mean_motion": 15.29062546,
        "meta_eccentricity": 0.0006251,
        "meta_inclination": 97.4383,
        "meta_ra_of_asc_node": 150.2261,
        "meta_arg_of_pericenter": 76.0122,
        "meta_mean_anomaly": 284.1812,
        "meta_ephemeris_type": 0,
        "meta_classification_type": "U",
        "meta_norad_cat_id": 58660,
        "meta_element_set_no": 999,
        "meta_rev_at_epoch": 11684,
        "meta_bstar": 0.00040778,
        "meta_mean_motion_dot": 0.00011442,
        "meta_mean_motion_ddot": 0,
        "tle_line1": "1 58660U 23208A   26034.25069917  .00011442  00000+0  40778-3 0  9994",
        "tle_line2": "2 58660  97.4383 150.2261 0006251  76.0122 284.1812 15.29062546116846"
      },
      "geometry": {
        "type": "Point",
        "coordinates": [
          145.29203429745127,
          34.422024657994406
        ]
      }
    },
    {
      "type": "Feature",
      "properties": {
        "norad_id": 58661,
        "name": "TIANMU-1 20",
        "group": "weather",
        "lat": -25.220637256859135,
        "lon": 154.45311402709277,
        "alt_km": 482.48591327027134,
        "timestamp": "2026-02-03T10:52:47.937810+00:00",
        "meta_object_name": "TIANMU-1 20",
        "meta_object_id": "2023-208B",
        "meta_epoch": "2026-02-03T04:42:48.484800",
        "meta_mean_motion": 15.30252651,
        "meta_eccentricity": 0.0008517,
        "meta_inclination": 97.4321,
        "meta_ra_of_asc_node": 150.671,
        "meta_arg_of_pericenter": 82.9316,
        "meta_mean_anomaly": 277.2892,
        "meta_ephemeris_type": 0,
        "meta_classification_type": "U",
        "meta_norad_cat_id": 58661,
        "meta_element_set_no": 999,
        "meta_rev_at_epoch": 11691,
        "meta_bstar": 0.00040506,
        "meta_mean_motion_dot": 0.00011796,
        "meta_mean_motion_ddot": 0,
        "tle_line1": "1 58661U 23208B   26034.19639450  .00011796  00000+0  40506-3 0  9994",
        "tle_line2": "2 58661  97.4321 150.6710 0008517  82.9316 277.2892 15.30252651116919"
      },
      "geometry": {
        "type": "Point",
        "coordinates": [
          154.45311402709277,
          -25.220637256859135
        ]
      }
    },
    {
      "type": "Feature",
      "properties": {
        "norad_id": 58662,
        "name": "TIANMU-1 21",
        "group": "weather",
        "lat": 72.70796567388821,
        "lon": -2.11492503887296,
        "alt_km": 455.6145199703733,
        "timestamp": "2026-02-03T10:52:47.937821+00:00",
        "meta_object_name": "TIANMU-1 21",
        "meta_object_id": "2023-208C",
        "meta_epoch": "2026-01-30T10:50:27.344832",
        "meta_mean_motion": 15.32619606,
        "meta_eccentricity": 0.00084464,
        "meta_inclination": 97.4366,
        "meta_ra_of_asc_node": 149.056,
        "meta_arg_of_pericenter": 90.5017,
        "meta_mean_anomaly": 269.7193,
        "meta_ephemeris_type": 0,
        "meta_classification_type": "U",
        "meta_norad_cat_id": 58662,
        "meta_element_set_no": 999,
        "meta_rev_at_epoch": 11645,
        "meta_bstar": 0.00049859371,
        "meta_mean_motion_dot": 0.00015658,
        "meta_mean_motion_ddot": 0,
        "tle_line1": "1 58662U 23208C   26030.45170538  .00015658  00000+0  49859-3 0  9998",
        "tle_line2": "2 58662  97.4366 149.0560 0008446  90.5017 269.7193 15.32619606116456"
      },
      "geometry": {
        "type": "Point",
        "coordinates": [
          -2.11492503887296,
          72.70796567388821
        ]
      }
    },
    {
      "type": "Feature",
      "properties": {
        "norad_id": 58663,
        "name": "TIANMU-1 22",
        "group": "weather",
        "lat": -18.275622646593146,
        "lon": 152.9334902412412,
        "alt_km": 486.1014938822127,
        "timestamp": "2026-02-03T10:52:47.937830+00:00",
        "meta_object_name": "TIANMU-1 22",
        "meta_object_id": "2023-208D",
        "meta_epoch": "2026-02-03T04:40:36.166656",
        "meta_mean_motion": 15.28730251,
        "meta_eccentricity": 0.0005033,
        "meta_inclination": 97.4377,
        "meta_ra_of_asc_node": 150.2026,
        "meta_arg_of_pericenter": 96.1783,
        "meta_mean_anomaly": 264.0031,
        "meta_ephemeris_type": 0,
        "meta_classification_type": "U",
        "meta_norad_cat_id": 58663,
        "meta_element_set_no": 999,
        "meta_rev_at_epoch": 11684,
        "meta_bstar": 0.00040909,
        "meta_mean_motion_dot": 0.0001136,
        "meta_mean_motion_ddot": 0,
        "tle_line1": "1 58663U 23208D   26034.19486304  .00011360  00000+0  40909-3 0  9998",
        "tle_line2": "2 58663  97.4377 150.2026 0005033  96.1783 264.0031 15.28730251116848"
      },
      "geometry": {
        "type": "Point",
        "coordinates": [
          152.9334902412412,
          -18.275622646593146
        ]
      }
    },
    {
      "type": "Feature",
      "properties": {
        "norad_id": 58700,
        "name": "TIANMU-1 15",
        "group": "weather",
        "lat": -24.306422839710663,
        "lon": 37.359677666892864,
        "alt_km": 497.15514824071397,
        "timestamp": "2026-02-03T10:52:47.937843+00:00",
        "meta_object_name": "TIANMU-1 15",
        "meta_object_id": "2024-004A",
        "meta_epoch": "2026-02-03T05:15:50.055840",
        "meta_mean_motion": 15.25288514,
        "meta_eccentricity": 0.0008417,
        "meta_inclination": 97.464,
        "meta_ra_of_asc_node": 220.521,
        "meta_arg_of_pericenter": 98.9974,
        "meta_mean_anomaly": 261.2217,
        "meta_ephemeris_type": 0,
        "meta_classification_type": "U",
        "meta_norad_cat_id": 58700,
        "meta_element_set_no": 999,
        "meta_rev_at_epoch": 11534,
        "meta_bstar": 0.00027765,
        "meta_mean_motion_dot": 6.923e-05,
        "meta_mean_motion_ddot": 0,
        "tle_line1": "1 58700U 24004A   26034.21932935  .00006923  00000+0  27765-3 0  9998",
        "tle_line2": "2 58700  97.4640 220.5210 0008417  98.9974 261.2217 15.25288514115346"
      },
      "geometry": {
        "type": "Point",
        "coordinates": [
          37.359677666892864,
          -24.306422839710663
        ]
      }
    },
    {
      "type": "Feature",
      "properties": {
        "norad_id": 58701,
        "name": "TIANMU-1 16",
        "group": "weather",
        "lat": -67.72503139073486,
        "lon": -121.24581989688843,
        "alt_km": 501.67169426950386,
        "timestamp": "2026-02-03T10:52:47.937854+00:00",
        "meta_object_name": "TIANMU-1 16",
        "meta_object_id": "2024-004B",
        "meta_epoch": "2026-02-03T04:53:03.632064",
        "meta_mean_motion": 15.25318408,
        "meta_eccentricity": 0.0006786,
        "meta_inclination": 97.4581,
        "meta_ra_of_asc_node": 219.8538,
        "meta_arg_of_pericenter": 100.7884,
        "meta_mean_anomaly": 259.4118,
        "meta_ephemeris_type": 0,
        "meta_classification_type": "U",
        "meta_norad_cat_id": 58701,
        "meta_element_set_no": 999,
        "meta_rev_at_epoch": 11534,
        "meta_bstar": 0.00031312,
        "meta_mean_motion_dot": 7.821e-05,
        "meta_mean_motion_ddot": 0,
        "tle_line1": "1 58701U 24004B   26034.20351426  .00007821  00000+0  31312-3 0  9999",
        "tle_line2": "2 58701  97.4581 219.8538 0006786 100.7884 259.4118 15.25318408115349"
      },
      "geometry": {
        "type": "Point",
        "coordinates": [
          -121.24581989688843,
          -67.72503139073486
        ]
      }
    },
    {
      "type": "Feature",
      "properties": {
        "norad_id": 58702,
        "name": "TIANMU-1 17",
        "group": "weather",
        "lat": 23.09986043749788,
        "lon": -142.66503937865787,
        "alt_km": 488.4626644577784,
        "timestamp": "2026-02-03T10:52:47.937864+00:00",
        "meta_object_name": "TIANMU-1 17",
        "meta_object_id": "2024-004C",
        "meta_epoch": "2026-02-03T04:28:49.711872",
        "meta_mean_motion": 15.2535745,
        "meta_eccentricity": 0.0005981,
        "meta_inclination": 97.4615,
        "meta_ra_of_asc_node": 220.2737,
        "meta_arg_of_pericenter": 101.6645,
        "meta_mean_anomaly": 258.5264,
        "meta_ephemeris_type": 0,
        "meta_classification_type": "U",
        "meta_norad_cat_id": 58702,
        "meta_element_set_no": 999,
        "meta_rev_at_epoch": 11533,
        "meta_bstar": 0.00032299,
        "meta_mean_motion_dot": 8.079e-05,
        "meta_mean_motion_ddot": 0,
        "tle_line1": "1 58702U 24004C   26034.18668648  .00008079  00000+0  32299-3 0  9995",
        "tle_line2": "2 58702  97.4615 220.2737 0005981 101.6645 258.5264 15.25357450115337"
      },
      "geometry": {
        "type": "Point",
        "coordinates": [
          -142.66503937865787,
          23.09986043749788
        ]
      }
    },
    {
      "type": "Feature",
      "properties": {
        "norad_id": 58703,
        "name": "TIANMU-1 18",
        "group": "weather",
        "lat": 68.27499372172878,
        "lon": 59.95334412891232,
        "alt_km": 479.5629163616695,
        "timestamp": "2026-02-03T10:52:47.937874+00:00",
        "meta_object_name": "TIANMU-1 18",
        "meta_object_id": "2024-004D",
        "meta_epoch": "2026-02-03T04:06:00.480960",
        "meta_mean_motion": 15.25320553,
        "meta_eccentricity": 0.0005383,
        "meta_inclination": 97.4632,
        "meta_ra_of_asc_node": 220.4636,
        "meta_arg_of_pericenter": 100.43,
        "meta_mean_anomaly": 259.7545,
        "meta_ephemeris_type": 0,
        "meta_classification_type": "U",
        "meta_norad_cat_id": 58703,
        "meta_element_set_no": 999,
        "meta_rev_at_epoch": 11533,
        "meta_bstar": 0.00030433,
        "meta_mean_motion_dot": 7.598e-05,
        "meta_mean_motion_ddot": 0,
        "tle_line1": "1 58703U 24004D   26034.17083890  .00007598  00000+0  30433-3 0  9998",
        "tle_line2": "2 58703  97.4632 220.4636 0005383 100.4300 259.7545 15.25320553115337"
      },
      "geometry": {
        "type": "Point",
        "coordinates": [
          59.95334412891232,
          68.27499372172878
        ]
      }
    },
    {
      "type": "Feature",
      "properties": {
        "norad_id": 58990,
        "name": "INSAT-3DS",
        "group": "weather",
        "lat": 0.01610032308438534,
        "lon": 18.90153580910557,
        "alt_km": 35780.81270394609,
        "timestamp": "2026-02-03T10:52:47.937885+00:00",
        "meta_object_name": "INSAT-3DS",
        "meta_object_id": "2024-033A",
        "meta_epoch": "2026-02-02T13:50:30.763680",
        "meta_mean_motion": 1.00269835,
        "meta_eccentricity": 0.00019897,
        "meta_inclination": 0.0089,
        "meta_ra_of_asc_node": 289.5265,
        "meta_arg_of_pericenter": 43.5441,
        "meta_mean_anomaly": 89.3471,
        "meta_ephemeris_type": 0,
        "meta_classification_type": "U",
        "meta_norad_cat_id": 58990,
        "meta_element_set_no": 999,
        "meta_rev_at_epoch": 4571,
        "meta_bstar": 0,
        "meta_mean_motion_dot": -1.65e-06,
        "meta_mean_motion_ddot": 0,
        "tle_line1": "1 58990U 24033A   26033.57674495 -.00000165  00000+0  00000+0 0  9995",
        "tle_line2": "2 58990   0.0089 289.5265 0001989  43.5441  89.3471  1.00269835 45718"
      },
      "geometry": {
        "type": "Point",
        "coordinates": [
          18.90153580910557,
          0.01610032308438534
        ]
      }
    },
    {
      "type": "Feature",
      "properties": {
        "norad_id": 59051,
        "name": "METEOR-M2 4",
        "group": "weather",
        "lat": -46.307618090687996,
        "lon": 4.762286821142561,
        "alt_km": 826.7007656350079,
        "timestamp": "2026-02-03T10:52:47.937896+00:00",
        "meta_object_name": "METEOR-M2 4",
        "meta_object_id": "2024-039A",
        "meta_epoch": "2026-02-03T04:20:52.440864",
        "meta_mean_motion": 14.22411383,
        "meta_eccentricity": 0.000674,
        "meta_inclination": 98.6843,
        "meta_ra_of_asc_node": 355.2885,
        "meta_arg_of_pericenter": 189.1639,
        "meta_mean_anomaly": 170.9417,
        "meta_ephemeris_type": 0,
        "meta_classification_type": "U",
        "meta_norad_cat_id": 59051,
        "meta_element_set_no": 999,
        "meta_rev_at_epoch": 10021,
        "meta_bstar": 3.1e-05,
        "meta_mean_motion_dot": 2.5e-07,
        "meta_mean_motion_ddot": 0,
        "tle_line1": "1 59051U 24039A   26034.18116251  .00000025  00000+0  31000-4 0  9992",
        "tle_line2": "2 59051  98.6843 355.2885 0006740 189.1639 170.9417 14.22411383100212"
      },
      "geometry": {
        "type": "Point",
        "coordinates": [
          4.762286821142561,
          -46.307618090687996
        ]
      }
    },
    {
      "type": "Feature",
      "properties": {
        "norad_id": 60133,
        "name": "GOES 19",
        "group": "weather",
        "lat": -0.0070198696085372984,
        "lon": -138.35369777524107,
        "alt_km": 35789.0208386145,
        "timestamp": "2026-02-03T10:52:47.937908+00:00",
        "meta_object_name": "GOES 19",
        "meta_object_id": "2024-119A",
        "meta_epoch": "2026-02-03T02:16:32.371104",
        "meta_mean_motion": 1.00271525,
        "meta_eccentricity": 0.0001153,
        "meta_inclination": 0.0056,
        "meta_ra_of_asc_node": 329.9197,
        "meta_arg_of_pericenter": 17.529,
        "meta_mean_anomaly": 104.7526,
        "meta_ephemeris_type": 0,
        "meta_classification_type": "U",
        "meta_norad_cat_id": 60133,
        "meta_element_set_no": 999,
        "meta_rev_at_epoch": 562,
        "meta_bstar": 0,
        "meta_mean_motion_dot": -2.57e-06,
        "meta_mean_motion_ddot": 0,
        "tle_line1": "1 60133U 24119A   26034.09481911 -.00000257  00000+0  00000+0 0  9991",
        "tle_line2": "2 60133   0.0056 329.9197 0001153  17.5290 104.7526  1.00271525  5621"
      },
      "geometry": {
        "type": "Point",
        "coordinates": [
          -138.35369777524107,
          -0.0070198696085372984
        ]
      }
    },
    {
      "type": "Feature",
      "properties": {
        "norad_id": 65815,
        "name": "FENGYUN 3H",
        "group": "weather",
        "lat": 76.31686233740975,
        "lon": -60.86308414898493,
        "alt_km": 817.2559421086071,
        "timestamp": "2026-02-03T10:52:47.937918+00:00",
        "meta_object_name": "FENGYUN 3H",
        "meta_object_id": "2025-219A",
        "meta_epoch": "2026-02-03T03:44:34.411776",
        "meta_mean_motion": 14.19922741,
        "meta_eccentricity": 0.000158,
        "meta_inclination": 98.6645,
        "meta_ra_of_asc_node": 337.6248,
        "meta_arg_of_pericenter": 89.5974,
        "meta_mean_anomaly": 270.5384,
        "meta_ephemeris_type": 0,
        "meta_classification_type": "U",
        "meta_norad_cat_id": 65815,
        "meta_element_set_no": 999,
        "meta_rev_at_epoch": 1836,
        "meta_bstar": 6.7938e-05,
        "meta_mean_motion_dot": 1.01e-06,
        "meta_mean_motion_ddot": 0,
        "tle_line1": "1 65815U 25219A   26034.15595384  .00000101  00000+0  67938-4 0  9997",
        "tle_line2": "2 65815  98.6645 337.6248 0001580  89.5974 270.5384 14.19922741 18361"
      },
      "geometry": {
        "type": "Point",
        "coordinates": [
          -60.86308414898493,
          76.31686233740975
        ]
      }
    }
  ]
}